"","rno","rname","city","address","latitude","longitude","setup","lcd","qr","operation"
"5",102,"망원역 1번출구 앞","마포구","서울특별시 마포구 월드컵로 72","37.5556488","126.9106293","2015-09-06","20","","LCD"
"6",103,"망원역 2번출구 앞","마포구","서울특별시 마포구 월드컵로 79","37.55495071","126.9108353","2015-09-06","14","","LCD"
"7",104,"합정역 1번출구 앞","마포구","서울특별시 마포구 양화로 59","37.55062866","126.9149857","2015-09-06","13","","LCD"
"8",105,"합정역 5번출구 앞","마포구","서울특별시 마포구 양화로 48","37.55000687","126.9148254","2015-09-06","5","","LCD"
"9",106,"합정역 7번출구 앞","마포구","서울특별시 마포구 독막로 4","37.54864502","126.9128265","2015-09-06","10","","LCD"
"10",107,"신한은행 서교동금융센터점 앞","마포구","서울특별시 마포구 월드컵북로 35","37.55751038","126.9185028","2015-09-06","5","","LCD"
"11",108,"서교동 사거리","마포구","서울특별시 마포구 양화로 93","37.55274582","126.9186173","2015-09-06","10","","LCD"
"12",109,"제일빌딩 앞","마포구","서울특별시 마포구 어울마당로 26","37.54769135","126.9199829","2015-09-07","10","","LCD"
"13",111,"상수역 2번출구 앞","마포구","서울특별시 마포구 와우산로 40","37.54787064","126.9235306","2015-09-07","10","","LCD"
"14",112,"극동방송국 앞","마포구","서울특별시 마포구 와우산로 56","37.54920197","126.9232025","2015-09-07","10","","LCD"
"15",113,"홍대입구역 2번출구 앞","마포구","서울특별시 마포구 양화로 165","37.55749893","126.9238052","2015-09-07","","25","QR"
"16",114,"홍대입구역 8번출구 앞","마포구","서울특별시 마포구 양화로18길 3","37.55706024","126.9244232","2015-09-07","15","","LCD"
"17",115,"마스타 빌딩 앞","서대문구","서울특별시 서대문구 연희로 7","37.55893326","126.9271164","2020-11-05","","15","QR"
"18",116,"일진아이윌아파트 옆","서대문구","서울특별시 서대문구 동교로 290","37.56454086","126.9270706","2015-09-07","5","","LCD"
"19",117,"홍은사거리","서대문구","마포구 서강로1길 30 ","37.59115982","126.94133","2015-09-07","25","","LCD"
"20",118,"광흥창역 2번출구 앞","마포구","서울특별시 마포구 독막로 지하165","37.54773331","126.9317627","2015-09-07","10","","LCD"
"21",119,"서강나루 공원","마포구","서울특별시 마포구 창전로 30","37.54528427","126.9310532","2015-09-07","10","","LCD"
"22",120,"신수동 사거리","마포구","서울특별시 마포구 토정로 211","37.54524231","126.9341126","2015-09-07","5","","LCD"
"23",121,"마포소방서 앞","마포구","서울특별시 마포구 창전로 76","37.54976654","126.9331741","2015-09-07","15","","LCD"
"24",122,"신성기사식당 앞","마포구","서울특별시 마포구 독막로 223-1","37.54745865","126.9383774","2015-09-07","10","","LCD"
"25",123,"문화촌 공원","서대문구","서울특별시 서대문구 홍제동 277-23","37.59432983","126.9473877","2015-09-07","20","","LCD"
"26",124,"서강대 정문 건너편","마포구","서울특별시 마포구 서강로16길 72","37.55113983","126.9369888","2015-09-07","20","","LCD"
"27",125,"서강대 남문 옆","마포구","서울특별시 마포구 백범로 35","37.54948425","126.9389496","2015-09-07","15","","LCD"
"28",126,"서강대 후문 옆","마포구","서울특별시 마포구 대흥로 122","37.55041122","126.9438477","2015-09-07","20","","LCD"
"29",127,"현대벤처빌 앞","마포구","서울특별시 마포구 백범로 10","37.5535202","126.9369507","2015-09-07","15","","LCD"
"30",128,"신촌역(2호선) 1번출구 옆","서대문구","서울특별시 서대문구 연세로 3-5","37.55549622","126.9363403","2015-09-07","20","","LCD"
"31",129,"신촌역(2호선) 6번출구 옆","마포구","서울특별시 마포구 신촌로 106","37.55505371","126.9375687","2015-09-07","15","","LCD"
"32",130,"신촌역(2호선) 7번출구 앞","마포구","서울특별시 마포구 신촌로 94","37.55485916","126.9361572","2015-09-07","10","","LCD"
"33",131,"증산2교","서대문구","서울특별시 서대문구 증가로 264","37.5841713","126.9111023","2015-09-07","23","","LCD"
"34",133,"해담는다리","서대문구","서울특별시 서대문구 불광천길 150","37.58203125","126.9089966","2015-09-07","15","","LCD"
"35",134,"연세로 명물길","서대문구","서울특별시 서대문구 명물길 33","37.55789185","126.9380798","2020-10-29","","8","QR"
"36",135,"명물길 원형무대 앞","서대문구","서대문구 창천동 31-69","37.5591011","126.9391785","2015-09-07","10","","LCD"
"37",137,"NH농협 신촌지점 앞","서대문구","서울특별시 서대문구 연세로2다길 58","37.55681229","126.9431839","2015-09-07","10","","LCD"
"38",138,"신촌동 제1공영주차장 앞","서대문구","서울특별시 서대문구 증가로 264","37.5591774","126.9345245","2015-09-07","10","","LCD"
"39",139,"연세대 정문 건너편","서대문구","서울특별시 서대문구 연세로 42","37.55979538","126.9344788","2015-09-07","13","","LCD"
"40",140,"이화여대 후문","서대문구","서울특별시 서대문구 연세로 50-1","37.560009","126.9407349","2015-09-07","20","","LCD"
"41",141,"연대 대운동장 옆","서대문구","서울특별시 서대문구 연세로 50","37.56238174","126.9326477","2015-09-07","20","","LCD"
"42",142,"아현역 4번출구 앞","마포구","서울특별시 마포구 아현동 329-15","37.55720139","126.9556656","2016-06-29","11","","LCD"
"43",143,"공덕역 2번출구","마포구","서울특별시 마포구 공덕동 257-88","37.54457855","126.9502182","2016-06-29","9","","LCD"
"44",144,"공덕역 8번출구","마포구","서울특별시 마포구 공덕동 438-5","37.5435791","126.9513245","2016-06-29","10","","LCD"
"45",145,"공덕역 5번출구","마포구","서울특별시 마포구 공덕동 237-9","37.54425049","126.9516373","2016-06-29","9","","LCD"
"46",146,"마포역 2번출구 뒤","마포구","서울특별시 마포구 도화동 555-2","37.53993607","126.9458237","2016-06-29","12","","LCD"
"47",147,"마포역 4번출구 뒤","마포구","서울특별시 마포구 도화동 292-29","37.53927231","126.9459152","2016-06-29","7","","LCD"
"48",148,"용강동 주민센터 앞","마포구","서울특별시 마포구 용강동 234-1","37.54234695","126.9430237","2016-06-29","11","","LCD"
"49",150,"서강대역 2번출구 앞","마포구","서울특별시 마포구 노고산동 112-13","37.55295563","126.9343414","2016-06-29","15","","LCD"
"50",152,"마포구민체육센터 앞","마포구","서울특별시 마포구 망원동 452-4","37.55632401","126.8970947","2020-09-24","","30","QR"
"51",153,"성산2교 사거리","마포구","서울특별시 마포구 성산동 54-17","37.56469727","126.9126129","2016-06-29","10","","LCD"
"52",154,"마포구청역","마포구","서울특별시 마포구 망원동 477-23","37.56090927","126.9054947","2016-06-29","13","","LCD"
"53",155,"가좌역1 번출구 뒤","마포구","서울특별시 마포구 성산동123-29","37.56855011","126.9145126","2016-06-29","15","","LCD"
"54",156,"서울서부지방법원 앞","마포구","서울특별시 마포구 공덕동 105-11","37.54990387","126.9551468","2016-06-29","10","","LCD"
"55",157,"애오개역 4번출구 앞","마포구","서울특별시 마포구 아현동 607-1","37.5530014","126.9566879","2016-06-29","12","","LCD"
"56",158,"독립문 어린이 공원","서대문구","서울특별시 서대문구 영천동 259-1","37.57125854","126.9604797","2016-06-29","15","","LCD"
"57",159,"이대역 4번 출구","서대문구","서울특별시 서대문구 대현동 60-11","37.55695343","126.9463425","2016-06-29","7","","LCD"
"58",160,"북아현동 가구거리","서대문구","서울특별시 서대문구 북아현동 251-78","37.55754852","126.9593811","2016-06-29","20","","LCD"
"59",161,"무악재역1번 출구","서대문구","서울특별시 서대문구 통일로 380-4","37.58224487","126.9506455","2016-06-29","8","","LCD"
"60",162,"봉원고가차도 밑","서대문구","서울특별시 서대문구 대신동 143-1","37.56526947","126.9462433","2016-06-29","15","","LCD"
"61",163,"명지전문대학교 정문 앞","서대문구","서울특별시 서대문구 홍은동 산25-3","37.58369827","126.9249649","2016-06-29","7","","LCD"
"62",164,"북가좌1동 주민센터","서대문구","서울특별시 서대문구 북가좌동 477-1","37.57447815","126.9100494","2016-06-29","10","","LCD"
"63",165,"중앙근린공원","서대문구","서울특별시 서대문구 북가좌동 470-1","37.57513809","126.9139404","2016-06-29","20","","LCD"
"64",166,"가재울 초등학교","서대문구","서울특별시 서대문구 연희동 530","37.57381821","126.9192352","2016-06-29","20","","LCD"
"65",167,"연가초등학교 옆","서대문구","서울특별시 서대문구 북가좌동 70-119","37.57946014","126.9171295","2016-06-29","15","","LCD"
"66",169,"북가좌 삼거리","서대문구","서울특별시 서대문구 북가좌동 400","37.57300186","126.9077988","2016-06-29","15","","LCD"
"67",170,"가재울 뉴타운 주유소 옆","서대문구","서울특별시 서대문구 남가좌동 124","37.57311249","126.9224472","2016-06-29","10","","LCD"
"68",171,"임광빌딩 앞","서대문구","미근동 317-1","37.56472397","126.9672775","2016-06-29","10","","LCD"
"69",173,"서대문역 8번출구 앞","서대문구","서울특별시 서대문구 충정로2가 138","37.56477737","126.9661484","2016-06-29","8","","LCD"
"70",175,"홍연2교옆","서대문구","서울특별시 서대문구 홍은동 387-16","37.57806778","126.9308853","2016-06-29","20","","LCD"
"71",176,"명지대학교 도서관","서대문구","서울특별시 서대문구 거북골로 34","37.58109665","126.9240265","2017-04-24","10","","LCD"
"72",177,"북가좌 초등학교","서대문구","서울특별시 서대문구 거북골로19길 20","37.57767487","126.9098053","2016-07-06","8","","LCD"
"73",178,"증산3교 앞","서대문구","서울특별시 서대문구 북가좌동 352-9","37.57987595","126.9063492","2016-07-06","10","","LCD"
"74",179,"가좌역 4번출구 앞","서대문구","서울특별시 서대문구 남가좌동 293-3 ","37.56912231","126.9147949","2016-06-29","14","","LCD"
"75",180,"충정로역 7번출구 아래","서대문구","서울특별시 서대문구 충정로3가 56-1","37.55996704","126.9624634","2016-06-29","10","","LCD"
"76",181,"망원초록길 입구","마포구","서울특별시 마포구 마포나루길 467","37.55134201","126.9026718","2016-07-06","15","","LCD"
"77",182,"망원2빗물펌프장 앞","마포구","서울특별시?마포구?동교로?8","37.55156708","126.9028473","2021-05-25","","9","QR"
"78",183,"하늘채코오롱아파트 건너편","마포구","서울특별시 마포구 연남로 30","37.56516647","126.9193955","2016-07-06","15","","LCD"
"79",184,"SK망원동주유소 건너편","마포구","서울특별시 마포구 월드컵로 119?","37.55894852","126.907753","2016-07-06","9","","LCD"
"80",185,"마포 신수공원 앞","마포구","서울특별시 마포구 현석동 106-32","37.54254532","126.9342957","2016-07-06","15","","LCD"
"81",186,"월드컵공원","마포구","서울특별시 마포구 하늘공원로 108-1","37.56396484","126.8982086","2016-07-06","40","","LCD"
"82",188,"홍은동 정원여중 입구","서대문구","서울특별시 서대문구 연희로37안길 51","37.58638763","126.9351273","2016-07-06","10","","LCD"
"83",191,"서우빌딩(바른학원)","서대문구","서울특별시 서대문구 응암로 66","37.57889175","126.9107361","2016-07-06","10","","LCD"
"84",192,"연서어린이공원","서대문구","서울특별시 서대문구 연희동 519-7","37.57222748","126.9230652","2016-07-06","10","","LCD"
"85",194,"증산교 앞","서대문구","서울특별시 서대문구 불광천길 36","37.57731628","126.9029694","2016-07-06","10","","LCD"
"86",195,"모래내고가차도","서대문구","서울특별시 서대문구 연희동 446-76","37.56765747","126.9178085","2016-07-06","10","","LCD"
"87",196,"연희교차로 인근","서대문구","서울특별시 서대문구 홍제천로 48","37.56612015","126.9258957","2016-07-06","10","","LCD"
"88",198,"충정2교","서대문구","서울특별시 서대문구 충정로3가 155-4","37.5621376","126.9637756","2016-07-06","15","","LCD"
"89",199,"서울 월드컵 경기장","마포구","서울특별시 마포구 성산동 515","37.56684494","126.8964462","2016-09-02","30","","LCD"
"90",200,"국회의원회관","영등포구","서울특별시 영등포구 의사당대로 1","37.52841568","126.9139175","2015-09-11","20","","LCD"
"91",201,"진미파라곤 앞","영등포구","서울특별시 영등포구 국회대로76길 10","37.53123856","126.9213333","2015-09-11","15","","LCD"
"92",202,"국민일보 앞","영등포구","서울특별시 영등포구 여의공원로 101","37.52881622","126.92453","2015-09-11","30","","LCD"
"93",203,"국회의사당역 3번출구 옆","영등포구","서울특별시 영등포구 국회대로 지하758","37.5280571","126.9187012","2015-09-17","15","","LCD"
"94",204,"국회의사당역 5번출구 옆","영등포구","서울특별시 영등포구 의사당대로 8","37.52816391","126.9170227","2015-09-17","13","","LCD"
"95",205,"산업은행 앞","영등포구","서울특별시 영등포구 의사당대로 97","37.52626419","126.9205093","2015-09-17","20","","LCD"
"96",206,"KBS 앞","영등포구","서울특별시 영등포구 여의공원로 13","37.52466583","126.9180222","2015-09-17","35","","LCD"
"97",207,"여의나루역 1번출구 앞","영등포구","서울특별시 영등포구 여의동로 지하343","37.52715683","126.9319","2015-09-17","40","","LCD"
"98",209,"유진투자증권빌딩 앞","영등포구","서울특별시 영등포구 국제금융로 24","37.52461243","126.9278336","2021-03-16","","12","QR"
"99",210,"IFC몰","영등포구","서울특별시 영등포구 국제금융로 10","37.52606583","126.9255371","2015-09-17","31","","LCD"
"100",211,"여의도역 4번출구 옆","영등포구","서울특별시 영등포구 국회대로68길 7","37.52222824","126.9246368","2015-09-17","13","","LCD"
"101",212,"여의도역 1번출구 옆","영등포구","서울특별시 영등포구 의사당대로 88","37.5213623","126.9234619","2015-09-17","35","","LCD"
"102",213,"KT앞","영등포구","서울특별시 영등포구 여의대로 38","37.52190781","126.9189529","2015-09-17","15","","LCD"
"103",214,"금융감독원 앞","영등포구","서울특별시 영등포구 여의대로 38","37.5230217","126.9208374","2015-09-17","20","","LCD"
"104",215,"여의도고교 앞","영등포구","서울특별시 영등포구 국제금융로7길 37","37.52483749","126.934906","2015-09-17","10","","LCD"
"105",217,"NH농협은행 앞","영등포구","서울특별시 영등포구 국제금융로8길 2","37.52207947","126.9303665","2015-09-17","10","","LCD"
"106",218,"증권거래소 앞","영등포구","서울특별시 영등포구 여의나루로 76","37.52327728","126.9292374","2015-09-17","15","","LCD"
"107",219,"롯데캐슬엠파이어 옆","영등포구","서울특별시 영등포구 의사당대로 127","37.52069473","126.9258347","2015-09-17","12","","LCD"
"108",220,"미성아파트 A동 앞","영등포구","서울특별시 영등포구 의사당대로 110","37.5193634","126.9260483","2021-03-24","","30","QR"
"109",221,"여의도초교 앞","영등포구","서울특별시 영등포구 여의대방로 439","37.52267456","126.9377899","2015-09-17","10","","LCD"
"110",222,"시범아파트버스정류장 옆","영등포구","서울특별시 영등포구 63로 45","37.51943588","126.9375992","2020-09-24","","12","QR"
"111",223,"진주아파트상가 앞","영등포구","서울특별시 영등포구 국제금융로 108-6","37.51931381","126.9331665","2021-04-09","","20","QR"
"112",224,"롯데캐슬 앞","영등포구","서울특별시 영등포구 국제금융로 86","37.5200882","126.9323654","2021-03-23","","20","QR"
"113",225,"앙카라공원 앞","영등포구","서울특별시 영등포구 의사당대로 지하166","37.51736832","126.9292526","2015-09-17","26","","LCD"
"114",226,"샛강역 1번출구 앞","영등포구","서울특별시 영등포구 의사당대로 지하166","37.51776505","126.9284134","2015-09-17","20","","LCD"
"115",227,"양평2나들목 보행통로 입구","영등포구","서울특별시 영등포구 양화동 17-4","37.54466629","126.8883591","2016-06-29","10","","LCD"
"116",228,"선유도역 3번출구 앞","영등포구","서울특별시 영등포구 양평동4가 202-1","37.53845978","126.8945084","2021-03-24","","10","QR"
"117",229,"양평1 보행육교 앞","영등포구","서울특별시 영등포구 양평동4가 20-4","37.53587341","126.8921814","2016-06-29","25","","LCD"
"118",230,"영등포구청역 1번출구","영등포구","서울특별시 영등포구 당산로 111-2","37.52463531","126.8962174","2016-07-06","10","","LCD"
"119",231,"남부고용노동지청 남측","영등포구","서울특별시 영등포구 양평동1가 115-2","37.52450562","126.8918228","2016-06-29","10","","LCD"
"120",232,"양평우림 이비즈센타 앞","영등포구","서울특별시 영등포구 양평동3가 14-1","37.52565002","126.8878174","2016-06-29","20","","LCD"
"121",233,"YP 센터 앞","영등포구","서울특별시 영등포구 양평동3가 60-1","37.52848816","126.8916473","2016-06-29","10","","LCD"
"122",234,"영등포구민체육센터 앞","영등포구","서울특별시 영등포구 신길동 399 ","37.50046158","126.9058456","2016-06-29","10","","LCD"
"123",235,"신길동 우리은행 옆","영등포구","서울특별시 영등포구 신길동 250-4 ","37.50456619","126.9102325","2016-06-29","10","","LCD"
"124",236,"문래동자이아파트 앞","영등포구","서울특별시 영등포구 문래동3가 68-1","37.51615524","126.8946152","2016-06-29","10","","LCD"
"125",237,"보라매 두산위브 건너편","동작구","서울특별시 영등포구 신길동 4490 ","37.49651337","126.9148026","2016-06-29","20","","LCD"
"126",238,"제2구민체육센타 앞","영등포구","서울특별시 영등포구 당산동4가 96-2","37.52638626","126.9027557","2016-06-29","10","","LCD"
"127",239,"유스호스텔 앞","영등포구","서울특별시 영등포구 영등포동7가 58-2","37.5258522","126.9032822","2016-06-29","20","","LCD"
"128",240,"문래역 4번출구 앞","영등포구","서울특별시 영등포구 문래동3가 55-12 ","37.51873779","126.8955765","2016-06-29","10","","LCD"
"129",241,"신길우성1차아파트 앞 공원","영등포구","서울특별시 영등포구 도림동 255-2 ","37.50501633","126.8985367","2016-06-29","10","","LCD"
"130",242,"신길선원가와인아파트 앞","영등포구","서울특별시 영등포구 신길동 215-28 ","37.51093292","126.9102249","2016-06-29","15","","LCD"
"131",243,"이앤씨드림타워 앞","영등포구","서울특별시 영등포구 양평동3가 48-1","37.52708435","126.8913803","2016-06-29","15","","LCD"
"132",244,"영등포삼환아파트 앞","영등포구","서울특별시 영등포구 영등포동8가 82-4 ","37.53007889","126.9057083","2016-06-29","20","","LCD"
"133",245,"삼성생명 당산사옥 앞","영등포구","서울특별시 영등포구 당산동4가 35-24 ","37.52826309","126.8966293","2016-06-29","10","","LCD"
"134",247,"당산역 10번출구 앞","영등포구","서울특별시 영등포구 당산동5가 14-4","37.53368759","126.9021072","2016-06-29","15","","LCD"
"135",248,"초원아파트 앞","영등포구","서울특별시 영등포구 여의도동8-13","37.53105545","126.9242096","2016-06-29","10","","LCD"
"136",249,"여의도중학교 옆","영등포구","서울특별시 영등포구 여의도동 8","37.52412033","126.9365463","2016-06-29","8","","LCD"
"137",250,"대림아파트 사거리","영등포구","서울특별시 영등포구 신길동 249","37.50764084","126.9230804","2016-06-29","10","","LCD"
"138",251,"서울지방병무청 버스정류장","영등포구","서울특별시 영등포구 신길동853","37.50449371","126.9219513","2016-06-29","10","","LCD"
"139",252,"보라매역4번출구","영등포구","서울특별시 영등포구 신길동4884","37.49982834","126.9199448","2016-06-29","10","","LCD"
"140",253,"신풍역 5번출구 인근","영등포구","서울특별시 영등포구 신길동3596","37.5006485","126.9095154","2016-06-29","10","","LCD"
"141",254,"도림신협 앞","영등포구","서울특별시 영등포구 신길동263-76","37.50380325","126.9034195","2016-06-29","10","","LCD"
"142",255,"도림사거리","영등포구","서울특별시 영등포구 신길동373-1","37.50657272","126.9011307","2016-06-29","15","","LCD"
"143",256,"동아에코빌입구","영등포구","서울특별시 영등포구 도림동 159-70","37.50947571","126.8992996","2016-06-29","10","","LCD"
"144",257,"신길삼거리(우리은행)","영등포구","서울특별시 영등포구 신길동95-256","37.51384354","126.9193573","2016-06-29","10","","LCD"
"145",258,"신길역3번출구","영등포구","서울특별시 영등포구 영등포동1가35","37.51769257","126.914299","2016-06-29","14","","LCD"
"146",259,"대방역6번출구","영등포구","서울특별시 영등포구 신길동1368","37.51359177","126.9259338","2016-06-29","17","","LCD"
"147",260,"여의도 마리나선착장 앞","영등포구","서울특별시 영등포구 여의서로 160","37.53365707","126.9121628","2016-07-06","15","","LCD"
"148",262,"영문초등학교 사거리","영등포구","서울특별시 영등포구 문래로 56","37.51992798","126.889183","2016-07-06","12","","LCD"
"149",263,"근로자회관 사거리","영등포구","서울특별시 영등포구 선유로 34","37.51715088","126.8886261","2016-07-06","12","","LCD"
"150",264,"교보생명보험 앞","영등포구","서울특별시 영등포구 영등포로 96","37.52193069","126.8916168","2016-07-06","15","","LCD"
"151",265,"영등포유통상가 사거리","영등포구","서울특별시 영등포구 영등포로 124","37.52113342","126.8965378","2016-07-06","15","","LCD"
"152",266,"영등포청과시장 사거리","영등포구","서울특별시 영등포구 영등포로 177","37.52029419","126.9011917","2016-07-06","10","","LCD"
"153",267,"삼성화재 사옥 옆","영등포구","서울특별시 영등포구 양평로 76","37.53596115","126.8983002","2016-07-06","10","","LCD"
"154",268,"그랜드컨벤션센터 앞","영등포구","서울특별시 영등포구 양평로 58","37.53471756","126.9000015","2016-07-06","6","","LCD"
"155",270,"증권거래소후문교차로","영등포구","서울특별시 영등포구 여의나루로 76","37.52234268","126.9271011","2016-07-06","10","","LCD"
"156",271,"샛강생태공원방문자센터 앞","영등포구","서울특별시 영등포구 여의동로 48","37.51896286","126.9216156","2016-07-06","10","","LCD"
"157",272,"당산육갑문","영등포구","서울특별시 영등포구 당산로52길 3","37.53533936","126.9036789","2016-07-06","20","","LCD"
"158",274,"영등포역지하쇼핑센타 5번출구","영등포구","서울특별시 영등포구 경인로 846","37.51665115","126.9079895","2017-11-28","10","","LCD"
"159",275,"신동아아파트","영등포구","서울특별시 영등포구 선유서로 76","37.5228157","126.8856506","2017-11-28","10","","LCD"
"160",276,"SK 영등포주유소","영등포구","서울특별시 영등포구 경인로112길 1","37.51828384","126.9126358","2017-11-28","10","","LCD"
"161",277,"영등포뉴타운지하상가 2번게이트","영등포구","서울특별시 영등포구 영중로 22","37.52011871","126.9051666","2017-11-28","10","","LCD"
"162",278,"쌍용플레티넘오피스텔","영등포구","서울특별시 영등포구 도영로 18","37.50793076","126.8952332","2017-11-28","10","","LCD"
"163",279,"영등포 푸르지오 아파트","영등포구","서울특별시 영등포구 도신로29길 28","37.51322937","126.9044647","2021-03-20","","15","QR"
"164",280,"양평동6차현대아파트 앞","영등포구","양평동 3가 80-9","37.53210068","126.8944397","2018-09-28","10","","LCD"
"165",281,"신동아아파트 앞","영등포구","가마산로 311 앞 복개천 보도","37.49824142","126.8939819","2018-09-28","8","","LCD"
"166",282,"신한은행","영등포구","시흥대로 617","37.48752975","126.9048767","2018-09-28","10","","LCD"
"167",283,"아크로타워 스퀘어(영등포시장)","영등포구","영등포구 영등포동7가 3-2","37.52251816","126.9072189","2018-09-28","15","","LCD"
"168",284,"센트럴 푸르지오 시티 앞","영등포구","문래로 180","37.51821136","126.9022293","2018-09-28","12","","LCD"
"169",285,"대림3동사거리(하나은행)","영등포구","가마산로 343","37.49985886","126.8972397","2018-09-28","8","","LCD"
"170",286,"우성아파트 교차로","영등포구","대림로 153 ","37.49457169","126.8997498","2018-09-28","8","","LCD"
"171",287,"영등포전화국사거리 (서강어린이공원)","영등포구","영등포동8가 29-1","37.52576828","126.9057388","2018-09-28","10","","LCD"
"172",288,"쌍용예가(구청별관)","영등포구","당산로31길 32 서측(구청별관 주변)","37.52809906","126.8933868","2018-12-06","10","","LCD"
"173",289,"대림3동사거리","영등포구","가마산로 352 커피베이 앞","37.49980927","126.8980026","2018-11-21","10","","LCD"
"174",290,"당산동 SK V1 빌딩","영등포구","영등포구 당산동4가 89-1","37.5315094","126.8978272","2018-12-04","12","","LCD"
"175",291,"문래동 하이테크 시티","영등포구","영등포구 문래동3가 55-21","37.51385117","126.89888","2018-11-21","14","","LCD"
"176",292,"영일 어린이공원","영등포구","영등포구 영등포동 647-3","37.51012039","126.904068","2018-11-21","10","","LCD"
"177",293,"충북 미래관","영등포구","영등포구 당산동 121-258","37.52917099","126.9075775","2018-12-04","15","","LCD"
"178",295,"영등포공원 분수대 앞","영등포구","영등포구 신길로 275","37.51481247","126.911705","2020-03-04","","10 ","QR"
"179",296,"KT플라자 영등포점","영등포구","영등포구 영중로 119","37.52630234","126.9053803","2020-03-05","","15 ","QR"
"180",297,"국회3문","영등포구","영등포구 여의동로 330","37.52863693","126.912674","2020-03-06","","20 ","QR"
"181",298,"KBS 연구동 건너편","영등포구","영등포구 여의도동 1-877","37.52750778","126.914299","2020-03-05","","20 ","QR"
"182",299,"여의도 순복음교회","영등포구","영등포구 여의도동 8","37.53179169","126.9224548","2020-03-06","","10 ","QR"
"183",300,"정동사거리","중구","서울특별시 중구 정동길 2-1","37.56805038","126.9692307","2015-10-07","7","","LCD"
"184",301,"경복궁역 7번출구 앞","종로구","서울특별시 종로구 사직로 지하130","37.57579422","126.9714508","2015-10-07","16","","LCD"
"185",302,"경복궁역 4번출구 뒤","종로구","서울특별시 종로구 사직로 지하130","37.57594681","126.9740601","2015-10-07","12","","LCD"
"186",303,"광화문역 1번출구 앞","종로구","서울특별시 종로구 세종대로 지하189","37.57176971","126.9746628","2015-10-07","8","","LCD"
"187",304,"광화문역 2번출구 앞","종로구","서울특별시 종로구 세종대로 지하172","37.57211304","126.9775772","2021-01-26","","7","QR"
"188",305,"종로구청 옆","종로구","서울특별시 종로구 삼봉로 43","37.57258224","126.9783554","2015-10-07","16","","LCD"
"189",306,"광화문역 7번출구 앞","종로구","서울특별시 종로구 세종대로 지하172","37.57080841","126.9764328","2015-10-07","19","","LCD"
"190",307,"서울역사박물관 앞","종로구","서울특별시 종로구 새문안로 55","37.56999969","126.9710999","2015-10-07","11","","LCD"
"191",308,"광화문 S타워 앞","종로구","서울특별시 종로구 새문안로 82","37.56996918","126.973938","2021-01-26","","20","QR"
"192",309,"광화문역 6번출구 옆","종로구","서울특별시 종로구 세종대로 지하172","37.56988907","126.9764557","2015-10-07","13","","LCD"
"193",310,"청계광장 옆","중구","서울특별시 중구 세종대로 136","37.56887817","126.9774704","2015-10-07","13","","LCD"
"194",312,"시청역 1번출구 뒤","중구","서울특별시 중구 세종대로 지하101","37.56467438","126.976738","2015-10-07","7","","LCD"
"195",314,"국립현대미술관","종로구","서울특별시 종로구 삼청로 30","37.5797081","126.9808579","2015-10-07","10","","LCD"
"196",316,"종각역 1번출구 앞","종로구","서울특별시 종로구 종로 47","37.57039642","126.9817886","2015-10-07","12","","LCD"
"197",318,"광교사거리 남측","중구","서울특별시 중구 청계천로 30","37.56852722","126.9825516","2015-10-07","10","","LCD"
"198",320,"을지로입구역 4번출구 앞","중구","서울특별시 중구 을지로 55","37.56622314","126.9835892","2015-10-07","20","","LCD"
"199",321,"KEB 하나금융그룹 명동사옥 옆","중구","서울특별시 중구 을지로 66","37.56546402","126.9841385","2015-10-07","15","","LCD"
"200",322,"명동성당 앞","중구","서울특별시 중구 명동길 74","37.56447601","126.986969","2015-10-07","15","","LCD"
"201",324,"신세계백화점 본점 앞","중구","서울특별시 중구 퇴계로 77","37.56134033","126.9804001","2015-10-07","10","","LCD"
"202",326,"안국역 5번출구 앞","종로구","서울특별시 종로구 율곡로 지하62","37.57624054","126.9861603","2015-10-07","19","","LCD"
"203",327,"낙원상가 옆","종로구","서울특별시 종로구 삼일대로 428","37.57335663","126.9874649","2015-10-07","10","","LCD"
"204",328,"탑골공원 앞","종로구","서울특별시 종로구 종로 99","37.57039642","126.9881897","2015-10-07","11","","LCD"
"205",329,"청계2가 사거리 옆","종로구","서울특별시 종로구 청계천로 93","37.56834412","126.9878922","2015-10-07","8","","LCD"
"206",331,"을지로2가 사거리 북측","중구","서울특별시 중구 을지로 79","37.56638336","126.9872055","2020-07-28","","10","QR"
"207",332,"을지로2가 사거리 남측","중구","중구 을지로2가 149-10 ","37.56599045","126.987793","2015-10-07","5","","LCD"
"208",334,"종로3가역 2번출구 뒤","종로구","서울특별시 종로구 종로 지하129","37.5705986","126.9917908","2015-10-07","10","","LCD"
"209",335,"종로3가역 15번출구 앞","종로구","서울특별시 종로구 종로 지하129","37.57019806","126.9912567","2015-10-07","10","","LCD"
"210",336,"티마크 호텔 앞","중구","서울특별시 중구 충무로 15","37.56261826","126.992836","2015-10-07","10","","LCD"
"211",337,"창경궁 입구","종로구","서울특별시 종로구 창경궁로 185","37.57897949","126.9964752","2015-10-07","5","","LCD"
"212",338,"세운스퀘어 앞","종로구","서울특별시 종로구 창경궁로 109","37.57095718","126.9971237","2015-10-07","18","","LCD"
"213",339,"종로4가 사거리","종로구","서울특별시 종로구 종로 185","37.57106781","126.9981918","2015-10-07","10","","LCD"
"214",340,"혜화동 로터리","종로구","서울특별시 종로구 창경궁로 271-1","37.58562851","127.000679","2015-10-07","8","","LCD"
"215",341,"혜화역 3번출구 뒤","종로구","서울특별시 종로구 대학로 지하120","37.58156967","127.0017853","2015-10-07","10","","LCD"
"216",342,"대학로 마로니에공원","종로구","서울특별시 종로구 대학로 104","37.57978439","127.002533","2015-10-07","15","","LCD"
"217",343,"예일빌딩(율곡로) 앞","종로구","서울특별시 종로구 율곡로 238","37.57543182","127.004982","2021-01-08","","6","QR"
"218",344,"성균관대 E하우스 앞","종로구","서울특별시 종로구 율곡로 259","37.57403564","127.0067215","2015-10-07","10","","LCD"
"219",345,"서울보증보험본사 앞","종로구","서울특별시 종로구 김상옥로 29","37.57330704","127.0007095","2015-10-07","15","","LCD"
"220",346,"맥스타일 앞","중구","서울특별시 중구 마장로 3","37.56918335","127.0098801","2015-10-07","10","","LCD"
"221",347,"동대문역사문화공원역 9번출구 앞","중구","서울특별시 중구 장충단로 지하230","37.56533051","127.007843","2015-10-07","18","","LCD"
"222",348,"독립문역 사거리","종로구","서울특별시 종로구 교북동 10-1","37.57202911","126.9607849","2016-06-01","14","","LCD"
"223",349,"사직동주민센터","종로구","서울특별시 종로구 사직로9길 5","37.57633209","126.9685898","2016-06-01","7","","LCD"
"224",351,"청운초교 앞 삼거리","종로구","서울특별시 종로구 청운동 108-22","37.58507919","126.9706192","2016-06-01","8","","LCD"
"225",352,"중앙고입구 삼거리","종로구","서울특별시 종로구 창덕궁길 191","37.58341599","126.9852371","2016-06-01","15","","LCD"
"226",353,"재동초교 앞 삼거리","종로구","서울특별시 종로구 재동 19","37.57938766","126.9849472","2016-06-01","8","","LCD"
"227",354,"포르투갈 대사관 앞","종로구","서울특별시 종로구 창덕궁1길 3","37.57915497","126.9889603","2016-06-01","10","","LCD"
"228",355,"서울사대부속초교 앞","종로구","서울특별시 종로구 연건동 178-3","37.57650757","127.0024567","2016-06-01","15","","LCD"
"229",356,"KT혜화지사 앞","종로구","서울특별시 종로구 대학로 65","37.57714462","127.0020599","2016-06-01","15","","LCD"
"230",358,"성대입구 사거리","종로구","서울특별시 종로구 창경궁로 234","37.58250046","126.9985352","2016-06-01","13","","LCD"
"231",359,"원남동사거리","종로구","서울특별시 종로구 율곡로 169","37.57606125","126.9976807","2016-06-01","8","","LCD"
"232",361,"동묘앞역 1번출구 뒤","종로구","서울특별시 종로구 숭인동 81-39","37.57324219","127.0159073","2016-06-01","10","","LCD"
"233",362,"청계8가 사거리","종로구","서울특별시 종로구 청계천로 407","37.57222366","127.0227051","2016-06-01","10","","LCD"
"234",363,"신설동역 11번출구 뒤","종로구","서울특별시 종로구 숭인동 1311","37.57575989","127.0228348","2016-06-01","10","","LCD"
"235",364,"창신역 1번출구 앞","종로구","서울특별시 종로구 지봉로 87","37.57933426","127.0150833","2016-06-01","8","","LCD"
"236",367,"독립문역 3-1번출구","종로구","서울특별시 종로구 무악동 41-7","37.57384872","126.9586945","2016-06-01","8","","LCD"
"237",368,"SK 서린빌딩 앞","종로구","서울특별시 종로구 서린동 93-2","37.5692482","126.9805374","2016-06-01","12","","LCD"
"238",369,"광화문 시민열린마당","종로구","서울특별시 종로구 세종로 76-5","37.57549286","126.9785004","2016-06-01","12","","LCD"
"239",370,"시청역(2호선) 9번출구 뒤","중구","서울특별시 중구 서소문로 지하127","37.56322861","126.9748383","2021-05-31","","24","QR"
"240",371,"동대입구역 6번출구 뒤","중구","서울특별시 중구 동호로 지하256","37.55887222","127.0055389","2016-06-15","10","","LCD"
"241",372,"약수역 3번출구 뒤","중구","서울특별시 중구 다산로 지하122","37.55429459","127.0112","2016-06-15","10","","LCD"
"242",374,"청구역 2번출구 앞","중구","서울특별시 중구 청구로 지하77","37.5604744","127.0140762","2016-06-15","10","","LCD"
"243",375,"다산 어린이공원","중구","서울특별시 중구 다산로40길 37","37.56371689","127.018425","2016-06-15","8","","LCD"
"244",378,"청계7가 사거리","중구","서울특별시 중구 다산로 지하260","37.56980515","127.0169525","2016-06-15","10","","LCD"
"245",379,"서울역9번출구","중구","서울특별시 중구 세종대로 지하2","37.55599976","126.9733582","2016-06-15","7","","LCD"
"246",380,"CJ제일제당 앞","중구","서울특별시 중구 동호로 330","37.56386566","127.0027466","2016-06-15","8","","LCD"
"247",381,"장충체육관","중구","서울특별시 중구 장충동2가 200-99","37.55853271","127.0069885","2016-06-15","10","","LCD"
"248",382,"약수역 10번출구 앞","중구","서울특별시 중구 신당동 357-1","37.55519867","127.0100479","2016-06-15","7","","LCD"
"249",383,"신당역 12번 출구 뒤","중구","서울특별시 중구 신당동 99","37.5658493","127.0164032","2016-06-15","17","","LCD"
"250",384,"종로학원본원","중구","서울특별시 중구 청파로 456","37.55978012","126.9685059","2016-06-15","10","","LCD"
"251",385,"종각역 5번출구","종로구","서울특별시 종로구 서린동 26-1","37.56983566","126.9826584","2016-07-06","10","","LCD"
"252",387,"훈련원공원주차장 앞","중구","서울특별시 중구 을지로 227","37.56699371","127.0034638","2016-07-06","10","","LCD"
"253",388,"동성중학교 앞","종로구","서울특별시 종로구 혜화동 56","37.58573532","127.0016098","2016-09-02","10","","LCD"
"254",389,"을지로4가역 1번출구","중구","서울특별시 중구 을지로 지하 178","37.5667305","126.9966049","2017-08-03","10","","LCD"
"255",390,"충무로역 1번출구","중구","서울특별시 중구 퇴계로 212","37.56138992","126.9953537","2017-08-03","10","","LCD"
"256",391,"정동길입구","용산구","서울특별시 중구 세종대로19길 17","37.56543732","126.9733048","2021-05-31","","8","QR"
"257",393,"동대문역 8번 출구","종로구","서울특별시 종로구 율곡로 지하 308","37.57014084","127.0093765","2018-01-26","10","","LCD"
"258",394,"경희궁 자이 3단지","종로구","서울특별시 종로구 경교장길 35","37.56748962","126.9659195","2020-10-06","","15","QR"
"259",395,"경희궁 자이 2단지","종로구","서울특별시 종로구 송월길 99","37.56885529","126.9645615","2018-01-26","8","","LCD"
"260",397,"종묘공영주차장 건너편","종로구","서울특별시 종로구 종로 지하 200","37.57048035","126.9966354","2018-04-30","13","","LCD"
"261",398,"을지로3가역 3번출구","중구","중구 을지로3가 282-8 ","37.56655884","126.9924393","2018-10-26","8","","LCD"
"262",399,"서울역 센트럴 자이아파트","중구","중구 만리동2가 176-1","37.55410767","126.9654083","2018-10-12","15","","LCD"
"263",400,"상암한화오벨리스크 1차 앞","마포구","서울특별시 마포구 구룡길 19","37.58752441","126.8830032","2015-10-07","15","","LCD"
"264",401,"상암월드컵파크 10단지 앞","마포구","서울특별시 마포구 월드컵북로 502-36","37.58618927","126.8816147","2015-10-07","15","","LCD"
"265",402,"상암월드컵파크 9단지 앞","마포구","서울특별시 마포구 월드컵북로 501","37.58285522","126.8798218","2015-10-07","20","","LCD"
"266",403,"부엉이공원 앞","마포구","서울특별시 마포구 가양대로 189","37.58559036","126.8847275","2015-10-07","20","","LCD"
"267",405,"DMC빌 앞","마포구","서울특별시 마포구 월드컵북로60길 13","37.58265686","126.885788","2015-10-07","8","","LCD"
"268",406,"상암월드컵파크 7단지 앞","마포구","서울특별시 마포구 상암산로1길 92","37.58131409","126.8805847","2015-10-07","15","","LCD"
"269",407,"마포구 육아종합지원센터","마포구","서울특별시 마포구 상암산로1길 71","37.58063126","126.8836746","2015-10-07","8","","LCD"
"270",408,"LG CNS앞","마포구","서울특별시 마포구 월드컵북로 424","37.58081055","126.8866501","2015-10-07","20","","LCD"
"271",409,"누리꿈스퀘어 옆","마포구","서울특별시 마포구 월드컵북로 396","37.57939911","126.8891602","2015-10-07","25","","LCD"
"272",410,"상암중학교 옆","마포구","서울특별시 마포구 상암산로1길 26","37.57749557","126.8877716","2015-10-07","10","","LCD"
"273",411,"DMC홍보관","마포구","서울특별시 마포구 월드컵북로 366","37.5779953","126.8914719","2015-10-07","9","","LCD"
"274",412,"DMC산학협력연구센터 앞","마포구","서울특별시 마포구 매봉산로 37","37.57580185","126.8907394","2015-10-07","20","","LCD"
"275",413,"상암월드컵파크 3단지 후문","마포구","서울특별시 마포구 매봉산로 8","37.57147598","126.8896866","2015-10-07","9","","LCD"
"276",414,"상암동주민센터 옆","마포구","서울특별시 마포구 매봉산로2길 16","37.57822037","126.8944702","2015-10-07","8","","LCD"
"277",415,"DMC역 9번출구 앞","마포구","서울특별시 마포구 성암로 지하184","37.57746887","126.8973618","2015-10-07","10","","LCD"
"278",416,"상암월드컵파크 1단지 교차로","마포구","서울특별시 마포구 월드컵북로 502-7","37.57566452","126.8944473","2015-10-07","12","","LCD"
"279",417,"DMC역 2번출구 옆","마포구","서울특별시 은평구 수색로 지하175","37.57506943","126.8999176","2015-10-07","20","","LCD"
"280",418,"월드컵경기장역 3번출구 옆","마포구","서울특별시 마포구 월드컵로 지하240","37.57072067","126.8989792","2015-10-07","10","","LCD"
"281",419,"홈플러스 앞","마포구","서울특별시 마포구 월드컵로 240","37.56842041","126.8994293","2015-10-07","21","","LCD"
"282",420,"서울시 공공자전거 상암센터","마포구","서울특별시 마포구 월드컵북로47길 10","37.56624603","126.8961792","2015-10-07","40","","LCD"
"283",421,"마포구청 앞","마포구","서울특별시 마포구 월드컵로 212","37.56574631","126.9018631","2021-03-20","","8","QR"
"284",422,"문화비축기지","마포구","서울특별시 마포구 증산로 87","37.56908417","126.8944244","2021-05-03","","9","QR"
"285",424,"롯데하이마트 (상암월드컵점)","마포구","서울특별시 상암동 1715-29","37.57361984","126.8980484","2017-11-01","15","","LCD"
"286",425,"DMC첨단산업센터","마포구","서울특별시 마포구 성암로330","37.58450317","126.8855972","2017-11-01","10","","LCD"
"287",426,"서울신용보증재단","마포구","서울특별시 마포구 마포대로 163","37.54906082","126.9541779","2018-07-04","10","","LCD"
"288",427,"성산시영아파트","마포구","서울특별시 마포구 월드컵북로 260","37.56958389","126.9038162","2018-02-26","10","","LCD"
"289",428,"명보사거리","중구","중구 초동 22-2 ","37.56439972","126.9914322","2018-10-22","10","","LCD"
"290",429,"송도병원","중구","중구 신당동 432-730","37.54988861","127.0073471","2018-10-22","8","","LCD"
"291",430,"KEB하나은행 장충동지점","중구","중구 장충동1가 26-1","37.56217194","127.0062637","2018-11-02","8","","LCD"
"292",431,"청계천 영도교","중구","중구 황학동 2472-1 ","37.57089996","127.0195236","2020-09-24","","15","QR"
"293",432,"마포중앙도서관","마포구","마포구 성산로 128","37.56333923","126.9082031","2018-10-12","10","","LCD"
"294",433,"을지로입구역 2번출구","중구","중구 을지로1가 118","37.56634521","126.9822922","2018-12-14","10","","LCD"
"295",434,"신당 래미안 버스정류장","중구","중구 신당동 85-730","37.56148911","127.0239334","2018-12-06","10","","LCD"
"296",435,"SK 남산빌딩","중구","중구 남대문로5가 520","37.55686188","126.9756165","2018-12-06","10","","LCD"
"297",436,"이대역 5번출구","마포구","마포구 대흥동 2-1","37.55659103","126.9461899","2018-11-21","10","","LCD"
"298",437,"대흥역 1번출구","마포구","마포구 대흥동 105-4","37.54846954","126.9409256","2018-12-04","12","","LCD"
"299",438,"성산2-1 공영주차장","마포구","마포구 성산동 199-46","37.56472015","126.9067688","2018-11-22","15","","LCD"
"300",439,"마포어린이공원","마포구","마포구 마포동 364-4","37.53575134","126.9440384","2018-12-06","10","","LCD"
"301",440,"하늘공원 입구","마포구","마포구 하늘공원로 108-2","37.57012177","126.8813477","2019-08-02","15","","LCD"
"302",441,"염천교사거리","중구","중구 순화동 212-9","37.55989075","126.9714966","2020-01-31","","15","QR"
"303",442,"서울역 서부","중구","봉래동 2가 122-11","37.55641556","126.9691925","2020-02-03","","20","QR"
"304",443,"호암아트홀","중구","봉래동 2가 122-11","37.5621109","126.9707184","2020-01-31","","9","QR"
"305",445,"대한상공회의소","중구","세종대로 39","37.56015396","126.9741058","2020-01-31","","10","QR"
"306",446,"상명대입구","종로구","서울특별시 종로구 홍지문길 1","37.60012817","126.9578323","2017-08-01","10","","LCD"
"307",447,"신영동삼거리","종로구","서울특별시 종로구 진흥로 499","37.60399246","126.9619446","2020-10-29","","6","QR"
"308",449,"일성아파트","종로구","서울특별시 종로구 평창문화로 119","37.60871887","126.9728622","2017-08-01","10","","LCD"
"309",450,"효자동 삼거리","종로구","서울특별시 종로구 효자로13길 45","37.58360291","126.9725494","2017-09-07","20","","LCD"
"310",451,"청와대앞길","종로구","서울특별시 종로구 청와대로 73","37.58351517","126.9796677","2017-09-07","13","","LCD"
"311",452,"동대문 종합시장 버스정류장","종로구"," 종로구 종로5가 11-2","37.57123947","127.0044098","2018-10-23","13","","LCD"
"312",453,"종로오가 지하쇼핑센터 14번출구","종로구","종로5가 82-1 ","37.57114029","127.0006714","2018-08-31","10","","LCD"
"313",454,"종로2가 버스정류장 (종각방향)","종로구"," 종로구 종로 79-1","37.57035828","126.9863815","2018-08-31","13","","LCD"
"314",455,"삼익한의원","종로구","종로구 종로5가 269-3","37.570961","127.0060577","2018-08-30","8","","LCD"
"315",456,"숭인2동 주민센터 입구 (이강3대냉면)","종로구"," 종로구 숭인동 183-2","37.57447052","127.0198288","2018-08-30","10","","LCD"
"316",457,"종로꽃시장 입구 옆","종로구","종로구 종로6가 94-1","37.57131958","127.0072098","2018-08-30","10","","LCD"
"317",458,"광화문역 5번출구","종로구","종로구 세종로 1-68 ","37.56993866","126.9775391","2018-08-31","21","","LCD"
"318",461,"서울지방경찰청","종로구","종로구 내자동 186-3 ","37.57436371","126.9723663","2018-10-29","10","","LCD"
"319",462,"신영동삼거리(북악터널방향)","종로구","종로구 평창문화로 6-4","37.60351181","126.9620667","2019-06-20","15","","LCD"
"320",464,"삼청동 골목","종로구","종로구 팔판길 46","37.58419037","126.9816971","2019-08-16","10","","LCD"
"321",465,"삼청공원 앞","종로구","서울특별시 종로구 삼청동 25-32","37.58760452","126.9835968","2019-11-20","5","","LCD"
"322",466,"롯데호텔","중구","을지로 30","37.56584167","126.9798126","2020-02-28","","20","QR"
"323",467,"한국은행","중구","남대문로 39","37.5622139","126.9808655","2020-01-31","","16","QR"
"324",468,"웨스틴 조선호텔","중구","소공로 106","37.56415939","126.9794846","2020-01-31","","10","QR"
"325",469,"회현역 1번출구","중구","퇴계로 72","37.5592308","126.9801407","2020-01-31","","16","QR"
"326",470,"회현역 7번출구","중구","회현동 1가 23-1","37.55974579","126.9800034","2020-01-31","","20","QR"
"327",471,"회현사거리 남측","중구","퇴계로 100","37.56035995","126.9826508","2020-01-31","","10","QR"
"328",472,"삼일교(시그니쳐 타워)","중구","청계천로 100","37.56787109","126.9889832","2020-01-30","","12","QR"
"329",473,"을지로4가역 9번출구","중구","을지로 170","37.56605148","126.9979858","2020-03-01","","20","QR"
"330",474,"동대문역사문화공원역 1번출구 뒤편","중구","을지로 281","37.56629944","127.0084915","2020-01-29","","30","QR"
"331",475,"ddp패션몰","중구","마장로 22","37.56764984","127.0118103","2020-01-29","","16","QR"
"332",476,"광희문","중구","퇴계로 344","37.56443024","127.0099564","2020-01-29","","10","QR"
"333",477,"앰배서더 호텔 주변","중구","장충동2가 191-21","37.55928802","127.0026856","2020-01-30","","10","QR"
"334",479,"동대입구역 3번 출구","중구","장충동2가 199-4","37.55937576","127.0060272","2020-01-30","","13","QR"
"335",480,"약수역 6번 출구","중구","동호로 177","37.55432129","127.010704","2020-01-30","","8","QR"
"336",481,"신당역 10번 출구","중구","청계천로 100","37.56703186","127.0157929","2020-01-29","","16","QR"
"337",482,"예수소망교회","중구","청구로 32","37.55994034","127.0184784","2020-01-29","","10","QR"
"338",483,"남산타운아파트 버스정류장","중구","신당동 산 24-110","37.54758453","127.0064392","2020-01-29","","16","QR"
"339",484,"도동삼거리","중구","남창동 205-166","37.55614853","126.9774246","2020-02-13","","20","QR"
"340",485,"서울역4번출구","중구","중구 남대문로5가","37.55677032","126.9731979","2020-02-03","","10","QR"
"341",486,"평창동주민센터 앞","종로구","서울특별시 종로구 평창동 187-2","37.60627365","126.9683228","2020-03-11","5","","LCD"
"342",487,"신석초교앞 교차로 교통섬","마포구","마포구 용강동 494-6 ","37.54364014","126.9383087","2020-04-03","","26","QR"
"343",488,"푸르메병원","마포구","마포구 상암동 632","37.58456802","126.8802109","2020-04-06","","10","QR"
"344",489,"구룡근린공원","마포구","마포구 상암동 1583","37.58320236","126.8827667","2020-04-06","","10","QR"
"345",490,"가온문화공원","마포구","마포구 상암동 1594","37.58207703","126.8876648","2020-04-06","","10","QR"
"346",491,"월드컵파크 4단지","마포구","마포구 상암동 1761","37.57597733","126.8880692","2020-04-06","","10","QR"
"347",492,"성산시영아파트 후문","마포구"," 마포구 중동 77-11","37.57313538","126.9018478","2020-06-03","","10","QR"
"348",493,"홍대입구역 6번출구","마포구","마포구 서교동 193-4","37.55657578","126.9288559","2020-04-12","","7","QR"
"349",494,"신수동주민센터","마포구","마포구 신수동 458","37.54724503","126.9350281","2020-09-16","","5","QR"
"350",495,"염리초등학교 앞","마포구","마포구 도화동 536","37.54243088","126.9469986","2020-03-26","","10","QR"
"351",497,"합정동주민센터 앞","마포구","마포구 합정동 473-2","37.551754","126.9123001","2020-04-06","","20","QR"
"352",498,"연남동주민센터 앞","마포구","마포구 연남동 250-11","37.56465149","126.9221268","2020-04-08","","10","QR"
"353",500,"어린이대공원역 3번출구 앞","광진구","서울특별시 광진구 능동로 지하210","37.54706955","127.0742722","2015-10-07","10","","LCD"
"354",501,"광진구의회 앞","광진구","서울특별시 광진구 능동로 76","37.53730774","127.0703507","2015-10-07","30","","LCD"
"355",502,"뚝섬유원지역 1번출구 앞","광진구","서울특별시 광진구 능동로 10","37.53186035","127.0671921","2015-10-07","27","","LCD"
"356",505,"자양사거리 광진아크로텔 앞","광진구","서울특별시 광진구 아차산로 355","37.53701019","127.0822449","2015-10-07","10","","LCD"
"357",506,"금호 어울림 아파트 앞","성동구","서울특별시 성동구 광나루로 249","37.54906082","127.0577927","2015-10-07","7","","LCD"
"358",507,"성수아이에스비즈타워 앞","성동구","서울특별시 성동구 성수이로 147","37.54820251","127.0571137","2015-10-07","7","","LCD"
"359",508,"성수아카데미타워 앞","성동구","서울특별시 성동구 성수이로 118","37.54516602","127.0575104","2015-10-07","10","","LCD"
"360",509,"이마트 버스정류소 옆","성동구","서울특별시 성동구 뚝섬로 379","37.53965378","127.0525894","2015-10-07","20","","LCD"
"361",510,"서울숲 남문 버스정류소 옆","성동구","서울특별시 성동구 왕십리로11길 9","37.54122162","127.0438004","2015-10-07","10","","LCD"
"362",511,"서울숲역 4번 출구 옆","성동구","서울특별시 성동구 왕십리로 지하77","37.54458237","127.0446091","2015-10-07","16","","LCD"
"363",512,"뚝섬역 1번 출구 옆","성동구","서울특별시 성동구 아차산로 18","37.5485611","127.0450058","2021-04-05","","15","QR"
"364",513,"뚝섬역 5번 출구 정류소 옆","성동구","서울특별시 성동구 아차산로 18","37.54630661","127.0498047","2015-10-07","13","","LCD"
"365",514,"성수사거리 버스정류장 앞","성동구","서울특별시 성동구 아차산로 171","37.54257965","127.0633087","2015-10-07","7","","LCD"
"366",515,"광양중학교 앞","광진구","서울특별시 광진구 자양로3길 7","37.53023529","127.0868301","2015-10-07","10","","LCD"
"367",516,"광진메디칼 앞","광진구","서울특별시 광진구 광나루로 355","37.54840469","127.0693665","2015-10-07","10","","LCD"
"368",518,"청계천 박물관 앞","성동구","서울특별시 성동구 마장동 610","37.57152557","127.0353546","2016-06-29","20","","LCD"
"369",519,"양지사거리","성동구","서울특별시 성동구 홍익동 590","37.56699371","127.0299149","2016-06-29","20","","LCD"
"370",520,"상왕십리역 4번 출구 앞","성동구","서울특별시 성동구 하왕십리동 960-3","37.56385803","127.0303192","2016-06-29","10","","LCD"
"371",521,"왕십리역 11번 출구 앞","성동구","서울특별시 성동구 행당동 188-9","37.56144714","127.0349197","2016-06-29","14","","LCD"
"372",522,"금호역 1번출구 앞","성동구","서울특별시 성동구 금호동3가 1575-3","37.5486412","127.0164261","2016-06-29","9","","LCD"
"373",523,"옥수동성당 옆","성동구","서울특별시 성동구 옥수동 산5-148","37.54366302","127.014061","2016-06-29","11","","LCD"
"374",524,"래미안금호하이리버 아파트 102동 옆","성동구","서울특별시 성동구 금호동2가 1220-1","37.55220032","127.0250549","2016-06-29","10","","LCD"
"375",525,"한양대병원사거리","성동구","서울특별시 성동구 행당동 20-2","37.55805206","127.0403519","2016-06-29","20","","LCD"
"376",526,"용답토속공원 앞","성동구","서울특별시 성동구 용답동 224-1","37.56351089","127.0567246","2016-06-29","10","","LCD"
"377",529,"장한평역 8번 출구 앞","성동구","서울특별시 성동구 용답동 224-3","37.56137085","127.0636597","2016-06-29","15","","LCD"
"378",530,"청계벽산아파트 앞","성동구","서울특별시 성동구 하왕십리동 286-24","37.56874847","127.0304031","2016-06-29","9","","LCD"
"379",533,"우리은행 금호동 지점 앞","성동구","서울특별시 성동구 금호동4가 1101","37.54814911","127.0210877","2016-06-29","7","","LCD"
"380",534,"금호사거리","성동구","서울특별시 성동구 금호동2가 1205-1","37.54863358","127.0257263","2016-06-29","20","","LCD"
"381",535,"응봉삼거리","성동구","서울특별시 성동구 응봉동 134-26","37.5539856","127.0335922","2016-06-29","16","","LCD"
"382",536,"행당역 2번출구 앞","성동구","서울특별시 성동구 행당동 347-11","37.55735016","127.029213","2016-06-29","8","","LCD"
"383",537,"한양대후문역 부근","성동구","서울특별시 성동구 행당동 10","37.56035614","127.0413971","2016-06-29","10","","LCD"
"384",538,"답십리역 8번출구 앞","성동구","서울특별시 성동구 용답동 102-1","37.56764984","127.0511551","2016-06-29","15","","LCD"
"385",539,"군자교교차로","광진구","서울특별시 광진구 중곡동 263-1","37.55979538","127.0742035","2021-03-25","","10","QR"
"386",540,"군자역 7번출구 베스트샵 앞","광진구","서울특별시 광진구 군자동 499","37.55603027","127.0786438","2016-06-29","8","","LCD"
"387",542,"강변역 4번출구 뒤","광진구","서울특별시 광진구 구의동 546-6","37.53546524","127.0944824","2016-06-29","19","","LCD"
"388",543,"구의공원(테크노마트 앞)","광진구","서울특별시 광진구 구의동 546-3","37.53596878","127.0946732","2020-09-02","","20","QR"
"389",544,"광남중학교","광진구","서울특별시 광진구 광장동 561-15","37.54072952","127.1029053","2016-06-29","20","","LCD"
"390",546,"잠실대교북단 교차로","광진구","서울특별시 광진구 자양동 722","37.53247833","127.0850906","2016-06-29","8","","LCD"
"391",548,"자양나들목","광진구","서울특별시 광진구 자양동 738","37.5297699","127.0748596","2016-06-29","20","","LCD"
"392",549,"아차산역 3번출구","광진구","서울특별시 광진구 구의동 96","37.55122375","127.0897064","2016-06-29","10","","LCD"
"393",550,"서울시설공단 앞","성동구","서울특별시 성동구 마장동 610","37.57164001","127.0356598","2021-01-25","","15","QR"
"394",551,"구의삼성쉐르빌 앞","광진구","서울특별시 광진구 구의강변로 106","37.54006195","127.0944977","2016-07-06","10","","LCD"
"395",552,"대림아크로리버 앞","광진구","서울특별시 광진구 구의강변로 64","37.53657913","127.0929718","2016-07-06","10","","LCD"
"396",553,"중곡 성원APT 앞","광진구","서울특별시 광진구 동일로 459","37.57125473","127.0798035","2016-07-06","19","","LCD"
"397",555,"구의3동주민센터","광진구","서울특별시 광진구 강변역로 17","37.53784943","127.0921707","2016-07-06","9","","LCD"
"398",556,"달맞이공원","성동구","서울특별시 성동구 금호동4가 367-1","37.54205322","127.020401","2016-07-06","20","","LCD"
"399",557,"도선동 주민센터 앞","성동구","서울특별시 성동구 무학로10길 6","37.56764221","127.0256958","2016-07-06","10","","LCD"
"400",558,"성동광진 교육지원청 앞","성동구","서울특별시 성동구 고산자로 260","37.56460571","127.0365219","2016-07-06","20","","LCD"
"401",559,"왕십리역 4번 출구 건너편","성동구","서울특별시 성동구 왕십리광장로 10-1","37.56109619","127.0367966","2016-07-06","10","","LCD"
"402",560,"비전교회 앞","성동구","서울특별시 성동구 동일로 213","37.55120468","127.0689316","2016-07-06","8","","LCD"
"403",561,"서울숲역 2번출구 앞","성동구","서울특별시 성동구 왕십리로 64","37.54281616","127.0446701","2016-07-06","10","","LCD"
"404",562,"군자지하보도 앞","성동구","서울특별시 성동구 동일로 313","37.55924606","127.07341","2016-07-06","10","","LCD"
"405",563,"성동세무서 건너편","성동구","서울특별시 성동구 광나루로 302","37.5479126","127.0627518","2016-07-06","10","","LCD"
"406",564,"금호역 3번출구","성동구","서울특별시 성동구 동호로 99","37.54792786","127.0155716","2016-07-06","15","","LCD"
"407",565,"옥수역 3번출구","성동구","서울특별시 성동구 한림말길 56","37.54136658","127.0177612","2016-07-06","15","","LCD"
"408",567,"성수역 2번출구 앞","성동구","서울특별시 성동구 아차산로 113","37.54459","127.0570831","2016-07-06","15","","LCD"
"409",568,"청계8가사거리 부근","성동구","서울특별시 동대문구 청계천로 417","37.57110214","127.0235596","2016-07-06","10","","LCD"
"410",569,"응봉현대아파트 정류소","성동구","서울특별시 성동구 독서당로 381","37.54958344","127.0302429","2016-07-06","10","","LCD"
"411",571,"어린이대공원역6번출구","광진구","서울특별시 광진구 군자로 74","37.54849625","127.0747604","2016-07-06","20","","LCD"
"412",572,"국립정신 건강센터 앞","광진구","서울특별시 광진구 능동로 398","37.5653801","127.0865097","2016-07-06","20","","LCD"
"413",573,"구의문주차장 앞","광진구","서울특별시 광진구 능동로 216","37.54523087","127.0847321","2016-07-06","10","","LCD"
"414",574,"아차산역4번출구","광진구","서울특별시 광진구 능동로 216","37.55184937","127.0889816","2016-07-06","40","","LCD"
"415",575,"중앙농협 중곡지점","광진구","서울특별시 광진구 용마산로 120","37.56429291","127.086937","2016-07-06","10","","LCD"
"416",576,"광나루역 3번 출구","광진구","서울특별시 광진구 아차산로 552","37.54483032","127.1042633","2016-07-06","10","","LCD"
"417",577,"광진청소년수련관","광진구","서울특별시 광진구 구천면로 2","37.54654694","127.1061325","2016-07-06","10","","LCD"
"418",578,"성동세무서 부근","성동구","서울특별시 성동구 광나루로 303-1","37.54828644","127.062088","2016-07-06","8","","LCD"
"419",579,"마장역 4번출구","성동구","서울특별시 성동구 마장로 292-1","37.56520462","127.0418472","2016-07-06","8","","LCD"
"420",581,"용답초등학교","성동구","서울특별시 성동구 용답25길 1","37.56101227","127.0542374","2016-07-06","10","","LCD"
"421",582,"경일중학교 앞","성동구","서울특별시 성동구 성수일로 27","37.54317856","127.0490799","2016-07-06","10","","LCD"
"422",583,"청계천 생태교실 앞","성동구","서울특별시 성동구 마장로39길 51","37.56797028","127.0468903","2016-07-06","20","5","LCD"
"423",584,"광진광장 교통섬","광진구","서울특별시 광진구 군자동 374-8","37.54782867","127.0726318","2016-09-02","20","","LCD"
"424",585,"성수2가1동 공영주차장 인근","성동구","서울특별시 성동구 성수동2가 569-3","37.53680801","127.0554886","2016-09-02","9","","LCD"
"425",586,"마장동 주민센터","성동구","서울특별시 성동구 마장로42길 14","37.56594086","127.0453949","2016-09-02","10","","LCD"
"426",587,"유니베라 앞","성동구","서울특별시 성동구 성수동2가 276-5","37.54541779","127.0526428","2016-09-20","10","","LCD"
"427",588,"뚝섬 유원지역","광진구","서울특별시 광진구 능동로 10","37.53268814","127.0674973","2016-12-09","","20","QR"
"428",589,"성수역3번출구","성동구","서울특별시 성동구 아차산로 100","37.54415894","127.0566559","2017-04-19","8","","LCD"
"429",590,"건국대학교 (입학정보관)","광진구","서울특별시 광진구 능동로 120","37.53989029","127.0733643","2017-08-30","20","","LCD"
"430",591,"건국대학교 (행정관)","광진구","서울특별시 광진구 능동로 120","37.54277802","127.0753708","2017-08-30","5","","LCD"
"431",592,"건국대학교 학생회관","광진구","서울특별시 광진구 능동로 120","37.54191208","127.0776367","2017-08-30","30","","LCD"
"432",593,"자양중앙나들목","광진구","서울특별시 광진구 자양강변길 301","37.52858734","127.0778732","2020-09-24","","5","QR"
"433",594,"중랑물재생센터(서울새활용플라자)","성동구","서울특별시 성동구 자동차시장길 49","37.55836487","127.0569077","2017-08-28","15","","LCD"
"434",600,"휘경2동 주민센터","동대문구","서울특별시 동대문구 한천로 329","37.58991241","127.0686798","2016-06-29","13","","LCD"
"435",601,"용신동주민센터","동대문구","서울특별시 동대문구 용두동 65-25","37.57594681","127.0373612","2016-06-29","10","","LCD"
"436",602,"장안동 사거리","동대문구","서울특별시 동대문구 장한로 25길 2","37.57217407","127.0713882","2016-06-29","10","","LCD"
"437",604,"답십리초등학교 옆 공원","동대문구","서울특별시 동대문구 전농로3길 23","37.56965637","127.0559616","2016-06-29","15","","LCD"
"438",605,"신설동역8번출구","동대문구","서울특별시 동대문구 천호대로 26","37.57419968","127.0264969","2016-06-29","8","","LCD"
"439",606,"휘경공고앞","동대문구","서울특별시 동대문구 겸재로 21","37.58462524","127.0702896","2016-06-29","14","","LCD"
"440",607,"신이문역 2번출구","동대문구","서울특별시 동대문구 이문동186-1","37.60271072","127.0678635","2016-06-29","10","","LCD"
"441",608,"전농삼성아파트","동대문구","서울특별시 동대문구 전농로 192","37.58131027","127.0553436","2016-06-29","10","","LCD"
"442",609,"제기2교","동대문구","서울특별시 동대문구 제기동122-388","37.58774567","127.037384","2016-06-29","20","","LCD"
"443",610,"동대문중 교차로","동대문구","서울특별시 동대문구 답십리동 524-1","37.57308578","127.0521622","2016-06-29","10","","LCD"
"444",612,"시립동부병원 앞 사거리","동대문구","서울특별시 동대문구 용두동 237-10 ","37.57366562","127.0308151","2016-06-29","20","","LCD"
"445",613,"신설동역 10번출구 앞","동대문구","서울특별시 동대문구 신설동 92-34","37.57527161","127.023468","2016-06-29","10","","LCD"
"446",614,"용두동 사거리","동대문구","서울특별시 동대문구 용두동 237-10","37.57768631","127.0310135","2016-06-29","20","","LCD"
"447",615,"용두동 래미안허브리츠아파트 앞","동대문구","서울특별시 동대문구 용두동 696-13 ","37.57638168","127.0351105","2016-06-29","20","","LCD"
"448",616,"서울시립대 앞","동대문구"," 서울특별시 동대문구 전농동 135-5","37.58256149","127.0543671","2016-06-29","20","","LCD"
"449",617,"청솔우성아파트 앞","동대문구","서울특별시 동대문구 답십리동 94-2 ","37.57420349","127.0576935","2016-06-29","20","","LCD"
"450",621,"동대문중학교 옆","동대문구","서울특별시 동대문구 사가정로 62","37.57471848","127.0533905","2016-07-06","13","","LCD"
"451",622,"전농사거리 교통섬","동대문구","서울특별시 동대문구 사가정로 119","37.57779312","127.0578308","2016-07-06","15","","LCD"
"452",623,"서울시립대 정문 앞","동대문구","서울특별시 동대문구 서울시립대로 161","37.58369827","127.0538559","2016-07-06","20","","LCD"
"453",624,"전농동 동아아파트 앞","동대문구","서울특별시 동대문구 서울시립대로 31","37.57418823","127.0458908","2016-07-06","10","","LCD"
"454",625,"답십리초등학교 앞(현대시장 옆)","동대문구","서울특별시 동대문구 전농로 34","37.56819153","127.0571747","2016-07-06","14","","LCD"
"455",626,"군자교 서측 녹지대","동대문구","서울특별시 동대문구 장한로6길 95","37.56115341","127.0709686","2016-07-06","10","","LCD"
"456",627,"장안동삼거리 교통섬","동대문구","서울특별시 동대문구 사가정로 240","37.57863235","127.071907","2016-07-06","10","","LCD"
"457",628,"휘봉고등학교 앞","동대문구","서울특별시 동대문구 한천로 290","37.58681488","127.067543","2016-07-06","15","","LCD"
"458",630,"동대문구 보건소","동대문구","서울특별시 동대문구 천호대로 145","37.57485199","127.0403061","2016-07-06","15","","LCD"
"459",631,"답십리역 1번출구","동대문구","서울특별시 동대문구 천호대로 269","37.5681839","127.0512772","2016-07-06","15","","LCD"
"460",633,"청량리 기업은행 앞","동대문구","서울특별시 동대문구 홍릉로 1","37.58040619","127.0448227","2016-07-06","8","","LCD"
"461",634,"외국어대 정문 앞","동대문구","서울특별시 동대문구 이문로 107","37.59601974","127.0598297","2016-07-06","20","","LCD"
"462",635,"시조사 앞 (청량고정문 옆)","동대문구","서울특별시 동대문구 이문로1길 11","37.58751678","127.0527725","2016-07-06","12","","LCD"
"463",636,"세종대왕기념관 교차로","동대문구","서울특별시 동대문구 회기로 56","37.59090042","127.0425873","2016-07-06","9","","LCD"
"464",637,"KAIST 경영대학 앞","동대문구","서울특별시 동대문구 회기로 85","37.59161377","127.0457916","2016-07-06","10","","LCD"
"465",638,"서울시립대 정보기술관","동대문구","서울특별시 동대문구 한천로43길 12-14","37.58300781","127.0609741","2016-07-06","20","","LCD"
"466",639,"서울시립대 후문","동대문구","서울특별시 동대문구 한천로43길 12-14","37.58519745","127.0609512","2016-07-06","14","","LCD"
"467",640,"KEB하나은행 청량리역지점","동대문구","서울특별시 동대문구 왕산로 205","37.58245468","127.0444946","2016-07-06","6","","LCD"
"468",641,"용두역 4번출구","동대문구","서울특별시 동대문구 청계천로 563","37.57375336","127.0385361","2016-07-06","10","","LCD"
"469",642,"신답역 사거리","동대문구","서울특별시 동대문구 천호대로 231","37.5701561","127.048584","2020-06-18","","9","QR"
"470",643,"동대문구민체육센터 (육교아래)","동대문구","서울특별시 동대문구 장안벚꽃로 77","37.56697083","127.0744171","2016-07-06","10","","LCD"
"471",646,"장한평역 1번출구 (국민은행앞)","동대문구","서울특별시 동대문구 천호대로 405","37.56186676","127.0643768","2017-11-28","10","","LCD"
"472",647,"신이문역 1번출구","동대문구","서울특별시 동대문구 신이문로 44","37.60279846","127.0672684","2017-11-28","10","","LCD"
"473",648,"장안동위더스빌옆","동대문구","서울특별시 동대문구 한천로 42","37.56669998","127.0624237","2017-11-28","15","","LCD"
"474",650,"중랑교사거리","동대문구","서울특별시 동대문구 망우로 131","37.59153366","127.0677414","2017-11-28","20","","LCD"
"475",652,"답십리 래미안엘파인아파트 입구","동대문구","동대문구 전농동 6-6","37.57653046","127.0659409","2018-11-04","20","","LCD"
"476",654,"전농동 텃골공원","동대문구","서울특별시 동대문구 사가정로 65","37.57762146","127.0521088","2017-11-28","10","","LCD"
"477",656,"영휘원 교차로","동대문구","동대문구 청량리동 199-232","37.58723831","127.0431366","2018-10-22","10","","LCD"
"478",657,"동대문롯데캐슬아파트 앞","동대문구","동대문구 답십리로23길 30(전농동 518)","37.57551956","127.0487747","2018-10-22","13","","LCD"
"479",658,"촬영소 사거리","동대문구","동대문구 답십리로 233(답십리동 2-146)","37.57294846","127.0661469","2018-10-22","10","","LCD"
"480",659,"제기역1번출구","동대문구","동대문구 용두동 237-10","37.57835007","127.0333862","2018-10-22","15","","LCD"
"481",660,"동의보감타워","동대문구","동대문구 왕산로 128","37.57799911","127.0376282","2018-10-22","10","","LCD"
"482",661,"경희대학교 청운관","동대문구","동대문구 경희대로 26","37.59460068","127.0519638","2018-08-30","10","","LCD"
"483",663,"외대앞역 4번출구","동대문구","동대문구 휘경동 146-42","37.59489059","127.0630264","2018-12-14","10","","LCD"
"484",664,"서울시립대 대학본부","동대문구","동대문구 서울시립대로 163 서울시립대학교","37.58412933","127.0579376","2019-11-20","10","","LCD"
"485",665,"이문동 쌍용아파트 정문","동대문구","동대문구 한천로58길 47","37.59960556","127.0686417","2020-04-19","","11","QR"
"486",666,"이문대성유니드아파트 앞","동대문구","한천로58길 151","37.60362244","127.0708313","2020-04-21","","20","QR"
"487",667,"청량차도 육교 밑","동대문구","제기로 126","37.58659363","127.0469971","2020-04-19","","7","QR"
"488",668,"서울축산농협(장안지점)","동대문구","동대문구 장안동 469-8 ","37.56799698","127.068779","2020-04-22","","10","QR"
"489",669,"청계신한신휴플러스앞 삼거리","동대문구","서울시립대로14","37.57214737","127.0446091","2020-04-19","","10","QR"
"490",670,"삼육서울병원 버스정류장","동대문구","망우로74","37.58968735","127.061409","2020-04-22","","9","QR"
"491",671,"대광빌딩","동대문구","동대문구 신설동 168-7 ","37.57734299","127.0233765","2020-03-27","","10","QR"
"492",672,"대광고등학교","동대문구","동대문구 신설동 397-2 ","37.57859039","127.0238495","2020-03-27","","17","QR"
"493",673,"안암골벽산아파트(후문)","동대문구","동대문구 제기동 190-11 ","37.58407974","127.0310364","2020-03-28","","10","QR"
"494",674,"고대앞사거리 교통섬","동대문구","동대문구 제기동 142-21 ","37.58655167","127.0331421","2020-03-30","","15","QR"
"495",675,"성복교회 앞 (장평교 아래)","동대문구","동대문구 장안벚꽃로 139","37.5720253","127.0770035","2020-04-16","","10","QR"
"496",676,"FITI시험연구원 앞","동대문구","동대문구 정릉천동로 102","37.58143234","127.0354767","2020-03-28","","9","QR"
"497",677,"청량리역 4번 5번출구 사이","동대문구","청량리역환승센터 횡단보도","37.5801506","127.0457993","2020-04-19","","20","QR"
"498",678,"장안힐스테이트(아) 앞","동대문구","동대문구 답십리로69길 93","37.57655716","127.0743103","2020-04-26","","15","QR"
"499",679,"전농SK아파트 앞","동대문구","동대문구 사가정로 150 ","37.57787704","127.0616837","2020-04-16","","10","QR"
"500",680,"꿈마루어린이도서관 앞","동대문구","동대문구 이문로 55","37.59238434","127.0574112","2020-04-19","","15","QR"
"501",681,"서울특별시 동부교육지원청(육교)","동대문구","동대문구 전농로168","37.5798378","127.0563736","2020-04-19","","15","QR"
"502",700,"KB국민은행 염창역 지점 앞","양천구","서울특별시 양천구 목동 559","37.5468483","126.8727722","2016-06-29","20","","LCD"
"503",701,"목동사거리 부근","양천구","서울특별시 양천구 목동 813","37.53280258","126.8639298","2016-06-29","8","","LCD"
"504",702,"목4동주민센터 옆","양천구","서울특별시 양천구 목동 904-3","37.53254318","126.8687286","2016-06-29","16","","LCD"
"505",703,"오목교역 7번출구 앞","양천구","서울특별시 양천구 목동 451","37.52362823","126.8752441","2016-06-29","12","","LCD"
"506",704,"남부법원검찰청 교차로","양천구","서울특별시 양천구 신정동 1095","37.52325439","126.8649063","2016-06-29","15","","LCD"
"507",706,"신정네거리역","양천구","서울특별시 양천구 신월동 894","37.5218811","126.8517532","2016-06-29","15","","LCD"
"508",707,"신정3동주민센터","양천구","서울특별시 양천구 중앙로 209","37.51515579","126.8548966","2016-06-29","10","","LCD"
"509",708,"서울출입국관리사무소 앞","양천구","서울특별시 양천구 신정동 319-3","37.51897049","126.8699646","2016-06-29","16","","LCD"
"510",709,"신정3동 현장민원실 앞","양천구","서울특별시 양천구 신정동 760-2","37.51158524","126.8415604","2016-06-29","20","","LCD"
"511",710,"금옥여고보도육교","양천구","신정로 213","37.50971222","126.8441696","2020-09-14","","10","QR"
"512",711,"신일해피트리아파트 앞","양천구","서울특별시 양천구 신월동 1063-4","37.51705933","126.8484879","2016-06-29","20","","LCD"
"513",712,"강월초교입구 사거리","양천구","서울특별시 양천구 신월동 905","37.51699829","126.8383179","2016-06-29","14","","LCD"
"514",713,"양서중학교 옆","양천구","서울특별시 양천구 신월동 790","37.53304672","126.8299561","2016-06-29","20","","LCD"
"515",714,"한국SGI 양천문화회관 앞","양천구","서울특별시 양천구 신월동 790","37.532547","126.8308029","2016-06-29","10","","LCD"
"516",716,"신정6동 주민센터 인근","양천구","서울특별시 양천구 목동서로 355","37.51728058","126.8643341","2016-07-06","15","","LCD"
"517",719,"홍익병원앞 교차로","양천구","서울특별시 양천구 등촌로 2","37.5303688","126.8642578","2016-07-06","10","","LCD"
"518",720,"서울강월초등학교 앞","양천구","서울특별시 양천구 신월로 97","37.5161972","126.8348999","2016-07-06","10","","LCD"
"519",722,"LG전자베스트샵 신정점","양천구","서울특별시 양천구 신월로 328","37.52151108","126.8573837","2017-11-01","10","","LCD"
"520",723,"SBS방송국","양천구","서울특별시 양천구 목동서로161","37.52916336","126.8727493","2017-11-01","15","","LCD"
"521",724,"계남공원 입구 주출입구 좌측","양천구","서울특별시 양천구 신정동 621-14","37.51068115","126.857399","2017-11-01","15","","LCD"
"522",725,"양강중학교앞 교차로","양천구","서울특별시 양천구 남부순환로88길5-16","37.52433395","126.8505478","2017-11-01","15","","LCD"
"523",726,"목동3단지 시내버스정류장","양천구","서울특별시 양천구 목동중앙로 49 ","37.5343895","126.8695984","2017-11-01","15","","LCD"
"524",729,"서부식자재마트 건너편","양천구","서울특별시 양천구 신정동 236 ","37.51037979","126.8667984","2017-11-01","10","","LCD"
"525",731,"서울시 도로환경관리센터","양천구","서울특별시 양천구 목동동로 316-6","37.5298996","126.8765411","2017-11-01","10","","LCD"
"526",732,"신월동 이마트","양천구","서울특별시 양천구 화곡로 59","37.53955078","126.8283005","2017-11-01","10","","LCD"
"527",733,"신정이펜하우스314동","양천구","서울특별시 양천구 신정이펜1로50 ","37.51409912","126.8310013","2017-11-01","10","","LCD"
"528",734,"신트리공원 입구","양천구","서울특별시 양천구 신정동 310-8 ","37.51395035","126.8560562","2017-11-01","10","","LCD"
"529",735,"영도초등학교","양천구","서울특별시 양천구 목동중앙로 70 ","37.53637695","126.8715134","2017-11-01","10","","LCD"
"530",736,"오솔길공원","양천구","서울특별시 양천구 남부순환로70길11-9","37.52219009","126.8367004","2017-11-01","10","","LCD"
"531",737,"장수공원","양천구","서울특별시 양천구 신월로 894 ","37.52256012","126.8494797","2017-11-01","10","","LCD"
"532",739,"신월사거리","양천구","서울특별시 양천구 신월동 263","37.53620148","126.8277969","2017-11-01","15","","LCD"
"533",740,"으뜸공원","양천구","서울특별시 양천구 가로공원로 133","37.53636932","126.8317108","2017-11-01","10","","LCD"
"534",741,"화곡로 입구 교차로","양천구","서울특별시 양천구 신월동 258","37.53952026","126.8254013","2017-11-01","10","","LCD"
"535",742,"등촌역 5번 출구 뒤","양천구","서울특별시 양천구 등촌로 236","37.55073166","126.8645783","2017-11-01","10","","LCD"
"536",743,"현대6차아파트 101동 옆","양천구","서울특별시 양천구 신정동 735-5","37.50889969","126.8426819","2017-11-01","10","","LCD"
"537",744,"신목동역 2번 출구","양천구","서울특별시 양천구 목동중앙로 212 앞","37.54384232","126.8825455","2020-10-28","","10","QR"
"538",745,"강서초등학교","양천구","서울특별시 양천구 오목로 31 부근","37.52228165","126.8396988","2017-11-01","10","","LCD"
"539",746,"목동2단지 상가","양천구","서울특별시  양천구 목동 902-5 ","37.53650284","126.8777466","2017-11-01","10","","LCD"
"540",747,"목동3단지 상가","양천구","서울특별시 양천구 목동 903-6","37.53458023","126.8756485","2017-11-01","10","","LCD"
"541",748,"목동운동장","양천구","서울특별시 양천구 안양천로 939","37.53025055","126.879303","2017-11-01","15","","LCD"
"542",749,"이대 목동병원 앞","양천구","서울특별시 양천구 목동 911-10","37.53722763","126.8866119","2018-07-04","10","","LCD"
"543",750,"연의근린공원 건너편","양천구","서울특별시 양천구 신정로7길 92","37.51215744","126.8356247","2018-02-26","10","","LCD"
"544",752,"성원2차 아파트","양천구","서울특별시 양천구 목동중앙남로 100","37.54218292","126.8633041","2018-02-26","10","","LCD"
"545",754,"목동1단지아파트 118동 앞 (월촌초등학교 정류소 옆","양천구"," 양천구 목동서로 38","37.54114151","126.8766785","2018-09-27","10","","LCD"
"546",755,"목동1단지아파트 상가 앞 (월촌중학교 버스정류소 옆)","양천구","양천구 목동서로 38","37.5378685","126.8814087","2018-09-27","10","","LCD"
"547",756,"목동주차장","양천구","양천구 목동동로 298","37.52667999","126.8761673","2018-09-27","10","","LCD"
"548",757,"신정이펜하우스 1단지아파트 입구 사거리","양천구","양천구 신정이펜1로 99","37.51427841","126.828743","2018-09-27","10","","LCD"
"549",758,"한사랑교회 앞","양천구","양천구 목동동로 33","37.51472092","126.8591995","2018-09-27","10","","LCD"
"550",759,"보아스아파트 앞","양천구","양천구 오목로3길 32","37.52407074","126.8386002","2018-09-20","9","","LCD"
"551",760,"잣절보도육교 아래","양천구"," 양천구 남부순환로 699","37.50682068","126.8442993","2018-10-15","10","","LCD"
"552",762,"오목로 무중력지대 앞","양천구"," 양천구 신목로 126","37.52474213","126.8776627","2018-09-27","10","","LCD"
"553",763,"목동11단지 아파트","양천구","목동동로 10","37.51065826","126.8591614","2018-11-05","10","","LCD"
"554",764,"목동청소년수련관","양천구","양천구 목동동로 323","37.53102875","126.8758926","2018-10-26","30","","LCD"
"555",765,"오목교역 3번출구","양천구","서울특별시 양천구 목동동로 270","37.52477646","126.8754807","2019-01-02","10","","LCD"
"556",766,"신목동역 3번출구","양천구","양천구 목동 136-1","37.54394913","126.883461","2019-03-12","15","","LCD"
"557",767,"신정숲속마을아파트","양천구","양천구 신정로 110","37.50574493","126.8363113","2020-03-11","","10 ","QR"
"558",768,"목동5단지아파트 501동","양천구","양천구 목동","37.53566742","126.8815842","2020-03-12","","15 ","QR"
"559",769,"CBS방송국 앞","양천구","양천구 목동 917-1","37.52785492","126.8746719","2020-03-15","","20 ","QR"
"560",770,"목동역5번출구 교통정보센터 앞","양천구","양천구 목동로 186","37.52571487","126.8648682","2020-03-13","","10 ","QR"
"561",771,"목동아파트 703동 앞","양천구","양천구 목동로 186 ","37.52820587","126.870163","2020-03-13","","8 ","QR"
"562",773,"염창역 3, 4번 출구 사이","양천구","공항대로 630","37.54670715","126.8745728","2020-03-16","","10 ","QR"
"563",774,"등촌역 4번 출구 ","양천구","양천구 목동 603-2","37.54950714","126.867218","2020-03-16","","11 ","QR"
"564",775,"세종그랑시아 앞(102동)","양천구","양천구 목동중앙남로3가길 59","37.53837585","126.8638306","2020-03-16","","10 ","QR"
"565",776,"목마공원","양천구","양평교 하부","37.53874207","126.8856812","2020-03-13","","15 ","QR"
"566",777,"신월6차보람아파트 앞","양천구","양천구 곰달래로7길 7","37.53012848","126.8347778","2020-03-11","","10 ","QR"
"567",779,"양천나눔누리센터","양천구","양천구 중앙로 250","37.51854324","126.8538818","2020-03-09","","10 ","QR"
"568",780,"신정교 하부","양천구","양천구 신정동 871-37","37.5173378","126.8776474","2020-03-11","","15 ","QR"
"569",781,"신정보도육교 아래","양천구","양천구 신목로 10","37.51759338","126.8765564","2020-03-11","","10 ","QR"
"570",782,"서남병원 후문","양천구","양천구 신정이펜1로 20","37.51167297","126.8327408","2020-03-15","","20 ","QR"
"571",785,"양천구청, 보건소 사잇길","양천구","양천구 신정동 321-8","37.51732635","126.8663025","2020-03-15","","15 ","QR"
"572",786,"목동아파트 8단지 상가동 앞","양천구","양천구 목동서로 280","37.52007294","126.8683014","2020-03-18","","9 ","QR"
"573",787,"양천아파트 입구","양천구","양천구 목동로3길 41","37.50790405","126.862648","2020-03-09","","10 ","QR"
"574",788,"양천구청역 2번출구 옆","양천구","양천구 목동로3길 57","37.51237869","126.8655548","2020-03-06","","15 ","QR"
"575",790,"화곡고가 사거리","양천구","양천구 신월동 455-5 ","37.52760696","126.8487549","2020-03-11","","40 ","QR"
"576",791,"현대하이페리온","양천구","오목로300(205동앞 서쪽방향)","37.52490616","126.8697891","2020-03-13","","15 ","QR"
"577",792,"목동트라팰리스 웨스턴에비뉴","양천구","오목로299(이마트 출입구측)","37.52537155","126.8709259","2020-03-13","","20 ","QR"
"578",793,"목동5단지아파트 534동","양천구","서울특별시 양천구 목동동로 350 목동신시가지아파트5단지","37.53302002","126.8778992","2020-03-12","","15 ","QR"
"579",794,"양천문화회관","양천구","양천구 신정동 323-1","37.51684189","126.8629532","2020-04-20","","10 ","QR"
"580",795,"양천 해누리타운","양천구","양천구 신정동 327-4","37.51584244","126.8641129","2020-04-20","","10 ","QR"
"581",796,"목동아파트 14단지 B상가 앞","양천구","양천구 신정동 330","37.5146637","126.8719406","2020-04-20","","10 ","QR"
"582",797,"목동아파트 1422동 1434동 사잇길","양천구","양천구 신정동 332-2","37.51515579","126.8724899","2020-04-20","","10 ","QR"
"583",800,"목월공원 앞","용산구","서울특별시 용산구 원효로4가 109-10","37.53243256","126.9547424","2016-06-29","15","","LCD"
"584",802,"한강진역 2번 출구 앞","용산구","서울특별시 용산구 한남동 726-494","37.54115295","127.0022125","2016-06-29","10","","LCD"
"585",803,"한남초교 앞 보도육교","용산구","서울특별시 용산구 한남동 725-17","37.53813934","127.004097","2016-06-29","10","","LCD"
"586",805,"문배어린이공원 앞","용산구","서울특별시 용산구 문배동 34-10","37.53675842","126.9700012","2016-06-29","9","","LCD"
"587",806,"전자랜드 본관 앞","용산구","서울특별시 용산구 한강로3가 16-8","37.5330658","126.9607315","2016-06-29","20","","LCD"
"588",807,"서울역 12번 출구 앞","용산구","서울특별시 용산구 동자동 14-229","37.55227661","126.9726868","2016-06-29","10","","LCD"
"589",808,"서빙고동 금호맨션 앞","용산구","서울특별시 용산구 서빙고동 235-5","37.520504","126.9897385","2016-06-29","10","","LCD"
"590",809,"한남 유수지 복개주차장","용산구","서울특별시 용산구 독서당로 18","37.53016663","127.0074387","2016-06-29","10","","LCD"
"591",810,"이태원지하보도","용산구","서울특별시 용산구 용산동2가 5-1812","37.53841019","126.9866486","2016-06-29","10","","LCD"
"592",811,"녹사평역1번출구","용산구","서울특별시 용산구 용산동2가 6-7","37.53507996","126.9853821","2016-06-29","20","","LCD"
"593",812,"용산전쟁기념관","용산구","서울특별시 용산구 용산동1가 8-4","37.53483963","126.9776611","2016-06-29","20","","LCD"
"594",813,"삼각지역 3번출구","용산구","서울특별시 용산구 한강로1가 228-1","37.53351212","126.9722748","2016-06-29","20","","LCD"
"595",815,"LIG강촌아파트 103동앞","용산구","서울특별시 용산구 이촌동301-5","37.51850891","126.9787979","2016-06-29","20","","LCD"
"596",816,"신용산역 6번출구 앞","용산구","서울특별시 용산구 한강대로 115","37.53014755","126.968483","2016-07-06","15","","LCD"
"597",817,"삼각지역 4번출구 앞","용산구","서울특별시 용산구 한강대로 161","37.53345108","126.9717331","2016-07-06","9","","LCD"
"598",818,"숙명여대 입구 교차로","용산구","서울특별시 용산구 청파로47길 100","37.54489517","126.9693832","2016-07-06","15","","LCD"
"599",819,"선린인터넷 고등학교","용산구","서울특별시 용산구 원효로97길 33-4","37.54165268","126.9705048","2016-07-06","12","","LCD"
"600",820,"청파동입구 교차로","용산구","서울특별시 용산구 한강대로 349","37.54902649","126.9719467","2016-07-06","10","","LCD"
"601",822,"이촌1동 마을공원","용산구","서울특별시 용산구 이촌로 219","37.52204132","126.9655228","2016-07-06","10","","LCD"
"602",823,"효창동주민센터 앞","용산구","서울특별시 용산구 효창동 255-17 임","37.54232025","126.9619598","2016-07-06","10","","LCD"
"603",825,"서빙고동 주민센터 앞","용산구","서울특별시 용산구 서빙고로 279","37.52033615","126.9942627","2016-07-06","15","","LCD"
"604",826,"서울역 서부교차로2","중구","서울특별시 중구 만리동1가 22-1","37.55536652","126.9686432","2017-08-03","20","","LCD"
"605",827,"국군복지단","용산구","서울특별시 용산구 두텁바위로 54-99","37.54188538","126.97966","2017-11-28","20","","LCD"
"606",828,"숙대입구역 8번","용산구","서울특별시 용산구 한강대로 289","37.54407883","126.9720001","2017-11-28","7","","LCD"
"607",829,"베르가모앞","용산구","서울특별시 용산구 한강대로 23","37.52293015","126.9616928","2017-11-28","40","","LCD"
"608",830,"청암자이아파트앞","용산구","서울특별시 용산구 원효로 35","37.53442383","126.9485703","2017-11-28","10","","LCD"
"609",831,"이태원관광특구입구","용산구","서울특별시 용산구 이태원로 134","37.53427887","126.9885635","2017-11-28","15","","LCD"
"610",832,"이촌1동 주민센터 뒤","용산구","서울특별시 용산구 이촌로71길 24","37.5212822","126.973465","2017-12-22","15","","LCD"
"611",834,"효창공원앞역 3번출구 뒤","용산구","서울특별시 용산구 백범로 지하 287","37.53900909","126.96138","2017-12-22","15","","LCD"
"612",835,"남영역 건너편","용산구","서울특별시 용산구 한강대로77길 18","37.54198074","126.9715424","2017-12-22","10","","LCD"
"613",836,"현대자동차서비스 앞","용산구","서울특별시 용산구 원효로 74","37.53142166","126.9514999","2017-12-22","15","","LCD"
"614",837,"한남나들목 입구","용산구","서울특별시 용산구 서빙고로 417","37.52906036","127.0067291","2017-12-22","10","","LCD"
"615",838,"숙대입구역 4번출구","용산구","서울특별시 용산구 남영동 19-8","37.5444603","126.9723892","2018-12-14","8","","LCD"
"616",839,"보광동 삼성리버빌아파트 앞","용산구","용산구 보광로5길 40","37.5240097","127.0014496","2018-12-14","10","","LCD"
"617",840,"용산 파크타워 앞","용산구","용산구 서빙고로 67","37.52365112","126.9702683","2018-10-14","10","","LCD"
"618",841,"신용산역 1번 출구","용산구","용산구 한강대로 100","37.52960968","126.9688721","2018-10-12","15","","LCD"
"619",843,"녹사평역 광장","용산구","용산구 이태원로 134","37.53379822","126.9886704","2018-10-07","10","","LCD"
"620",844,"이촌2동 동원베네스트 아파트 앞","용산구","용산구 이촌로14길 7","37.5271492","126.9551621","2018-10-19","11","","LCD"
"621",845,"용산 선인상가","용산구","용산구 한강로3가 3-42","37.53269958","126.9643784","2018-09-09","22","","LCD"
"622",846,"용산중학교","용산구","  용산구 후암동 260","37.54650116","126.9809494","2018-12-14","15","","LCD"
"623",847," 국방부민원실옆","용산구","용산동3가 1번지 앞,
 (이태원로)","37.53452301","126.9775009","2020-03-28","","15 ","QR"
"624",848," 삼각지12번 출구","용산구","한강로1가 24-7 ","37.53488922","126.9756241","2020-03-28","","10 ","QR"
"625",849," 삼각지 자이아파트","용산구","한강로1가 80-11 ","37.53607941","126.9734192","2020-03-30","","15 ","QR"
"626",850," KCC용산월츠타워 ","용산구","백범로90길 90","37.53739929","126.9689255","2020-03-28","","15 ","QR"
"627",851,"효창 푸르지오 앞","용산구","백범로 260","37.54047775","126.9581146","2020-03-28","","10 ","QR"
"628",852,"청암자이APT(103동)","용산구","청암동 92-1 ","37.53452682","126.9471817","2020-03-28","","20 ","QR"
"629",853,"용산역 맞은편","용산구","한강로2가 408-5 ","37.52856827","126.9656906","2020-04-07","","10 ","QR"
"630",854,"HID 유족동지회 앞","용산구","이태원로 271","37.53872681","127.0015488","2020-04-05","","10 ","QR"
"631",855,"이촌역5번출구 앞","용산구"," 서빙고로 83","37.52272415","126.9727707","2020-04-07","","15 ","QR"
"632",857," 현대 안성타워","용산구","이태원로 217","37.53502274","126.9980545","2020-04-07","","15 ","QR"
"633",858,"녹사평역3번 출구","용산구","용산동4가 1-1","37.53440857","126.9868927","2020-04-07","","7 ","QR"
"634",859,"남산공원 야외식물원 앞","용산구","이태원동 259-16","37.54188538","126.9958649","2020-04-05","","10 ","QR"
"635",860,"LG한강 자이아파트 앞","용산구","용산구 이촌동 429 ","37.52069473","126.9709778","2020-04-07","","15 ","QR"
"636",863,"이촌역2번 출구","용산구","용산동5가 17","37.52177048","126.977005","2020-04-07","","15 ","QR"
"637",864,"순천향대학병원(한남오거리)","용산구","한남동 705-5 (한남대로)","37.53514099","127.0060043","2020-04-05","","10 ","QR"
"638",865,"하얏트호텔 앞","용산구","한남동 산 10-138
 (소월로)","37.54079437","126.9978485","2020-04-05","","15 ","QR"
"639",866,"브라운스톤 남산아파트","용산구","후암동 458","37.551548","126.9768601","2020-03-30","","10 ","QR"
"640",867,"서빙고역 광장(1번출구)","용산구","서빙고동241-14","37.51990891","126.9892349","2020-04-07","","10 ","QR"
"641",869,"노들섬 동측 앞","용산구","서울특별시 용산구 이촌동 303-8","37.51729584","126.9591446","2020-04-03","","10 ","QR"
"642",870,"노들섬 서측 앞","용산구","서울특별시 용산구 이촌동 304-11","37.51731873","126.9582977","2020-04-03","","10 ","QR"
"643",900,"은평예술회관","은평구","서울특별시 은평구 녹번동 85-4","37.60394287","126.9276962","2016-09-02","20","","LCD"
"644",901,"응암1동사무소","은평구","서울특별시 은평구 응암동 84-14","37.60097504","126.9269562","2016-09-02","10","","LCD"
"645",902,"진관동 은빛초등학교","은평구","서울특별시 은평구 진관동 45-21","37.64310837","126.9182205","2016-09-02","10","","LCD"
"646",903,"은평뉴타운 아이파크","은평구","서울특별시 은평구 진관동 13-20","37.64586639","126.9273911","2016-09-02","20","","LCD"
"647",904,"은평뉴타운 푸르지오","은평구","서울특별시 은평구 진관동 5-8","37.64867401","126.9307022","2016-09-02","18","","LCD"
"648",905,"구파발역 2번출구","은평구","서울특별시 은평구 진관동 86-31","37.63623428","126.9189987","2020-12-12","","9","QR"
"649",906,"연신내역 5번출구150M 아래","은평구","서울특별시 은평구 대조동 207-8","37.61721039","126.9195786","2016-09-02","10","","LCD"
"650",907,"CJ 드림시티","은평구","서울특별시 은평구 역촌동 43-11","37.59949112","126.9168625","2016-09-02","10","","LCD"
"651",908,"구산역 4번출구","은평구","서울특별시 은평구 갈현동 536-8","37.61318588","126.9173508","2016-09-02","10","","LCD"
"652",909,"백련산 힐스테이트 3차","은평구","서울특별시 은평구 응암동 761-9","37.58699417","126.9228821","2016-09-02","10","","LCD"
"653",911,"은평평화공원(역촌역4번출구)","은평구","서울특별시 은평구 녹번동 153-31","37.60558319","126.9229355","2016-09-02","10","","LCD"
"654",912,"응암오거리","은평구","서울특별시 은평구 응암동 604-5","37.58966064","126.9169464","2016-09-02","10","","LCD"
"655",913,"이마트 은평점","은평구","서울특별시 은평구 응암동 90-15","37.60070038","126.9201279","2016-09-02","15","","LCD"
"656",914,"새절역 2번출구","은평구","서울특별시 은평구 응암동 610-3","37.59079742","126.9136505","2016-09-02","20","","LCD"
"657",915,"증산역 4번출구","은평구","서울특별시 은평구 증산동 199-8","37.5843811","126.9098969","2016-09-02","10","","LCD"
"658",916,"평생학습관 앞","은평구","서울특별시 은평구 역촌동 15-40","37.60784912","126.9213257","2016-09-02","7","","LCD"
"659",917,"녹번역 4번출구","은평구","서울특별시 은평구 녹번동 55","37.60129929","126.9353485","2016-09-02","9","","LCD"
"660",919,"서울혁신파크","은평구","서울특별시 은평구 녹번동 15-2","37.60702515","126.9333115","2016-09-02","10","","LCD"
"661",921,"신도고등학교","은평구","서울특별시 은평구 진관동 242-14","37.63001633","126.9190292","2016-09-02","10","","LCD"
"662",922,"연신내역 4번출구","은평구","서울특별시 은평구 대조동 227-2","37.61780167","126.9219666","2016-09-02","10","","LCD"
"663",923,"국민은행 연서지점","은평구","서울특별시 은평구 불광동 355","37.62094879","126.9256363","2016-09-02","10","","LCD"
"664",924,"메뚜기다리","은평구","서울특별시 은평구 진관동 161-9","37.62851715","126.9295807","2016-09-02","15","","LCD"
"665",925,"불광역 2번출구","은평구","서울특별시 은평구 불광동 285-43","37.60956573","126.9309769","2016-09-02","8","","LCD"
"666",927,"연신내역 3번출구 인근","은평구","서울특별시 은평구 불광동 304-5","37.61785507","126.9225235","2016-09-02","10","","LCD"
"667",928,"은평역사한옥박물관","은평구","서울특별시 은평구 진관동 133-29","37.64131546","126.9380417","2016-09-02","15","","LCD"
"668",930,"구 서부경찰서 건너편","은평구","서울특별시 은평구 역촌동 41-7","37.60166168","126.9203033","2016-09-02","7","","LCD"
"669",931,"역촌파출소","은평구","서울특별시 은평구 역촌동 45-34","37.60473633","126.9153366","2016-09-02","20","","LCD"
"670",932,"예일여중","은평구","서울특별시 은평구 연서로 117","37.61000443","126.9163971","2016-09-02","10","","LCD"
"671",933,"LG서비스 역촌점","은평구","서울특별시 은평구 서오릉로 163","37.61248398","126.9148789","2016-09-02","10","","LCD"
"672",934,"신사동 성당","은평구","서울특별시 은평구 신사동 41-3","37.59714127","126.9095993","2017-11-01","15","","LCD"
"673",937,"상림마을 롯데캐슬2단지 옆","은평구","서울특별시 은평구 진관동 30-23","37.64585114","126.9237976","2017-11-01","15","","LCD"
"674",938,"금암 문화공원","은평구","서울특별시 진관동 44-28 ","37.64468384","126.918457","2017-11-01","15","","LCD"
"675",939,"은평구청 교차로","은평구","서울특별시 응암동 82-31","37.60169983","126.9274216","2017-11-01","15","","LCD"
"676",941,"은평뉴타운 도서관","은평구","서울특별시 진관동 141-27","37.63722229","126.9333038","2017-11-01","11","","LCD"
"677",942,"상림마을 생태공원","은평구","서울특별시 진관동 16-4","37.64408112","126.9292831","2017-11-01","9","","LCD"
"678",943,"은평구청 보건소","은평구","서울특별시 녹번동 84","37.60240173","126.9286499","2017-11-01","10","","LCD"
"679",945,"기자촌 사거리","은평구","서울특별시 은평구 진관동 149-17","37.63414001","126.9323425","2017-11-01","10","","LCD"
"680",946,"독바위역","은평구","서울특별시 은평구 불광로 129","37.61843872","126.9328842","2018-05-30","10","","LCD"
"681",947,"연신내 선일하이츠빌 정류소","은평구","서울특별시 불광동 484-165","37.62266922","126.9199905","2017-11-01","10","","LCD"
"682",948,"디지털미디어 시티역 4번출구","은평구","서울특별시 증산동 239","37.57720184","126.9023514","2017-11-01","10","","LCD"
"683",949,"연신내역 1번 출구","은평구","서울특별시 불광동 487-2","37.61978149","126.9208069","2017-11-01","7","","LCD"
"684",950,"구산역 2번 출구","은평구","서울특별시 역촌동 1-57","37.61077881","126.9173508","2017-11-01","5","","LCD"
"685",952,"서울연신중학교","은평구","서울특별시 불광동 400-4번지","37.62265015","126.9252472","2017-11-01","10","","LCD"
"686",953,"서울연신초등학교","은평구","서울특별시 불광동 73-1번지 ","37.6257782","126.9288178","2017-11-01","10","","LCD"
"687",954,"은평뉴타운구파발9단지","은평구","서울특별시 은평구 진관3로 77","37.64260864","126.9214783","2017-11-28","10","","LCD"
"688",956,"응암시장교차로","은평구","서울특별시 은평구 응암로 248","37.59437561","126.9181595","2017-11-28","9","","LCD"
"689",958,"신한은행 응암동 지점 앞","은평구","응암동 98-69","37.60036087","126.9228134","2018-10-16","13","","LCD"
"690",959,"구파발10단지 인근","은평구","진관동 72-23","37.6436615","126.9145584","2018-10-18","10","","LCD"
"691",960,"구파발역 환승센터","은평구","진관동 67-26","37.63825226","126.9194565","2018-10-18","15","","LCD"
"692",961,"불광역 9번 출구","은평구","불광동 281-109","37.61096954","126.9298096","2018-10-18","8","","LCD"
"693",962,"은평뉴타운 힐데스하임","은평구","진관동 70-4","37.63925934","126.9189072","2018-10-18","10","","LCD"
"694",963,"대호프라자아파트","은평구","은평구 불광동 242-61 ","37.61442947","126.932579","2018-10-16","13","","LCD"
"695",964,"북한산힐스테이트 7차아파트","은평구","은평구 불광동 643-4","37.61654282","126.9251251","2018-10-16","10","","LCD"
"696",965,"서울특별시 은평병원","은평구","은평구 응암동 232-3","37.59347916","126.9231873","2018-10-16","10","","LCD"
"697",966,"서울혁신파크1","은평구"," 은평구 녹번동 5","37.60903168","126.9346771","2018-08-28","10","","LCD"
"698",967,"서울혁신파크2","은평구","은평구 녹번동 5","37.60890961","126.9324188","2018-08-29","13","","LCD"
"699",968,"은평뉴타운 상림마을 13단지","은평구","은평구 진관4로 48-50","37.64208984","126.9294128","2018-10-18","7","","LCD"
"700",969,"은평 지웰테라스","은평구","은평구 진관4로 78-38","37.64385986","126.9318771","2018-12-14","9","","LCD"
"701",971,"역촌 센트레빌 아파트","은평구","은평구 역촌동 221","37.60232925","126.9065476","2018-12-14","10","","LCD"
"702",972,"수색역","은평구","수색로 261","37.58216095","126.894928","2019-06-14","20","","LCD"
"703",973,"제각말푸르지오 5-1단지 아파트","은평구"," 은평구 진관동 144-7 ","37.63734818","126.9358444","2020-04-08","","10","QR"
"704",974,"연신초등학교옆 마을마당","은평구","불광동69","37.62672043","126.9290161","2020-04-09","","10","QR"
"705",975,"백련산 힐스테이트상가앞","은평구","응암동백련산로38상가앞","37.59036255","126.9230118","2020-04-10","","10","QR"
"706",976,"진관고등학교앞","은평구","진관4로26","37.64350891","126.9241028","2020-04-09","","10","QR"
"707",977,"신도중학교앞","은평구","진관1로77-30","37.63310242","126.9315033","2020-04-08","","20","QR"
"708",978,"녹번 힐스테이트상가앞","은평구","통일로610","37.60100937","126.9359283","2020-04-09","","20","QR"
"709",979,"원풍빌라앞","은평구","은평터널로143","37.59186172","126.9060822","2020-04-10","","10","QR"
"710",982,"유니클로 은평점앞","은평구","서오릉로32","37.60412598","126.925087","2020-04-10","","10","QR"
"711",984,"상신초등학교앞 버스정류장","은평구","가좌로316","37.59580994","126.9102631","2020-04-10","","10","QR"
"712",985,"은평온누리약국앞","은평구","은평로170","37.60119247","126.926384","2020-04-10","","10","QR"
"713",989,"응암 꼬꼬닭치킨호프 앞","은평구","가좌로255","37.59181213","126.9148331","2020-04-10","","10","QR"
"714",991,"흥국사 정류장","은평구","은평구 진관동 298-2 ","37.6567688","126.942009","2020-04-06","","10","QR"
"715",992,"북한산입구 정류장","은평구","은평구 진관동 289 ","37.65842819","126.9460602","2020-04-06","","10","QR"
"716",993,"은평뉴타운 온뜨락아파트앞","은평구","통일로972","37.63028717","126.9195633","2020-04-08","","25","QR"
"717",994,"북한산생태공원입구(교통섬)","은평구","불광동638-6","37.61050797","126.9385376","2020-04-09","","15","QR"
"718",995,"은평다목적체육관","은평구","진관1로40","37.63140869","126.9254074","2020-04-08","","15","QR"
"719",996,"응암역 1번출구","은평구","응암동471-6","37.59860611","126.9154053","2020-04-10","","10","QR"
"720",1001,"광진교 남단 사거리(디지털프라자앞)","강동구","서울특별시 강동구 구천면로 171","37.54179382","127.1247482","2017-04-19","14","","LCD"
"721",1002,"해공공원(천호동)","강동구","서울특별시 강동구 올림픽로 702","37.54526138","127.125946","2017-04-19","10","","LCD"
"722",1003,"해공도서관앞","강동구","서울특별시 강동구 올림픽로 702","37.54395676","127.1254883","2017-04-19","20","","LCD"
"723",1004,"삼성광나루아파트 버스정류장","강동구","서울특별시 강동구 상암로3길 77","37.55332947","127.1288681","2017-04-19","10","","LCD"
"724",1006,"롯데캐슬 115동앞","강동구","서울특별시 강동구 양재대로 1665","37.55486679","127.1427994","2017-04-19","15","","LCD"
"725",1007,"암사동 선사유적지","강동구","서울특별시 강동구 올림픽로 875","37.55955887","127.1308746","2017-04-19","16","","LCD"
"726",1008,"암사역 3번출구(국민은행앞)","강동구","서울특별시 강동구 올림픽로 지하 776","37.54957581","127.127182","2017-04-19","10","","LCD"
"727",1009,"천호역4번출구(현대백화점)","강동구","서울특별시 강동구 천호대로 지하 997","37.53866577","127.1242447","2017-04-19","20","","LCD"
"728",1010,"강동세무서","강동구","서울특별시 강동구 천호대로 1139","37.53450775","127.1384049","2017-04-19","20","","LCD"
"729",1011,"LIGA 아파트 앞","강동구","서울특별시 강동구 천호대로 1120","37.53474426","127.1352844","2017-04-19","20","","LCD"
"730",1012,"서울 상운차량","강동구","서울특별시 강동구 올림픽로 610","37.53600693","127.1227264","2017-04-19","15","","LCD"
"731",1013,"강동구청역 1번 출입구","강동구","서울특별시 강동구 올림픽로 지하 550","37.53071594","127.1209869","2017-04-19","15","","LCD"
"732",1014,"강동구평생학습관앞","강동구","서울특별시 강동구 고덕로 295","37.55080032","127.142952","2017-04-19","15","","LCD"
"733",1015,"샛마을 근린공원","강동구","서울특별시 강동구 구천면로 431-2","37.55003738","127.1469116","2017-04-19","13","","LCD"
"734",1016,"해뜨는 주유소옆 리엔파크 109동앞","강동구","서울특별시 강동구 상일로 152","37.55939865","127.1711807","2017-04-19","10","","LCD"
"735",1017,"맥도날드(길동)","강동구","서울특별시 강동구 천호대로 1207","37.53544617","127.1451874","2017-04-19","20","","LCD"
"736",1018,"둔촌 주공 GS 맞은편","강동구","서울특별시 강동구 양재대로 1330","37.52458954","127.1354218","2020-09-24","","20","QR"
"737",1019,"다성이즈빌아파트(호원대 대각선 맞은편)","강동구","서울특별시 강동구 성내로 91","37.52679443","127.1300583","2017-04-19","10","","LCD"
"738",1020,"강동경찰서","강동구","서울특별시 강동구 성내로 57","37.52825165","127.1268005","2017-04-19","15","","LCD"
"739",1021,"강일동 리슈빌 빌딩앞","강동구","서울특별시 강동구 아리수로 419","37.56427383","127.1739731","2017-04-19","15","","LCD"
"740",1022,"길동 사거리(초소앞)","강동구","서울특별시 강동구 양재대로 1441","37.53377914","127.1379929","2017-04-19","20","","LCD"
"741",1023,"한국종합기술사옥 앞","강동구","서울특별시 강동구 상일동 504 ","37.54998398","127.1747055","2017-11-01","15","","LCD"
"742",1024,"강동구청 앞","강동구","서울특별시 성내동 546-3 ","37.52929688","127.1231537","2017-11-01","10","","LCD"
"743",1025,"상일초등학교","강동구","서울특별시  상일동 440-3","37.54684067","127.1725159","2017-11-01","10","","LCD"
"744",1026,"대명초교 입구 교차로","강동구","서울특별시 명일동 59","37.54653549","127.155838","2017-11-01","14","","LCD"
"745",1027,"프라자 아파트 앞","강동구","서울특별시 길동 176-3","37.53596115","127.1478195","2017-11-01","20","","LCD"
"746",1028,"포레스 주상복합 빌딩","강동구","서울특별시 성내동 119-2","37.53310776","127.1227722","2017-11-01","10","","LCD"
"747",1029,"롯데 시네마","강동구","서울특별시 성내동  44-1","37.53655624","127.1255341","2017-11-01","10","","LCD"
"748",1030,"미호 플랜트 앞","강동구","서울특별시 성내동 478","37.52703094","127.1220627","2017-11-01","15","","LCD"
"749",1031,"암사동 CBIS","강동구","서울특별시 암사동 440-13","37.55582047","127.1299133","2017-11-01","15","","LCD"
"750",1032,"선사고등학교","강동구","서울특별시 암사동 445","37.55672836","127.136261","2017-11-01","20","","LCD"
"751",1033,"고덕동 아남아파트","강동구","서울특별시 고덕동 673","37.5580101","127.1447525","2017-11-01","10","","LCD"
"752",1034,"고덕동 래미안 힐스테이트","강동구","서울특별시 고덕동 603","37.5618782","127.1507874","2017-11-01","15","","LCD"
"753",1035,"고덕역 4번출구","강동구","서울특별시 명일동 46-5","37.55509567","127.1552811","2017-11-01","20","","LCD"
"754",1036,"고덕동 주양쇼핑","강동구","서울특별시 명일동 48-2","37.55199051","127.1533127","2017-11-01","10","","LCD"
"755",1037,"강일리버파크 6단지","강동구","서울특별시 강일동 448-2","37.56256485","127.1776123","2017-11-01","10","","LCD"
"756",1038,"강일 다솜 어린이 공원","강동구","서울특별시 강일동 333-2","37.56863785","127.1748047","2017-11-01","10","","LCD"
"757",1039,"고덕초등학교","강동구","서울특별시 고덕동 215","37.56129837","127.1678467","2017-11-01","7","","LCD"
"758",1041,"묘곡초등학교","강동구","서울특별시 고덕동 499-2","37.55916214","127.1533203","2017-11-01","10","","LCD"
"759",1042,"강일리버파크 2~5단지","강동구","서울특별시 강일동 63-20","37.5685463","127.1770096","2017-11-01","10","","LCD"
"760",1044,"굽은다리역","강동구","서울특별시  양재대로 1572","37.54540634","127.1426773","2017-11-01","15","","LCD"
"761",1047,"건강보험 강동지사kt","강동구","서울특별시 강동구 천호대로175길 39","37.53647232","127.1371536","2018-01-16","10","","LCD"
"762",1048,"동부기업(둔촌동)","강동구","서울특별시 강동구 진황도로 172","37.53099442","127.1423721","2018-01-16","10","","LCD"
"763",1049,"강일리버파크 10단지","강동구","서울특별시 강동구 고덕로97길 20","37.561203","127.1802673","2018-01-16","10","","LCD"
"764",1050,"둔촌역 3번 출입구","강동구","서울특별시 강동구 양재대로 1355","37.52678299","127.1355743","2018-02-26","15","","LCD"
"765",1051,"양지시장 (용성약국앞) 입구","강동구","서울특별시 강동구 고덕로 109","37.55483627","127.1373215","2018-02-26","15","","LCD"
"766",1052,"리싸이클시티","강동구","강동구 동남로 930","37.55644989","127.1568222","2018-09-03","10","","LCD"
"767",1053,"동명근린공원 진입로 (아리수로)","강동구","고덕동 230","37.56254578","127.1644821","2018-09-03","8","","LCD"
"768",1054,"말우물 어린이 공원","강동구","상일로 27길 14-7","37.56002808","127.1696777","2018-09-03","10","","LCD"
"769",1056,"강일리버파크 7~11단지","강동구","강일동 435-2","37.56335449","127.1790543","2018-09-07","10","","LCD"
"770",1057,"능골근린공원","강동구","상일동 482","37.55580902","127.1737442","2018-09-10","15","","LCD"
"771",1058,"고덕숲 아이파크 1","강동구","상일동 133","37.55348206","127.1650543","2018-09-10","12","","LCD"
"772",1059,"래미안 강동팰리스(102동)","강동구","강동구 천호동 166-56","37.53822708","127.1317444","2018-10-25","15","","LCD"
"773",1060,"천일초교 사거리","강동구","강동구 천호동 217-18","37.5446701","127.1326752","2018-09-11","8","","LCD"
"774",1061,"천호초교 입구 사거리(일주빌딩)","강동구"," 강동구 천호동 234-2","37.54689789","127.1346664","2018-09-10","10","","LCD"
"775",1062,"고덕숲 아이파크 2","강동구","강동구 상일동 163","37.5510788","127.1625977","2018-09-10","15","","LCD"
"776",1063,"강동롯데캐슬퍼스트 아파트(관리동)","강동구","강동구 고덕로 131","37.55666351","127.1427383","2020-01-13","","15","QR"
"777",1064,"중앙보훈병원역 1번출구","강동구","둔촌동 산17-4 ","37.52779388","127.147644","2020-01-09","","15","QR"
"778",1065,"보훈병원 정문옆(중앙대영약국)","강동구","동남로 635","37.53120804","127.1492691","2020-01-09","","20","QR"
"779",1066,"생태공원앞 교차로(조명탑)","강동구","강동구 둔촌동 564","37.5377655","127.1520157","2020-01-09","","20","QR"
"780",1067,"한영중고앞사거리","강동구"," 명일동 59 ","37.54903412","127.1560516","2020-01-15","","20","QR"
"781",1068,"명일파출소","강동구","동남로 895","37.5536499","127.1562271","2020-01-14","","20","QR"
"782",1069,"강동경희대학교병원 입구","강동구","동남로 892","37.55305481","127.1568832","2020-01-15","","15","QR"
"783",1070,"(시립)고덕평생학습관","강동구","고덕로 295","37.55570221","127.1579208","2020-01-14","","10","QR"
"784",1071,"명일근린공원공동체텃밭","강동구","상일동 145-6","37.55568695","127.1599121","2020-01-13","","15","QR"
"785",1072,"고덕역 5번출구","강동구","5호선 고덕역 5번출구 뒤","37.55486298","127.1537247","2020-01-13","","10","QR"
"786",1073,"SSTS 몰 앞","강동구","양재대로 1517","37.54114532","127.1410523","2020-01-10","","10","QR"
"787",1074,"대명초교입구 사거리","강동구","명일동 59 ","37.54683685","127.1491623","2020-01-10","","15","QR"
"788",1075,"천동초교 삼거리","강동구","천호동 114-2 (정자 쉼터)","37.54136276","127.1371841","2020-01-10","","10","QR"
"789",1076,"전자랜드 길동점","강동구","양재대로 1504","37.5398941","127.141037","2020-01-10","","10","QR"
"790",1077,"강동역 1번출구 앞","강동구","천호동 571-2 ","37.53620529","127.1325607","2020-01-09","","15","QR"
"791",1078,"둔촌사거리","강동구","성내동 449-22 ","37.52197647","127.1336212","2020-01-14","","20","QR"
"792",1079,"강일동입구교차로","강동구","강일동 607-7","37.56184387","127.170845","2020-01-13","","15","QR"
"793",1080,"엘웨딩","강동구","천호대로 1052","37.5368309","127.128418","2020-01-09","","10","QR"
"794",1081,"트레빌빌딩","강동구","천호동451-20","37.53699875","127.1295319","2020-01-09","","20","QR"
"795",1082,"중앙보훈병원역3번출구","강동구","둔촌동6-14","37.52956009","127.1490097","2020-01-10","","13","QR"
"796",1083,"광문고교사거리(아이파크)","강동구","고덕동302","37.56036758","127.1565933","2020-01-13","","15","QR"
"797",1084,"윤선생빌딩(JYP사옥)","강동구","강남대로207(윤선생빌딩)","37.5239296","127.1291275","2020-01-08","","15","QR"
"798",1085,"래미안 솔베뉴(고덕로)","강동구","양재대로1650","37.55456924","127.145874","2020-01-13","","20","QR"
"799",1086,"래미안 솔베뉴(구천면로)","강동구","양재대로1650","37.55059814","127.1454544","2020-01-10","","10","QR"
"800",1088,"풍납사거리(강동)","강동구","성내동451-3","37.52812195","127.1195221","2020-01-14","","12","QR"
"801",1089,"고덕 래미안힐스테이트(201동)","강동구","고덕동 675","37.56060028","127.146698","2020-01-13","","10","QR"
"802",1090,"상일동역 2번출구 앞","강동구","고덕로 333","37.5567894","127.1661453","2020-01-13","","10","QR"
"803",1101,"개화동상사마을종점 버스정류장","강서구","서울특별시 강서구 개화동로5길 3-8","37.58161163","126.7985992","2017-04-24","10","","LCD"
"804",1102,"방화사거리 마을버스 버스정류장","강서구","서울특별시 강서구 양천로17길 6","37.57364273","126.8118057","2017-04-24","10","","LCD"
"805",1103,"방화역 4번출구앞","강서구","서울특별시 강서구 금낭화로 135","37.57722092","126.8121948","2017-06-22","10","","LCD"
"806",1105,"방화근린공원","강서구","서울특별시 강서구 금낭화로 176","37.58162308","126.8126526","2017-04-24","10","","LCD"
"807",1106,"신방화사거리","강서구","서울특별시 강서구 방화대로 342","37.57303238","126.816452","2021-02-16","","10","QR"
"808",1108,"공항시장역 2번출구 뒤","강서구","서울특별시 강서구 방화동로 지하 30","37.56387329","126.8106079","2017-04-24","9","","LCD"
"809",1109,"공항시장역 4번출구","강서구","서울특별시 강서구 방화동로 지하 30","37.56334686","126.8104858","2017-04-24","6","","LCD"
"810",1110,"공항중학교앞","강서구","서울특별시 강서구 방화대로 241","37.56268311","126.8162384","2017-06-20","10","","LCD"
"811",1111,"마곡엠밸리6_7단지 마곡중학교","강서구","서울특별시 강서구 마곡중앙5로 58","37.56698227","126.8218002","2017-04-24","15","","LCD"
"812",1112,"마곡엠밸리4단지 정문","강서구","서울특별시 강서구 마곡서로 175","37.56857681","126.8247757","2017-04-24","15","","LCD"
"813",1113,"서남환경공원 버스정류장","강서구","서울특별시 강서구 양천로 201","37.57303619","126.8231201","2017-04-24","15","","LCD"
"814",1115,"등촌역 1번출구옆","강서구","서울특별시 강서구 공항대로59길 8","37.55166626","126.86409","2017-06-22","10","","LCD"
"815",1117,"스타벅스앞","강서구","서울특별시 강서구 공항대로 329","37.55819702","126.8442612","2017-06-22","10","","LCD"
"816",1118,"증미역 3번출구뒤(등촌두산위브센티움오피스텔)","강서구","서울특별시 강서구 양천로 지하 560","37.55746078","126.8614578","2017-04-24","10","","LCD"
"817",1119,"염창동 한마음아파트앞(염창동 빛나는 음악학원앞)","강서구","서울특별시 강서구 양천로 637","37.55425262","126.8675613","2017-04-24","6","","LCD"
"818",1120,"대림경동아파트앞","강서구","서울특별시 강서구 허준로 121","37.564785","126.8546448","2017-04-24","25","","LCD"
"819",1121,"가양레포츠센터앞","강서구","서울특별시 강서구 양천로61길 101","37.55947876","126.8643799","2017-04-24","15","","LCD"
"820",1122,"황금내근린공원","강서구","서울특별시 강서구 허준로 221-40","37.56193161","126.8638687","2017-04-24","10","","LCD"
"821",1124,"발산역 6번 출구 뒤","강서구","서울특별시 강서구 공항대로 280","37.55817795","126.8384552","2020-12-11","","11","QR"
"822",1125,"명덕고교입구(영종빌딩)","강서구","서울특별시 강서구 강서로 304","37.55291367","126.8365707","2017-06-22","10","","LCD"
"823",1126,"우장산역 1번출구옆(우장산아이파크105동앞)","강서구","서울특별시 강서구 강서로 지하 262","37.54890823","126.8365631","2017-04-24","7","","LCD"
"824",1127,"화곡역(에이스정형외과앞) 버스정류장","강서구","서울특별시 강서구 화곡로 157","37.54098129","126.8385468","2017-04-24","10","","LCD"
"825",1128,"화곡역 6번출구","강서구","서울특별시 강서구 화곡로 지하 168","37.54141235","126.8402252","2017-06-20","10","","LCD"
"826",1129,"화곡역 1번 출구 앞","강서구","서울특별시 강서구 화곡로 지하 168","37.542099","126.8402176","2017-04-24","10","","LCD"
"827",1130,"화곡본동시장 버스정류장","강서구","서울특별시 강서구 화곡로 196","37.54275131","126.8426209","2017-04-24","7","","LCD"
"828",1131,"꿈돌이공원 앞","강서구","서울특별시 강서구 화곡로 232","37.54644394","126.845459","2017-04-24","8","","LCD"
"829",1132,"등촌역 7번출구","강서구","서울특별시 강서구 공항대로 지하 529","37.55110931","126.8637085","2017-04-24","10","","LCD"
"830",1135,"강서구의회","강서구","서울특별시 강서구 등촌로 185","37.54653168","126.8625488","2017-04-24","10","","LCD"
"831",1136,"등촌2파출소","강서구","서울특별시 강서구 등촌로 167","37.54478836","126.8619995","2017-04-24","10","","LCD"
"832",1137,"등촌2동주민센터","강서구","서울특별시 강서구 등촌로 143","37.54143143","126.8632202","2017-04-24","10","","LCD"
"833",1139,"용문사 버스정류장","강서구","서울특별시 강서구 등촌로 95","37.53650665","126.8633347","2017-04-24","8","","LCD"
"834",1140,"목동사거리 버스정류장","강서구","서울특별시 강서구 등촌로 19","37.53139877","126.8636093","2017-04-24","15","","LCD"
"835",1141,"곰달래 문화복지센터 1-1","강서구","서울특별시 강서구 강서로5길 50","37.52906036","126.8484802","2017-04-24","10","","LCD"
"836",1145,"곰달래 문화복지센터 1-2","강서구","서울특별시 강서구 강서로5길 50","37.52891922","126.8480835","2017-04-24","10","","LCD"
"837",1146,"곰달래사거리","강서구","서울특별시 강서구 곰달래로 51","37.53033829","126.8382568","2017-04-24","","10","QR"
"838",1148,"볏골공원","강서구","서울특별시 강서구 까치산로4길 22","37.54146957","126.84478","2017-04-24","10","","LCD"
"839",1149,"신방화역환승주차장","강서구","서울특별시 강서구 마곡서1로 111-12","37.56728363","126.8182755","2017-08-31","13","","LCD"
"840",1150,"송정역 1번출구","강서구","서울특별시 강서구 공항대로3길 18","37.56153107","126.8106995","2017-11-01","10","","LCD"
"841",1151,"마곡역1번출구","강서구","서울특별시 강서구 마곡동 727-716","37.56020737","126.8241425","2017-11-01","25","","LCD"
"842",1152,"마곡역교차로","강서구","서울특별시 강서구 마곡동 728-168","37.55831146","126.8265228","2017-11-01","10","","LCD"
"843",1153,"발산역 1번, 9번 인근 대여소","강서구","서울특별시 강서구 공항대로 281","37.55894852","126.8371735","2017-11-01","10","","LCD"
"844",1155,"기쁜우리복지관","강서구","서울특별시 강서구 가양동 1458-15 ","37.56925964","126.8484192","2017-11-01","10","","LCD"
"845",1157,"강서구청","강서구","서울특별시 강서구 화곡로 302","37.55065918","126.8497696","2017-11-01","8","","LCD"
"846",1158,"가양역 8번출구","강서구","서울특별시 강서구 양천로 지하 485","37.56103516","126.8548126","2017-11-28","20","","LCD"
"847",1159,"서서울모터리움앞","강서구","서울특별시 강서구 양천로53길 30","37.56585312","126.8465958","2017-11-28","20","","LCD"
"848",1160,"양천향교역 7번출구앞","강서구","서울특별시 강서구 양천로 지하 341","37.56768036","126.8408966","2020-12-31","","20","QR"
"849",1161,"강서면허시험장앞","강서구","서울특별시 강서구 남부순환로 171","37.54969406","126.819664","2017-11-28","10","","LCD"
"850",1162,"공항초등학교건너편","강서구","서울특별시 강서구 마곡서1로 68","37.56267929","126.8204727","2017-11-28","10","","LCD"
"851",1163,"방화동강서기동대앞","강서구","서울특별시 강서구 방화대로34길 65","37.57049942","126.8200836","2017-11-28","10","","LCD"
"852",1165,"마곡중학교 후문","강서구","서울특별시 강서구 마곡중앙5로 58","37.56844711","126.8216476","2017-12-08","20","","LCD"
"853",1166,"강서구립등빛도서관","강서구","서울특별시 강서구 강서로62길 48","37.56256866","126.8424606","2017-12-22","10","","LCD"
"854",1167,"마곡수명산파크3단지 교차로","강서구","서울특별시 강서구 수명로 72","37.55350876","126.8258667","2017-12-22","15","","LCD"
"855",1168,"마곡엠밸리10단지 앞","강서구","서울특별시 강서구 마곡중앙1로 72","37.56022644","126.8190689","2018-02-26","10","","LCD"
"856",1169,"염창역 1번 출구","강서구","강서구 공항대로 625","37.54719925","126.8744888","2018-10-04","8","","LCD"
"857",1170,"강서구보건소 (삼성디지털 프라자)","강서구","강서구 공항대로 571 ","37.54917908","126.8687973","2018-10-04","11","","LCD"
"858",1171,"염창동 새마을금고 건너편 (모닝글로리)","강서구","강서구 양천로 696","37.55004883","126.8731613","2018-10-04","8","","LCD"
"859",1172,"가양3동 주민센터","강서구","강서구 허준로 202","37.56124878","126.8605804","2018-10-04","8","","LCD"
"860",1173,"강서구청사거리(SH타워)","강서구","강서구 공항대로 411 ","37.55625916","126.8533173","2018-10-04","15","","LCD"
"861",1174,"강서구청사거리(부민병원)","강서구","강서구 공항대로 395 ","37.55659866","126.851471","2018-10-04","9","","LCD"
"862",1175,"대한항공 인력개발센터","강서구","강서구 공항대로 453 ","37.55437851","126.8575363","2018-10-04","15","","LCD"
"863",1177,"수명중?고교","강서구","강서구 수명로1길 16, 401동 앞","37.55010986","126.8236771","2018-10-04","10","","LCD"
"864",1178,"개화산역 2번 출구","강서구","강서구 양천로 22","37.57247162","126.8061676","2018-10-10","10","","LCD"
"865",1180,"마곡엠밸리 15단지(1502동) 건너편","강서구","강서구 마곡중앙로 36","37.55746841","126.8297195","2018-10-04","15","","LCD"
"866",1181,"농수산식품공사 (강서지사)","강서구","강서구 발산로 40","37.55104446","126.8184967","2018-10-10","10","","LCD"
"867",1182,"KBS 스포츠월드","강서구","강서구 공항대로 376","37.55687714","126.8488083","2018-10-10","20","","LCD"
"868",1183,"KC 대학교","강서구","강서구 까치산로 24길 47","37.54832077","126.8534012","2018-10-30","10","","LCD"
"869",1184,"마곡13단지","강서구","강서구 공항동 1343","37.55644989","126.815979","2018-10-10","15","","LCD"
"870",1185,"등촌9단지","강서구","강서구 화곡로 63가길 92 (등촌동 704)","37.56290054","126.8494721","2018-10-10","10","","LCD"
"871",1186,"송정중학교","강서구","강서구 공항동 1342","37.55472946","126.8160934","2018-10-10","10","","LCD"
"872",1187,"강서수산물도매시장","강서구","강서구 외발산동 424","37.55302048","126.818367","2018-12-14","15","","LCD"
"873",1188,"롯데중앙연구소","강서구","강서구 마곡동 301-3","37.57138062","126.8283386","2018-11-20","8","","LCD"
"874",1190,"마곡역 교차로(2번출구)","강서구","강서구 마곡동 727-747 ","37.5605011","126.8266525","2018-11-20","10","","LCD"
"875",1191,"마곡역 교차로(NH농협)","강서구","강서구 마곡동 727-925","37.5602417","126.8271637","2018-11-20","9","","LCD"
"876",1192,"마곡수명산파크 209동 건너편","강서구","강서구 내발산동 741-8","37.55553818","126.8267593","2018-11-26","10","","LCD"
"877",1193,"마곡센트럴타워 1차","강서구","강서구 마곡동 727-1136","37.55947113","126.832077","2018-11-20","15","","LCD"
"878",1194,"센서텍㈜","강서구","강서구 마곡동 727-457","37.56330109","126.8368225","2018-11-20","10","","LCD"
"879",1195,"코오롱One&Only타워","강서구","강서구 마곡동 727-525","37.56412888","126.8343124","2018-11-20","20","","LCD"
"880",1196,"서울식물원(문화센터) 건너편","강서구","강서구 마곡동 727-286","37.56824112","126.8358307","2021-02-05","","15","QR"
"881",1197,"엠펠리체 호텔 건너편","강서구","강서구 마곡동 727-1187","37.5602417","126.8358078","2018-11-20","20","","LCD"
"882",1198,"LG 사이언스파크","강서구","강서구 마곡동 727-925","37.56254959","126.8274384","2018-11-20","20","","LCD"
"883",1199,"우장산역 3번출구","강서구","강서구 화곡동 1006-2","37.54782104","126.8361282","2018-12-04","13","","LCD"
"884",1200,"개화광역환승센터","강서구","강서구 개화동 492-22","37.57844925","126.7989731","2018-12-14","10","","LCD"
"885",1201,"가락시장역 3번 출구","송파구","서울특별시 송파구 송파대로 지하 257","37.49317932","127.1185455","2017-06-22","10","","LCD"
"886",1203,"밀리아나2빌딩 앞","송파구","서울특별시 송파구 송파대로28길 24","37.49372864","127.1206207","2017-05-26","20","","LCD"
"887",1204,"거여역 3번출구","송파구","서울특별시 송파구 오금로 지하 499","37.49334335","127.1447296","2017-06-28","10","","LCD"
"888",1205,"종합운동장역 4번출구","송파구","서울특별시 송파구 올림픽로 8","37.51042938","127.071373","2017-04-24","15","","LCD"
"889",1206,"9호선종합운동장역 9번출구","송파구","서울특별시 송파구 올림픽로 지하 23","37.51128006","127.0782394","2017-04-24","20","","LCD"
"890",1207,"마천CU우방점 앞","송파구","서울특별시 송파구 성내천로 233","37.49975586","127.152504","2017-05-26","10","","LCD"
"891",1208,"풍납현대아파트쉼터","송파구","서울특별시 송파구 풍성로14길 19","37.52974701","127.1199646","2017-04-24","20","","LCD"
"892",1209,"잠실나루역 (2번 출구 쪽)","송파구","서울특별시 송파구 오금로 20","37.52045059","127.1042023","2017-04-24","20","","LCD"
"893",1210,"롯데월드타워(잠실역2번출구 쪽)","송파구","서울특별시 송파구 올림픽로 293-19","37.51312637","127.1009598","2017-06-27","30","","LCD"
"894",1211,"방이삼거리","송파구","서울특별시 송파구 석촌호수로 298","37.51210403","127.1077805","2017-05-26","7","","LCD"
"895",1212,"송파역 2번 출구앞","송파구","서울특별시 송파구 송파대로 지하 354","37.49941254","127.1128693","2017-06-22","10","","LCD"
"896",1213,"백토공원 앞","송파구","서울특별시 송파구 양재대로72길 47-8","37.50831985","127.1332169","2017-04-24","20","","LCD"
"897",1214,"오금역 7번 출구 인근","송파구","서울특별시 송파구 오금로 지하 321","37.50259399","127.1276474","2017-05-26","10","","LCD"
"898",1215,"올림픽공원역 1번출구 앞","송파구","서울특별시 송파구 양재대로 지하 1233","37.51657104","127.1315384","2017-04-24","15","","LCD"
"899",1217,"송파파인타운 7단지","송파구","서울특별시 송파구 충민로4길 19","37.47930527","127.1297989","2017-04-24","15","","LCD"
"900",1218,"방이역 4번출구","송파구","서울특별시 송파구 양재대로 지하 1127","37.50896835","127.1258392","2017-06-27","12","","LCD"
"901",1220,"잠실본동주민센터뒤 잠실근린공원","송파구","서울특별시 송파구 백제고분로15길 7","37.50569153","127.0840378","2017-04-24","15","","LCD"
"902",1221,"삼전사거리 포스코더샵","송파구","서울특별시 송파구 백제고분로 188","37.50419998","127.087532","2017-07-11","10","","LCD"
"903",1222,"잠실새내역 5번 출구 뒤","송파구","서울특별시 송파구 백제고분로 95","37.51198196","127.0850525","2017-04-24","15","","LCD"
"904",1224,"아시아지하보도 2번 출구","송파구","서울특별시 송파구 올림픽로 74","37.51216888","127.0789337","2017-04-24","15","","LCD"
"905",1226,"잠실4동 주민센터 옆","송파구","서울특별시 송파구 올림픽로35길 16","37.52007675","127.1123657","2017-06-27","10","","LCD"
"906",1227,"거여역 8번출구 뒤","송파구","서울특별시 송파구 오금로 지하 499","37.49312592","127.1438217","2017-06-27","10","","LCD"
"907",1228,"마천사거리","송파구","서울특별시 송파구 거마로 51","37.49769974","127.1462021","2017-06-27","10","","LCD"
"908",1229,"송파체육문화회관 앞","송파구","서울특별시 송파구 양산로 15","37.49068832","127.1431274","2017-04-24","15","","LCD"
"909",1230,"송파중학교 정문","송파구","서울특별시 송파구 동남로 203","37.49567032","127.1305924","2017-06-27","10","","LCD"
"910",1231,"잠실역 6번출구","송파구","서울특별시 송파구 석촌호수로12길 3-5","37.51408768","127.0990295","2017-06-22","10","","LCD"
"911",1232,"롯데마트 주차장 옆","송파구","서울특별시 송파구 석촌호수로12길 3-19","37.51208878","127.0961914","2017-06-22","10","","LCD"
"912",1233,"잠실3거리(갤러리아팰리스)","송파구","서울특별시 송파구 석촌호수로12길 3-17","37.51050949","127.0933685","2017-04-24","9","","LCD"
"913",1235,"잠실트리지움310동 옆","송파구","서울특별시 송파구 잠실로 62","37.50887299","127.0871658","2017-04-24","14","","LCD"
"914",1239,"문정 법조단지3","송파구","서울특별시 송파구 정의로 30","37.48084259","127.1180115","2017-06-27","20","","LCD"
"915",1240,"문정 법조단지4","송파구","서울특별시 송파구 새말로 62","37.48057556","127.1185684","2017-06-27","10","","LCD"
"916",1241,"문정 법조단지5","송파구","서울특별시 송파구 새말로 62","37.48123932","127.1197968","2017-06-27","15","","LCD"
"917",1242,"문정 법조단지6","송파구","서울특별시 송파구 법원로 101","37.48209","127.1197434","2017-06-27","15","","LCD"
"918",1243,"문정 법조단지7","송파구","서울특별시 송파구 법원로 101","37.4845314","127.120163","2017-06-27","20","","LCD"
"919",1244,"문정 법조단지8","송파구","서울특별시 송파구 법원로 101","37.48153687","127.1221237","2017-06-27","7","","LCD"
"920",1245,"문정 법조단지9","송파구","서울특별시 송파구 법원로 101","37.47946548","127.1253281","2017-06-27","10","","LCD"
"921",1246,"문정 법조단지10","송파구","서울특별시 송파구 송파대로 지하 82","37.47750854","127.1263275","2017-06-27","30","","LCD"
"922",1247,"문정 법조단지11","송파구","서울특별시 송파구 법원로 101","37.4788208","127.1235123","2017-06-27","15","","LCD"
"923",1248,"방이초등학교","송파구","서울특별시 송파구 위례성대로 114","37.51396179","127.1216736","2017-06-27","20","","LCD"
"924",1249,"아주중학교건너편","송파구","서울특별시 송파구 도곡로 446","37.50546265","127.0773468","2017-06-27","10","","LCD"
"925",1250,"문정2동 주민센터","송파구","서울특별시 송파구 중대로 16","37.48987198","127.1108398","2017-10-18","10","","LCD"
"926",1251,"석촌역 2번출구","송파구","서울특별시 송파구 송파동 68 ","37.50593185","127.1077499","2017-11-01","10","","LCD"
"927",1253,"오금역 3번 출구 뒤","송파구","서울특별시  송파구 가락동 10-15 ","37.50165176","127.1281815","2017-11-01","10","","LCD"
"928",1256,"문정현대아파트 교차로","송파구","서울특별시 송파구 문정동 3-2 ","37.49113083","127.1258087","2017-11-01","8","","LCD"
"929",1257,"가락시장역 롯데마트앞","송파구","서울특별시 송파구 가락동 214-15 ","37.49209976","127.1177521","2017-11-01","20","","LCD"
"930",1258,"가락미륭아파트 앞","송파구","서울특별시 서울 송파구 가락동 195-4","37.49319839","127.1289978","2017-11-01","10","","LCD"
"931",1259,"방이역 1번출구","송파구","서울특별시 송파구 오금동 17-20","37.50898361","127.1265945","2017-11-01","15","","LCD"
"932",1260,"방이동 한양3차아파트 옆","송파구","서울특별시 송파구 방이동 225-1","37.50630188","127.1213989","2017-11-01","8","","LCD"
"933",1262,"송파여성문화회관 앞","송파구","서울특별시 송파구 송파동 2-3 ","37.50580215","127.1097183","2017-11-01","10","","LCD"
"934",1263,"장지공영차고지","송파구","서울특별시 송파구 장지동 861-6","37.48054123","127.1370163","2017-11-01","10","","LCD"
"935",1264,"천호역 10번 출구 앞","송파구","서울특별시 송파구 풍납동 490-16","37.53858185","127.1228027","2017-11-01","8","","LCD"
"936",1265,"문정동 근린공원","송파구","서울특별시 송파구 문정동 38-3","37.48598862","127.1247635","2017-11-01","10","","LCD"
"937",1266,"문정동 글샘 공원","송파구","서울특별시 송파구 문정동 627","37.47880936","127.1200028","2017-11-01","10","","LCD"
"938",1267,"올림픽공원 남2문 앞","송파구","서울특별시 송파구 올림픽로 424","37.51424026","127.1230698","2020-06-25","","15","QR"
"939",1268,"몽촌토성역 1번출구 옆","송파구","서울특별시 송파구 방이동 88-21 ","37.51728821","127.1141968","2020-06-25","","15","QR"
"940",1269,"리센츠아파트","송파구","서울특별시 송파구 올림픽로 135","37.51194382","127.091217","2017-11-01","10","","LCD"
"941",1271,"송파도서관","송파구","서울특별시 송파구 동남로 263","37.49998474","127.1353912","2017-11-01","15","","LCD"
"942",1274,"영파여고 앞","송파구","서울특별시 송파구 올림픽로 565","37.53284836","127.121048","2017-11-01","20","","LCD"
"943",1275,"거여초등학교 옆","송파구","서울특별시 송파구 마천로25길 18","37.50458908","127.1393662","2017-12-22","15","","LCD"
"944",1277,"오금동 송파 참병원","송파구","서울특별시 송파구 마천로 164","37.50375748","127.1370926","2018-02-26","8","","LCD"
"945",1278,"송파구청 교차로","송파구","서울특별시 송파구 올림픽로 336","37.51579666","127.1068192","2018-02-26","10","","LCD"
"946",1279,"마천금호어울림 1차아파트 건너편","송파구","서울특별시 송파구 성내천로39길 4","37.49751663","127.1546783","2018-02-26","10","","LCD"
"947",1280,"송파파크데일 2단지입구 앞 주차장","송파구","서울특별시 송파구 성내천로47길 23","37.49565887","127.1571732","2018-02-26","20","","LCD"
"948",1282,"송파소방서 맞은편(성내4교)","송파구","서울특별시 송파구 오금로51길 56","37.49987411","127.1414795","2018-02-26","10","","LCD"
"949",1283,"오금공원 사거리","송파구","서울특별시 송파구 오금로 363","37.50541306","127.131691","2018-02-26","8","","LCD"
"950",1285,"위례별 유치원 뒤","송파구","서울특별시 송파구 위례광장로 136","37.4774704","127.1445923","2018-02-26","15","","LCD"
"951",1286,"위례중앙푸르지오 1단지 앞","송파구","서울특별시 송파구 위례광장로 120","37.47437668","127.1406708","2018-02-26","10","","LCD"
"952",1287,"위례아이파크 101동 맞은편","송파구","서울특별시 송파구 위례순환로 419","37.47753143","127.1415176","2018-02-26","8","","LCD"
"953",1288,"문정중교 사거리","송파구","서울특별시 송파구 송이로 238","37.48799896","127.1310883","2018-02-26","15","","LCD"
"954",1289,"풍납동 자전거보관소","송파구","서울특별시 송파구 토성로 2","37.53147125","127.1110916","2018-02-26","10","","LCD"
"955",1290,"위례송파꿈에그린아파트24단지 앞 성벽 다리 밑","송파구","송파구 위례광장로 121","37.47458267","127.1375427","2018-09-14","10","","LCD"
"956",1291,"서울체육고등학교 앞","송파구","송파구 강동대로 232","37.52193832","127.1318665","2018-09-07","10","","LCD"
"957",1293,"석촌호교차로 (스타벅스 앞)","송파구","송파구 삼전동 152","37.50656128","127.0965576","2018-09-12","10","","LCD"
"958",1295,"잠실역 8번출구","송파구","송파구 신천동 8","37.51396179","127.1003037","2018-09-07","20","","LCD"
"959",1296,"석촌호수교차로 (송파나루근린공원 앞)","송파구","송파구 잠실동 48","37.50867844","127.1034317","2018-11-05","10","","LCD"
"960",1297,"석촌호수교차로(동호 팔각정 앞)","송파구","송파구 잠실동 48","37.50920105","127.1041184","2018-09-07","10","","LCD"
"961",1299,"송파소방서 (방이119안전센터)","송파구","송파구 방이동 89-29 ","37.51987839","127.1367111","2018-09-11","15","","LCD"
"962",1300,"오륜사거리","송파구","송파구 방이동 452-17 ","37.50693893","127.1392212","2018-10-25","15","","LCD"
"963",1302,"한성대입구역6번출구 뒤","성북구","서울특별시 성북구 동소문로 1","37.58876419","127.0063095","2017-06-20","5","","LCD"
"964",1303,"돈암초교 입구","성북구","서울특별시 성북구 동소문로13길 38","37.59169388","127.012497","2017-06-30","10","","LCD"
"965",1304,"만해공원","성북구","서울특별시 성북구 성북로 132-1","37.59440231","126.9923096","2017-06-20","15","","LCD"
"966",1305,"성북구청","성북구","서울특별시 성북구 보문로 168","37.58932877","127.0164337","2017-08-03","15","","LCD"
"967",1306,"한성대입구역2번출구","성북구","서울특별시 성북구 동소문로 2","37.58844757","127.0067062","2017-06-22","10","","LCD"
"968",1308,"안암로터리 버스정류장 앞","성북구","서울특별시 성북구 안암로 69","37.58259201","127.0289764","2017-06-20","18","","LCD"
"969",1314,"정릉꿈에그린1단지 201동 앞","성북구","서울특별시 성북구 아리랑로19길 20","37.60243988","127.0116882","2017-04-26","8","","LCD"
"970",1315,"고려사대부속중고 정문","성북구","서울특별시 성북구 보국문로29길 23","37.60776138","127.0032806","2017-04-26","10","","LCD"
"971",1316,"고려사대부속중고 건너편","성북구","서울특별시 성북구 보국문로29길 23","37.60726166","127.0028381","2017-04-26","20","","LCD"
"972",1318,"길음역 3번출구 뒤","성북구","서울특별시 성북구 동소문로 248","37.60308456","127.0247879","2017-04-26","10","","LCD"
"973",1319,"종암사거리 분수대","성북구","서울특별시 성북구 종암로 147","37.6030426","127.0332718","2021-02-01","","10","QR"
"974",1320,"LG베스트샵 종암점","성북구","서울특별시 성북구 종암로 88","37.59928513","127.0346222","2017-05-02","10","","LCD"
"975",1321,"국민은행 종암동지점 앞","성북구","서울특별시 성북구 종암로3길 37-2","37.59328842","127.0366669","2017-05-11","14","","LCD"
"976",1322,"래미안라센트아파트 103동 앞","성북구","서울특별시 성북구 종암로3길 37-2","37.59806824","127.0392761","2017-04-26","10","","LCD"
"977",1323,"월곡역 입구 육교 밑","성북구","서울특별시 성북구 월곡로 지하 107","37.60043335","127.0402069","2017-04-26","10","","LCD"
"978",1325,"상월곡역 4번출구","성북구","서울특별시 성북구 화랑로 148","37.60580826","127.0477371","2017-04-26","10","","LCD"
"979",1326,"상월곡역 1번출구","성북구","서울특별시 성북구 화랑로 지하 157","37.60606766","127.0473175","2017-04-26","10","","LCD"
"980",1327,"상월곡역 3번출구","성북구","서울특별시 성북구 화랑로 지하 157","37.60734177","127.0506821","2017-04-26","10","","LCD"
"981",1328,"월곡역 3번출구","성북구","서울특별시 성북구 월곡로 지하 107","37.6026268","127.0416336","2017-06-27","10","","LCD"
"982",1332,"석계역 5번출구 건너편","성북구","서울특별시 노원구 화랑로 지하 347-1","37.61355591","127.0660934","2017-04-26","10","","LCD"
"983",1333,"석관초등학교 앞","성북구","서울특별시 성북구 돌곶이로22길 21","37.61052322","127.0597992","2017-04-26","15","","LCD"
"984",1334,"석관동주민센터 앞","성북구","서울특별시 성북구 화랑로 296","37.61299896","127.0613098","2017-04-26","10","","LCD"
"985",1336,"성북3교 위","성북구","서울특별시 성북구 보문로 192","37.59125137","127.0140076","2017-11-13","20","","LCD"
"986",1337,"돈암성당 옆","성북구","서울특별시 성북구 인촌로7길 120","37.59038162","127.0171356","2017-11-13","10","","LCD"
"987",1338,"용문2교 옆","성북구","서울특별시 성북구 인촌로7길 24","37.5868988","127.020752","2017-11-13","15","","LCD"
"988",1339,"삼성전자서비스 성북센터","성북구","서울특별시 성북구 월계로 28","37.610569","127.0335083","2017-11-13","9","","LCD"
"989",1340,"광운초등학교 앞","성북구","서울특별시 성북구 한천로 693","37.61784363","127.0550003","2017-11-13","11","","LCD"
"990",1342,"성북쉼터 앞","성북구","서울특별시 성북구 성북로21길 32","37.59261703","126.9979324","2017-11-13","15","","LCD"
"991",1343,"한성대7번출구 앞","성북구","서울특별시 성북구 동소문로 11","37.58924866","127.0073776","2017-11-13","10","","LCD"
"992",1344,"아리랑시네센터 앞","성북구","서울특별시 성북구 아리랑로 82","37.60028839","127.0137024","2017-11-13","10","","LCD"
"993",1346,"길음8골어린이공원 옆","성북구","서울특별시 성북구 길음로13길 22","37.60897827","127.0202484","2017-11-13","15","","LCD"
"994",1347,"길음래미안아파트817동 상가 앞","성북구","서울특별시 성북구 길음로 33","37.60710526","127.0214996","2017-11-13","20","","LCD"
"995",1348,"성북제일새마을금고 본점 앞","성북구","서울특별시 성북구 길음로 20","37.60475159","127.0227585","2017-11-13","12","","LCD"
"996",1349,"월계2교 버스정류장 앞","성북구","서울특별시 성북구 한천로101길 18","37.62382889","127.0502014","2017-11-13","10","","LCD"
"997",1351,"안암2교 옆","성북구","서울특별시 성북구 안암로 17","37.5794487","127.0241928","2017-11-13","8","","LCD"
"998",1352,"e 편한세상 보문아파트 내","성북구","서울특별시 성북구 낙산길 255","37.58388138","127.0170975","2017-11-13","8","","LCD"
"999",1353,"금호어울림센터힐 내","성북구","서울특별시 성북구 동소문로34길 73","37.60083008","127.0235519","2017-11-13","8","","LCD"
"1000",1354,"고려대학교 2번출구","성북구","서울특별시 성북구 종암로 지하 1","37.5907135","127.0361939","2017-11-28","18","","LCD"
"1001",1355,"보문2교","성북구","서울특별시 성북구 보문로30길 29","37.58869934","127.0189133","2017-12-22","20","","LCD"
"1002",1357,"북한산보국문역","성북구","서울특별시 성북구 보국문로 91","37.61207199","127.0081329","2018-02-26","20","","LCD"
"1003",1358,"정릉도서관 앞","성북구","서울특별시 성북구 보국문로 7-10","37.60478973","127.010582","2018-02-26","7","","LCD"
"1004",1359,"장위뉴타운 꿈에 숲 코오롱 하늘채 앞","성북구","서울특별시 성북구 월계로 172","37.61980057","127.0450974","2018-02-26","20","","LCD"
"1005",1360,"정릉역","성북구","서울특별시 성북구 정릉로 272","37.60309601","127.013504","2018-02-26","10","","LCD"
"1006",1361,"홍익중고 입구","성북구","서울특별시 성북구 성북로14가길 23","37.5928421","127.002121","2018-02-26","20","","LCD"
"1007",1362,"보문역6번출구 앞","성북구","보문로 12","37.58519745","127.0196686","2021-05-03","","10","QR"
"1008",1363,"보문4교 인근","성북구","성북구 안암동3가 86-1","37.58375168","127.0219498","2018-11-04","15","","LCD"
"1009",1364,"성북동 치안센터 앞","성북구","성북로 25","37.59017181","127.0040894","2018-11-02","10","","LCD"
"1010",1365,"선잠단지 앞","성북구","성북로 102","37.5933609","126.9990921","2018-10-27","15","","LCD"
"1011",1366,"일신초등학교 옆","성북구","월곡로 74","37.59972","127.0403824","2018-10-26","10","","LCD"
"1012",1367,"길음문화복합미디어센터","성북구","길음로7길 20","37.60404587","127.0226593","2018-11-02","15","","LCD"
"1013",1368,"성신여대입구 교차로","성북구","보문로 34길 87","37.59148026","127.0201035","2018-11-02","10","","LCD"
"1014",1369,"미아사거리","성북구","성북구 길음동 15-3","37.60913086","127.0300293","2018-10-26","15","","LCD"
"1015",1370,"복자사랑 피정의 집","성북구","성북로 132-4","37.59453964","126.9952087","2018-10-27","20","","LCD"
"1016",1372,"KEB은행 고대점","성북구","인촌로 113","37.58644485","127.031601","2018-10-24","15","","LCD"
"1017",1373,"성북구보건소 건너편","성북구","화랑로 63","37.60229111","127.0389786","2020-09-24","","8","QR"
"1018",1375,"생명의 전화 종합복지관 앞 교차로","성북구","하월곡동 96-1","37.60390854","127.0373764","2018-12-27","20","","LCD"
"1019",1376,"한국과학기술연구원 중문","성북구","서울특별시 성북구 화랑로14길 5","37.59732056","127.043808","2019-05-21","7","","LCD"
"1020",1377,"한국과학기술연구원 북문","성북구","서울특별시 성북구 화랑로14길 5","37.60395813","127.0453415","2019-05-21","10","","LCD"
"1021",1379,"길음뉴타운푸르지오아파트 3단지","성북구","성북구 길음동","37.60935974","127.0181732","2020-03-26","","15 ","QR"
"1022",1380,"월곡역 5번출구 앞","성북구","하월곡동 226-8(도로)","37.60108566","127.0412369","2020-03-30","","10 ","QR"
"1023",1381,"석계역 4번출구 뒤","성북구","성북구 석관동 375-42","37.61478424","127.0670013","2020-03-25","","10 ","QR"
"1024",1382,"월곡래미안아파트 입구","성북구","성북구 하월곡동 225-5(공)","37.60843277","127.0363236","2020-03-26","","10 ","QR"
"1025",1384,"성신여대입구역 5번출구","성북구","성북구 동선동 133-2 앞","37.59282684","127.0162888","2020-03-28","","10 ","QR"
"1026",1385,"성신여대입구역 3번출구 앞","성북구","성북구 동소문동5가 65-16","37.59236526","127.0162888","2020-06-17","","10 ","QR"
"1027",1386,"동선고가차도 초입","성북구","성북구 동선동1가 118-2(도로)
 (동선동1가 120-1 건물 옆)","37.59415817","127.0189667","2020-03-28","","10 ","QR"
"1028",1388,"커핀그루나루","성북구","성북구 동소문동3가 65-3","37.59088135","127.0117035","2020-03-28","","10 ","QR"
"1029",1390,"석관래미안아트리치","성북구","석관동 323-15앞","37.60646057","127.0616226","2020-05-05","","10 ","QR"
"1030",1391,"성북청소년센터","성북구","성북구 장위동 135-4","37.61707306","127.0562439","2020-03-24","","20 ","QR"
"1031",1392,"돈암삼성풍림아파트","성북구","성북구 돈암동 632-6도","37.5970993","127.0226288","2020-03-27","","10 ","QR"
"1032",1393,"미아 구름다리","성북구","돈암동 51-30","37.59802628","127.0214081","2020-05-05","","10 ","QR"
"1033",1394,"길음뉴타운 래미안9단지","성북구","성북구 길음동 1286-12","37.60241699","127.0197144","2020-03-27","","10 ","QR"
"1034",1395,"레미안장위포레카운티(102동)","성북구","성북구 장위동 143-1","37.61817932","127.0518341","2020-03-25","","20 ","QR"
"1035",1396,"레미안장위퍼스트하이(513동)","성북구","성북구 장위동 201-6","37.61844254","127.0514526","2020-03-25","","20 ","QR"
"1036",1401,"극동늘푸른아파트","중랑구","서울특별시 중랑구 동일로 941","37.61473846","127.0763626","2017-04-26","15","","LCD"
"1037",1402,"금란주차장 앞","중랑구","서울특별시 중랑구 망우로 448","37.60007095","127.1023331","2017-04-26","10","","LCD"
"1038",1403,"중화빌딩 앞 (동부시장)","중랑구","서울특별시 중랑구 망우로 211","37.59424973","127.0765762","2017-04-26","15","","LCD"
"1039",1404,"동일로 지하차도","중랑구","서울특별시 중랑구 망우로 233","37.59529877","127.0800324","2017-05-02","10","","LCD"
"1040",1405,"망우역 1번출구","중랑구","서울특별시 중랑구 망우로55길 11-10","37.59909821","127.0929489","2017-04-26","10","","LCD"
"1041",1406,"망우청소년수련관","중랑구","서울특별시 중랑구 송림길 156","37.60625076","127.1082687","2017-04-26","10","","LCD"
"1042",1407,"먹골역 1번출구 뒤","중랑구","서울특별시 중랑구 공릉로 12","37.61151123","127.0778885","2017-06-22","10","","LCD"
"1043",1408,"먹골역 6번출구 앞","중랑구","서울특별시 중랑구 동일로 지하 901","37.61072159","127.0774765","2017-04-26","10","","LCD"
"1044",1410,"면목 대원칸타빌아파트","중랑구","서울특별시 중랑구 용마산로 285","37.57778168","127.0901871","2017-04-26","10","","LCD"
"1045",1411,"상봉시장앞 교차로 한성빌딩 앞","중랑구","서울특별시 중랑구 면목로 456","37.59254074","127.0867386","2017-06-27","10","","LCD"
"1046",1412,"면목초등학교","중랑구","서울특별시 중랑구 면목로 434","37.59096146","127.0870667","2017-04-26","10","","LCD"
"1047",1413,"봉화산역 5번출구 뒤","중랑구","서울특별시 중랑구 신내로 지하 232","37.61756134","127.0903091","2017-04-26","10","","LCD"
"1048",1414,"사가정역 1번출구","중랑구","서울특별시 중랑구 사가정로 지하 393","37.5815773","127.0884857","2017-06-22","10","","LCD"
"1049",1416,"상봉역 3번출구","중랑구","서울특별시 중랑구 면목로 480","37.59521866","127.0859985","2017-06-22","8","","LCD"
"1050",1418,"새솔초등학교","중랑구","서울특별시 중랑구 신내역로1길 164","37.61743927","127.1090164","2017-04-26","15","","LCD"
"1051",1420,"신내어울공원 앞","중랑구","서울특별시 중랑구 신내로16길 17","37.61394501","127.097702","2017-04-26","15","","LCD"
"1052",1421,"신내역 4번출구","중랑구","서울특별시 중랑구 신내로 지하 232","37.61246109","127.1033783","2017-04-26","20","","LCD"
"1053",1422,"신내우디안아파트 1단지","중랑구","서울특별시 중랑구 신내역로 213","37.62009811","127.1064606","2017-04-26","10","","LCD"
"1054",1424,"양원역 2번출구","중랑구","서울특별시 중랑구 송림길 147","37.6063118","127.1077423","2017-04-26","10","","LCD"
"1055",1425,"용마문화복지센터","중랑구","서울특별시 중랑구 용마산로86길 9-27","37.58745956","127.0959702","2017-04-26","10","","LCD"
"1056",1426,"면목도시개발아파트 1동 앞","중랑구","서울특별시 중랑구 용마산로 지하 227","37.57358932","127.0868225","2017-04-26","15","","LCD"
"1057",1427,"용마산역 1번출구","중랑구","서울특별시 중랑구 용마산로 지하 227","37.57429886","127.0869141","2017-06-22","10","","LCD"
"1058",1428,"원묵고등학교","중랑구","서울특별시 중랑구 숙선옹주로 66","37.61602402","127.085968","2017-06-22","10","","LCD"
"1059",1429,"장안중학교","중랑구","서울특별시 중랑구 동일로 778","37.59995651","127.0800018","2017-06-22","15","","LCD"
"1060",1430,"중랑구청","중랑구","서울특별시 중랑구 봉화산로 179","37.60615158","127.092598","2017-06-22","20","","LCD"
"1061",1431,"중랑구청 사거리","중랑구","서울특별시 중랑구 봉화산로 194","37.60649872","127.0954514","2017-06-22","10","","LCD"
"1062",1433,"중화역 2번출구","중랑구","서울특별시 중랑구 동일로 지하 797","37.60207748","127.0795822","2017-06-22","10","","LCD"
"1063",1434,"홈플러스 면목동점","중랑구","서울특별시 중랑구 사가정로 332","37.57986832","127.0823669","2017-04-26","15","","LCD"
"1064",1435,"능산삼거리","중랑구","서울특별시 중랑구 용마산로 644","37.60868073","127.1007919","2017-04-26","15","","LCD"
"1065",1436,"영풍마드레빌","중랑구","서울특별시 중랑구 용마산로129가길 41","37.60588074","127.1006317","2017-04-26","15","","LCD"
"1066",1437,"늘푸른공원 앞","중랑구","서울특별시 중랑구 동일로 594","37.5834198","127.0799255","2017-04-26","15","","LCD"
"1067",1438,"홈플러스 신내점 앞","중랑구","서울특별시 중랑구 신내로 지하 232","37.61616898","127.093483","2017-04-26","15","","LCD"
"1068",1440,"하나은행 면목지점","중랑구","서울특별시 중랑구 동일로 628","37.58637238","127.0800705","2017-08-01","10","","LCD"
"1069",1441,"신내능말공원","중랑구","서울특별시 중랑구 용마산로136길 33","37.61671066","127.110733","2017-04-26","15","","LCD"
"1070",1442,"(구)신한은행 중랑교지점","중랑구","서울특별시 중화동 50-8","37.59859085","127.0798187","2017-11-01","8","","LCD"
"1071",1443,"구립망우청소년독서실","중랑구","서울특별시 중랑구 망우동 534-23 ","37.59552002","127.0987778","2017-11-01","10","","LCD"
"1072",1444,"면목4치안센터","중랑구","서울특별시 면목동 646-4","37.57402802","127.0805435","2017-11-01","10","","LCD"
"1073",1445,"용마지구대","중랑구","서울특별시 면목동 197-5","37.5799408","127.0793991","2017-11-01","10","","LCD"
"1074",1446,"중랑전화국 교차로","중랑구","서울특별시 중랑구 면목동 282-8","37.59130096","127.0803299","2017-11-01","10","","LCD"
"1075",1447,"면목역 3번출구","중랑구","서울특별시 면목동 120-2","37.58890152","127.0872803","2017-11-01","15","","LCD"
"1076",1448,"코스트코 상봉점","중랑구","서울특별시 상봉동 160-3","37.59732056","127.089798","2017-11-01","15","","LCD"
"1077",1449,"상봉역 1번출구","중랑구","서울특별시 중랑구 망우로 297","37.59655762","127.0858383","2017-11-28","15","","LCD"
"1078",1450,"화랑대역 7번출구","중랑구","서울특별시 노원구 화랑로 지하 510","37.61963654","127.0850449","2017-11-28","10","","LCD"
"1079",1451,"중랑세무서","중랑구","서울특별시 중랑구 망우로 176","37.59275818","127.07267","2017-11-28","10","","LCD"
"1080",1452,"겸재교 진입부","중랑구","중랑구 목동 189-7","37.58565521","127.0750504","2017-11-29","15","","LCD"
"1081",1453,"중랑캠핑숲","중랑구","서울특별시 중랑구 송림길 172","37.60460281","127.1092529","2017-12-22","9","","LCD"
"1082",1454,"한국전력공사(동대문 중랑지사)","중랑구","서울특별시 중랑구 동일로 862","37.6073494","127.0785904","2017-12-22","10","","LCD"
"1083",1455,"상봉역 2번 출구","중랑구","서울특별시 중랑구 망우로 297","37.59632874","127.0858994","2018-02-13","10","","LCD"
"1084",1456,"상아빌딩(우림시장 교차로)","중랑구","서울특별시 중랑구 용마산로 494","37.59511185","127.1003265","2018-02-26","10","","LCD"
"1085",1457,"동원사거리","중랑구","서울특별시 중랑구 겸재로 229","37.58975983","127.0932388","2018-02-26","10","","LCD"
"1086",1458,"상봉터미널2","중랑구","망우동 534-58","37.59733963","127.0930862","2018-11-02","9","","LCD"
"1087",1459,"용마한신아파트사거리","중랑구","면목동 1086-79","37.58034897","127.0926514","2018-10-29","10","","LCD"
"1088",1461,"동양엔파트 앞","중랑구","중랑구 망우로 203(중화동)","37.593853","127.0750732","2020-04-21","","12","QR"
"1089",1462,"동부시장 북문 앞","중랑구","중랑구 망우로 214(상봉동)","37.59386826","127.0765228","2020-05-05","","9","QR"
"1090",1463,"중랑구민회관","중랑구","면목로238","37.57407761","127.0850067","2020-04-30","","10","QR"
"1091",1464,"중화역 4번출구","중랑구","동일로 813","37.60305405","127.0790024","2020-04-21","","15","QR"
"1092",1465,"중랑공영차고지 옆","중랑구","서울시 중랑구 신내동 63-6","37.61314774","127.1051483","2020-04-14","","10","QR"
"1093",1466,"두산대림아파트 삼거리","중랑구","신내로 23길 9","37.61882401","127.0875702","2020-04-14","","10","QR"
"1094",1467,"sk신내 주유소앞(용마산로)","중랑구","신내동 352-2","37.61362076","127.1011505","2020-04-14","","10","QR"
"1095",1468,"먹골역 7번 출구","중랑구","동일로 909","37.6114769","127.0773926","2020-04-21","","10","QR"
"1096",1469,"먹골역 4번출구","중랑구","동일로 890","37.60982132","127.0781326","2020-04-21","","20","QR"
"1097",1470,"중화동 우리은행 앞","중랑구","동일로 837","37.60520172","127.0785828","2020-04-20","","20","QR"
"1098",1471,"동양쇼핑 정류소 앞","중랑구","묵동 198-7","37.61535263","127.0784912","2020-06-18","","10 ","QR"
"1099",1472,"영성빌딩(PAT)","중랑구","동일로 824","37.60408401","127.0792313","2020-04-20","","8","QR"
"1100",1473,"중랑역 1번 출구(중화문화복지센터)","중랑구","중랑역로3길 28","37.59489059","127.0749512","2020-04-21","","10","QR"
"1101",1474,"서울중랑우체국","중랑구","망우로 271","37.59581375","127.08284","2020-05-05","","10","QR"
"1102",1477,"면목삼익아파트 앞","중랑구","동일로 501","37.57598495","127.0796051","2020-04-14","","15","QR"
"1103",1478,"홈플러스 상봉점 앞","중랑구","망우로 353","37.59832764","127.0922699","2020-04-21","","10","QR"
"1104",1479,"면목 홈플러스 2 ","중랑구","중랑구 사가정로 326","37.58105469","127.0820923","2020-04-14","","10","QR"
"1105",1480," 용마지구대 옆","중랑구","중랑구 동일로 566","37.58111191","127.080101","2020-04-16","","15","QR"
"1106",1501,"미아역 3번,4번 출구 사이","강북구","서울특별시 강북구 도봉로 196","37.62607956","127.0264816","2017-08-03","9","","LCD"
"1107",1503,"이디야 커피 수유역점 앞","강북구","서울특별시 강북구 도봉로 355","37.63927841","127.0267563","2017-05-11","12","","LCD"
"1108",1504,"다이소 삼양시장점","강북구","서울특별시 강북구 삼양로 234","37.62415695","127.0186234","2017-05-11","10","","LCD"
"1109",1506,"강북문화예술회관","강북구","서울특별시 강북구 삼각산로 85","37.64032745","127.0133591","2017-05-11","15","","LCD"
"1110",1509,"서울북부수도사업소","강북구","서울특별시 강북구 한천로 935","37.63437653","127.0357513","2017-06-22","10","","LCD"
"1111",1510,"번동주공5단지 관리사무소 앞","강북구","서울특별시 강북구 오현로25마길 27","37.63371658","127.0355148","2017-06-22","10","","LCD"
"1112",1511,"번동 금호어울림아파트102동앞","강북구","서울특별시 강북구 오현로31길 85-7","37.63112259","127.0360336","2017-06-22","9","","LCD"
"1113",1512,"강북중학교 앞","강북구","서울특별시 강북구 한천로150길 67","37.64473724","127.0265656","2017-06-22","20","","LCD"
"1114",1513,"강북구청 뒷편","강북구","서울특별시 강북구 도봉로89길 13","37.63967133","127.0251999","2017-06-22","20","","LCD"
"1115",1514,"강북구청 사거리 버스정류소 앞","강북구","서울특별시 강북구 한천로 1009","37.63880539","127.0283585","2017-05-11","10","","LCD"
"1116",1515,"송천동 주민센터","강북구","서울특별시 강북구 솔샘로 284","37.61828613","127.0240479","2017-05-11","10","","LCD"
"1117",1516,"우이초등학교 후문 옆","강북구","서울특별시 강북구 삼양로99길 33","37.63870621","127.0159073","2017-05-11","10","","LCD"
"1118",1518,"SK telecom(수유직영점) 앞","강북구","서울특별시 강북구 삼양로 439","37.64308548","127.0161667","2017-05-11","10","","LCD"
"1119",1519,"세븐일레븐 수유장미원점 앞","강북구","서울특별시 강북구 삼양로 474","37.64545059","127.0156174","2017-05-11","10","","LCD"
"1120",1520,"성실교회","강북구","서울특별시 강북구 노해로 50","37.63986206","127.022789","2021-01-25","","10","QR"
"1121",1522,"월드전기조명인테리어(우이동)","강북구","서울특별시 도봉구 삼양로 574","37.65447235","127.0127564","2017-06-22","10","","LCD"
"1122",1525,"미아동 복합청사","강북구","서울특별시 강북구 솔매로49길 14","37.62714005","127.0266953","2017-05-11","10","","LCD"
"1123",1526,"수유동 채선당앞","강북구","서울특별시 강북구 수유동 140","37.64173889","127.0246277","2017-11-01","8","","LCD"
"1124",1527,"미아역 1번 출구 뒤","강북구","서울특별시 강북구 미아동 194-1","37.62733459","127.0260544","2017-11-01","10","","LCD"
"1125",1528,"삼각산동 주민센터","강북구","서울특별시 미아동 813-8","37.61503601","127.0206986","2017-11-01","10","","LCD"
"1126",1529,"미아동 한국전력공사","강북구","서울특별시 미아동 194-1","37.63018036","127.02491","2017-11-01","15","","LCD"
"1127",1530,"광산사거리","강북구","서울특별시 강북구 노해로 87 ","37.64355087","127.0223465","2017-11-01","10","","LCD"
"1128",1531,"미아사거리 1번 출구","강북구","서울특별시 강북구 미아동 66-1","37.61395645","127.0302506","2017-11-01","10","","LCD"
"1129",1532,"번3동 주민센터 교차로","강북구","서울특별시 강북구 번동 2-2","37.62635422","127.0474472","2017-11-01","10","","LCD"
"1130",1533,"번동 주공3, 4단지 교차로","강북구","서울특별시 강북구 번동 254","37.62991714","127.0409164","2017-11-01","10","","LCD"
"1131",1534,"북서울 꿈의 숲 동문","강북구","서울특별시 강북구 번동 105","37.6362915","127.0233765","2017-11-01","20","","LCD"
"1132",1535,"효성인텔리안 앞","강북구","서울특별시 수유동 230-7","37.63626099","127.0321732","2017-11-01","10","","LCD"
"1133",1536,"번동 두산위브 101동 옆","강북구","서울특별시 번동 386-17","37.66366577","127.0124283","2017-11-01","20","","LCD"
"1134",1537,"북한산 우이역","강북구","서울특별시 강북구 삼양로 670","37.65615845","127.0131378","2018-02-26","10","","LCD"
"1135",1538,"솔밭공원역","강북구","서울특별시 강북구 삼양로 595","37.64967346","127.0134506","2018-02-26","8","","LCD"
"1136",1539,"4.19민주묘지역","강북구","서울특별시 강북구 삼양로 519","37.64167023","127.0168839","2018-02-26","9","","LCD"
"1137",1540,"가오리역","강북구","서울특별시 강북구 삼양로 426","37.62652969","127.0180588","2018-02-26","10","","LCD"
"1138",1541,"삼양역","강북구","서울특별시 강북구 삼양로 263","37.62155151","127.0203705","2018-02-26","10","","LCD"
"1139",1542,"삼양사거리역","강북구","서울특별시 강북구 삼양로 197","37.63018799","127.0177383","2018-02-26","10","","LCD"
"1140",1543,"수유1동 주민센터","강북구","서울특별시 강북구 삼양로 299","37.6203804","127.0136795","2018-02-26","10","","LCD"
"1141",1545,"솔샘역 2번 출구","강북구","서울특별시 강북구 솔샘로 195","37.61545944","127.0297012","2018-07-27","10","","LCD"
"1142",1546,"송천동우체국","강북구","강북구 미아동 861-1","37.6186409","127.0362396","2018-10-25","10","","LCD"
"1143",1547,"꿈의숲 롯데캐슬","강북구","강북구 미아동 1-46","37.62268829","127.0378113","2018-12-14","15","","LCD"
"1144",1548,"북서울 꿈의숲 서문","강북구","강북구 번동 123","37.61522293","127.0185089","2018-12-14","15","","LCD"
"1145",1550,"삼각산아이원아파트(105동 옆)","강북구","강북구 삼양로 19길 113","37.64686203","127.008812","2020-07-21","","10 ","QR"
"1146",1551,"4.19탑 앞","강북구","수유동 567-69","37.63920212","127.0272369","2020-03-25","","8 ","QR"
"1147",1552,"강북구청사거리(던킨도너츠 앞)","강북구","강북구 번동 418-1","37.63520432","127.0339661","2020-03-25","","8 ","QR"
"1148",1553,"예수그리스도후기성도교회 앞","강북구","강북구 번동 433-1","37.63539124","127.0345535","2020-03-26","","15 ","QR"
"1149",1554,"번동사거리","강북구","강북구 번동 430-76","37.63238144","127.0393066","2020-03-25","","10 ","QR"
"1150",1557,"신창교","강북구","강북구 번동 612-3","37.62552643","127.037323","2020-03-27","","10 ","QR"
"1151",1558,"강북문화정보도서관","강북구","강북구 번동 139-5","37.6198082","127.0285263","2020-03-26","","15 ","QR"
"1152",1560,"도봉세무서 앞","강북구","강북구 도봉로 117","37.64959717","127.0138474","2020-03-27","","10 ","QR"
"1153",1564,"4.19민주묘지역 1번출구","강북구","우이동72-229","37.63561249","127.022995","2020-03-25","","7 ","QR"
"1154",1565,"대한병원앞","강북구","수유동45-7","37.64793396","127.0145721","2020-03-25","","15 ","QR"
"1155",1568,"4.19민주묘지 입구사거리","강북구","강북구 삼양료 504","37.63796997","127.0259018","2020-03-25","","10 ","QR"
"1156",1569,"수유역2번출구","강북구","강북구 수유동","37.62673187","127.0387726","2020-03-28","","10 ","QR"
"1157",1571,"북서울 꿈의숲 입구","강북구","번3동 139-4","37.66446304","127.0118408","2020-05-08","","20 ","QR"
"1158",1572,"우이산 입구","강북구","우이동 207-14","37.61666489","127.02211","2020-05-08","","20 ","QR"
"1159",1573,"현대성우아파트 옆","강북구","미아동 670-33","37.61669922","127.0304947","2020-05-05","","10 ","QR"
"1160",1574,"송중초등학교 옆","강북구","미아동 98-42","37.61529922","127.0644684","2020-05-05","","8 ","QR"
"1161",1601,"석계역 문화광장 내 자전거 보관소","노원구","서울특별시 노원구 화랑로 331","37.62266159","127.0618973","2021-06-17","","10","QR"
"1162",1602,"광운대역 앞","노원구","서울특별시 노원구 석계로 98-2","37.63162231","127.061615","2017-06-27","15","","LCD"
"1163",1605,"헬스케어","노원구","서울특별시 노원구 월계로 378","37.61917114","127.0749283","2017-06-22","10","","LCD"
"1164",1606,"태릉입구역 3번출구","노원구","서울특별시 노원구 동일로 지하 992-1","37.62661362","127.0727539","2017-05-08","10","","LCD"
"1165",1608,"공릉역 1번 출구 앞","노원구","서울특별시 노원구 동일로 지하 1074","37.62036896","127.0836411","2017-05-26","10","","LCD"
"1166",1610,"화랑대역 2번출구 앞","노원구","서울특별시 노원구 화랑로 지하 510","37.62994003","127.0765533","2017-05-08","20","","LCD"
"1167",1611,"과기대 입구(우)","노원구","서울특별시 노원구 공릉로 232","37.63510895","127.0683289","2017-05-08","20","","LCD"
"1168",1616,"하계2동 공항버스정류장 옆","노원구","서울특별시 노원구 동일로 지하 1196","37.63714981","127.0632706","2017-05-08","10","","LCD"
"1169",1617,"하계동 중평어린이공원 앞","노원구","서울특별시 노원구 섬밭로 241","37.64902115","127.0764084","2017-05-08","20","","LCD"
"1170",1619,"중계동 하나프라자빌딩 앞(중1-1)","노원구","서울특별시 노원구 한글비석로 235","37.64820862","127.070221","2017-05-26","10","","LCD"
"1171",1620,"중계동 노원구민체육센터 옆(중1-2)","노원구","서울특별시 노원구 노원로22길 1","37.65999985","127.0729675","2017-06-22","10","","LCD"
"1172",1625,"상계역(4번출구)","노원구","서울특별시 노원구 상계로 182","37.67694092","127.0550995","2017-06-27","20","","LCD"
"1173",1627,"수락산역 4번출구","노원구","서울특별시 노원구 동일로 지하 1662","37.67361832","127.0552521","2020-12-31","","12","QR"
"1174",1628,"노일초등학교 앞","노원구","서울특별시 노원구 동일로 1652","37.67625046","127.0555039","2017-06-22","10","","LCD"
"1175",1630,"수연빌딩 앞","노원구","서울특별시 노원구 동일로 지하 1662","37.66846085","127.0771484","2020-09-02","","10","QR"
"1176",1634,"당고개공원 대여소","노원구","서울특별시 노원구 상계로 283","37.67271042","127.0831604","2017-05-08","15","","LCD"
"1177",1635,"상계3.4동 주민센터 대여소","노원구","서울특별시 노원구 덕릉로131길 8","37.64921188","127.0617676","2017-05-08","11","","LCD"
"1178",1636,"백병원 사거리 농협은행 앞","노원구","서울특별시 노원구 동일로 1351","37.65470123","127.0634003","2017-05-08","10","","LCD"
"1179",1637,"KT 노원점 건물 앞","노원구","서울특별시 노원구 노해로 489","37.68031311","127.055069","2017-05-08","10","","LCD"
"1180",1639,"희성오피앙","노원구","서울특별시 노원구 동일로 1701","37.62386322","127.0684891","2017-05-08","10","","LCD"
"1181",1640,"한내근린공원 북측","노원구","서울특별시 노원구 마들로 86","37.62155533","127.0695114","2017-08-31","","9","QR"
"1182",1641,"한내근린공원 남측","노원구","서울특별시 노원구 마들로 86","37.62531662","127.0881348","2017-08-30","15","","LCD"
"1183",1642,"서울여대 남문","노원구","서울특별시 노원구 화랑로51길 38","37.61736679","127.0752106","2017-08-23","7","","LCD"
"1184",1643,"태릉입구역 8번출구","노원구","서울특별시 노원구 공릉동 687-6","37.63848877","127.1079025","2017-11-01","10","","LCD"
"1185",1646,"삼육대 입구","노원구","서울특별시 노원구 공릉동 26-43","37.63957977","127.0651016","2017-11-01","20","","LCD"
"1186",1650,"중계근린공원내","노원구","서울특별시 노원구 중계동 506-3","37.67237473","127.0559921","2021-06-09","","20","QR"
"1187",1651,"맥도날드 상계점 앞","노원구","서울특별시 노원구 상계동 1118-9","37.68000031","127.0555801","2017-11-01","20","","LCD"
"1188",1652,"파르코 앞","노원구","서울특별시 노원구 상계동 1263","37.65620041","127.0636215","2017-11-01","10","","LCD"
"1189",1653,"노원역1번출구","노원구","서울특별시 노원구 상계동 335-4","37.66379166","127.0754471","2017-11-01","10","","LCD"
"1190",1654,"당고개입구 오거리","노원구","서울특별시 노원구 상계동 172-2","37.63111115","127.0701599","2017-11-01","15","","LCD"
"1191",1655,"공릉1단지아파트","노원구","서울특별시 동일로 1127","37.65501785","127.0675049","2017-11-01","15","","LCD"
"1192",1656,"중앙하이츠 아파트 입구","노원구","서울특별시 노원구 노원로 428","37.65404892","127.0573273","2017-11-01","10","","LCD"
"1193",1657,"노원구청","노원구","서울특별시 노원구 노해로 437 ","37.65032959","127.0716019","2017-11-01","20","","LCD"
"1194",1659,"중계동 을지중학교","노원구","서울특별시 노원구 중계동 370","37.64207077","127.076622","2017-11-01","10","","LCD"
"1195",1660,"서울시립과학관","노원구","서울특별시 노원구 하계동 266","37.64963913","127.0656052","2017-11-01","8","","LCD"
"1196",1661,"당현천근린공원","노원구","서울특별시 노원구 동일로 1342","37.65411377","127.0591507","2017-11-28","10","","LCD"
"1197",1662,"노원역7번출구","노원구","서울특별시 노원구 노해로 467","37.61938095","127.0578537","2017-11-28","15","","LCD"
"1198",1663,"동해문화예술관앞","노원구","서울특별시 노원구 화랑로 429","37.64936066","127.0704422","2017-11-28","20","","LCD"
"1199",1664,"노해근린공원내","노원구","서울특별시 노원구 노원로22길 1","37.64733505","127.0764237","2017-11-28","10","","LCD"
"1200",1665,"양지근린공원앞","노원구","서울특별시 노원구 한글비석로 227","37.65578079","127.0717773","2017-11-28","10","","LCD"
"1201",1666,"노원소방서인근","노원구","서울특별시 노원구 노원로26길 111","37.65449905","127.0743866","2017-11-28","10","","LCD"
"1202",1667,"중계중학교","노원구","서울특별시 노원구 덕릉로76길 23","37.64550781","127.0632553","2017-11-28","10","","LCD"
"1203",1668,"중계역 6번출구","노원구","서울특별시 노원구 동일로 지하 1308-1","37.64352798","127.0652237","2017-11-28","10","","LCD"
"1204",1669,"중계역 3번출구","노원구","서울특별시 노원구 동일로 지하 1308-1","37.64340973","127.0718384","2017-11-28","9","","LCD"
"1205",1670,"노원경찰서교차로","노원구","서울특별시 노원구 노원로 283","37.62934875","127.0548248","2017-11-28","15","","LCD"
"1206",1671,"인덕대학교","노원구","서울특별시 노원구 초안산로 12","37.68859863","127.0534058","2017-11-28","15","","LCD"
"1207",1672,"상계동수락리버시티","노원구","서울특별시 노원구 누원로 18","37.65397644","127.0609741","2017-11-28","15","","LCD"
"1208",1673,"노원역 5번출구","노원구","서울특별시 노원구 동일로 1404","37.65354919","127.0580826","2017-11-28","16","","LCD"
"1209",1674,"서울북부고용센터앞","노원구","서울특별시 노원구 노해로 450","37.62694168","127.05513","2017-11-28","15","","LCD"
"1210",1675,"월계문화체육센터","노원구","서울특별시 노원구 월계로 280","37.62316513","127.0904999","2017-12-22","14","","LCD"
"1211",1677,"육군사관학교 앞","노원구","서울특별시 노원구 화랑로 570","37.6484375","127.0644455","2017-12-22","10","","LCD"
"1212",1678,"성서대학교 밀알관","노원구","서울특별시 노원구 동일로214길 32","37.6428299","127.1066666","2018-02-26","15","","LCD"
"1213",1679,"삼육대 도서관","노원구","서울특별시 노원구 화랑로 815","37.64265442","127.1083832","2018-02-26","15","","LCD"
"1214",1680,"삼육대 제3과학관","노원구","서울특별시 노원구 화랑로 653","37.64580154","127.0822601","2018-02-26","10","","LCD"
"1215",1681,"현대6차 아파트","노원구","서울특별시 노원구 중계로8길 20","37.65679932","127.0776062","2018-03-15","12","","LCD"
"1216",1682,"중계종합사회복지관 교차로","노원구","서울특별시 노원구 덕릉로 662","37.65045929","127.0808868","2018-03-15","13","","LCD"
"1217",1683,"노원문화예술회관","노원구","중계동 391-1 ","37.61832047","127.0756302","2018-10-27","10","","LCD"
"1218",1684,"태릉입구역 5번출구","노원구","동일로 986앞","37.64818954","127.0804825","2018-10-27","20","","LCD"
"1219",1685,"불암고등학교 앞 횡단보도","노원구","중계로 155","37.66114044","127.0580521","2018-10-27","8","","LCD"
"1220",1686,"온수골사거리(스타벅스앞)","노원구","노원구 동일로227길 85","0","0","2018-11-02","10","","LCD"
"1221",1688,"마들역 7번출구","노원구","노원구 동일로 1530-1","37.66566086","127.0572968","2018-11-02","9","","LCD"
"1222",1689,"마들역 3번출구","노원구","노원구 상계동 650","37.66524887","127.0578919","2018-11-02","10","","LCD"
"1223",1690,"도봉운전면허시험장","노원구","노원구 상계동 694-1","37.6577301","127.0593109","2018-11-02","10","","LCD"
"1224",1691,"노원정보도서관","노원구","노원구 상계동 433-4","37.66070938","127.0653305","2018-11-02","10","","LCD"
"1225",1692,"온곡초교 교차로","노원구","노원구 상계동 456-23","37.66418839","127.0660095","2018-12-14","10","","LCD"
"1226",1693,"원자력 병원","노원구","노원구 노원로 75","37.62818909","127.0821075","2019-03-29","15","","LCD"
"1227",1695,"월계미륭아파트 정문","노원구","노원구 월계동 14 ","37.62322235","127.0670242","2020-06-17","","10 ","QR"
"1228",1696,"수락리버시티4단지","노원구","상계동 1195-1 ","37.68645096","127.0528336","2020-03-21","","10 ","QR"
"1229",1697,"상계주공2단지 219동","노원구","상계동 740 ","37.65024948","127.0571518","2020-03-23","","10 ","QR"
"1230",1700,"상계보람아파트 202동 ","노원구","상계동 456-23  ","37.66521454","127.0661392","2020-03-23","","15 ","QR"
"1231",1702,"녹천역 1번출구 앞","도봉구","서울특별시 도봉구 덕릉로 376","37.64617157","127.05056","2017-05-08","10","","LCD"
"1232",1703,"도봉산광역환승센터앞","도봉구","서울특별시 도봉구 도봉로 955","37.68972015","127.0451965","2017-05-11","15","","LCD"
"1233",1705,"도봉구청 정문앞","도봉구","서울특별시 도봉구 마들로 656","37.66922379","127.0465164","2017-05-08","8","","LCD"
"1234",1706,"기업은행 앞","도봉구","서울특별시 도봉구 도봉로 683","37.66566467","127.0426712","2017-06-27","10","","LCD"
"1235",1707,"도봉구민회관","도봉구","서울특별시 도봉구 도봉로 552","37.65446091","127.0385132","2017-05-08","15","","LCD"
"1236",1708,"보건소사거리(다비치안경창동점)","도봉구","서울특별시 도봉구 해등로 150","37.65682983","127.0398483","2017-05-11","8","","LCD"
"1237",1709,"쌍문역4번출구 주변","도봉구","서울특별시 도봉구 도봉로 지하 486-1","37.65012741","127.035347","2017-05-08","15","","LCD"
"1238",1713,"쌍문동 이안아파트 앞","도봉구","도봉구 쌍문동 315-488","37.65165329","127.0284882","2020-08-14","10","","LCD"
"1239",1714,"도봉문화정보도서관 삼거리","도봉구","서울특별시 도봉구 덕릉로 315","37.64463043","127.0446091","2017-11-01","10","","LCD"
"1240",1715,"서울특별시교육청도봉도서관","도봉구","서울특별시 도봉구 삼양로556","37.65317917","127.0127869","2017-11-01","20","","LCD"
"1241",1716,"하나로마트 창동점","도봉구","서울특별시 도봉구 마들로11길 20","37.65420151","127.0507278","2017-11-01","10","","LCD"
"1242",1717,"시립창동운동장 입구","도봉구","서울특별시 도봉구 창동 1-24","37.65570831","127.0501022","2017-11-01","15","","LCD"
"1243",1719,"신도봉사거리 버스정류장","도봉구","서울특별시  도봉구 도봉로 771","37.67328262","127.0439911","2017-11-01","10","","LCD"
"1244",1720,"도봉구청 옆(중랑천변)","도봉구","서울특별시 도봉구 마들로 656","37.66867065","127.0479813","2017-11-01","27","","LCD"
"1245",1721,"창동역 2번출구","도봉구","서울특별시 창동 74-2 ","37.65301514","127.0469971","2017-11-01","12","","LCD"
"1246",1722,"창동청소년수련관","도봉구","서울특별시 도봉구 노해로69길 132","37.65779877","127.0500488","2017-11-28","15","","LCD"
"1247",1723,"방학동학마을도서관","도봉구","서울특별시 도봉구 시루봉로 128","37.66207886","127.0277176","2017-11-28","10","","LCD"
"1248",1725,"창1동주민센터","도봉구","서울특별시 도봉구 해등로 46","37.6475029","127.0433121","2017-11-28","10","","LCD"
"1249",1726,"삼익세라믹아파트교차로","도봉구","서울특별시 도봉구 해등로 189","37.65858841","127.0352097","2017-11-28","8","","LCD"
"1250",1727,"서울도봉초등학교인근","도봉구","서울특별시 도봉구 도봉로173길 96","37.67867661","127.0407639","2017-11-28","15","","LCD"
"1251",1728,"서울북부지방법원","도봉구","도봉구 도봉동 626-154","37.67766571","127.0462418","2018-07-02","15","","LCD"
"1252",1729,"파리바게트앞","도봉구","도봉구 도봉동 637-103","37.68400955","127.0457916","2018-10-27","10","","LCD"
"1253",1730,"도봉산역 교차로 앞","도봉구","도봉구 도봉동 637-2","37.68759155","127.0455017","2018-10-27","10","","LCD"
"1254",1731,"도봉고등학교 맞은편","도봉구","도봉구 도봉동 282-275","37.6876297","127.0422134","2018-11-02","15","","LCD"
"1255",1732,"우리은행 앞","도봉구","도봉구 방학동726-40","37.66759872","127.0429993","2018-10-27","10","","LCD"
"1256",1733,"방학사거리 (봄마당 앞)","도봉구","도봉구 방학동 726-149","37.66297913","127.0419388","2018-10-27","12","","LCD"
"1257",1734,"쌍문현대1차아파트 108동 앞","도봉구","도봉구 쌍문동 59-1","37.65814972","127.0326691","2018-10-27","10","","LCD"
"1258",1735,"도봉역 1,2번 출구사이 건너편","도봉구","도봉구 도봉동 637-107","37.67911911","127.0449829","2018-10-27","13","","LCD"
"1259",1736,"버스정류장 앞","도봉구","도봉구 창동 703-2","37.65224075","127.0370636","2018-10-27","12","","LCD"
"1260",1737,"하나은행 (창동점)","도봉구","도봉구 창동 703-18","37.63970184","127.0388336","2018-10-27","8","","LCD"
"1261",1738,"창동주공17단지 상가앞","도봉구","도봉구 창동 35-1","37.6463089","127.052742","2018-12-14","10","","LCD"
"1262",1741,"제일강산수산입구","도봉구","도봉구 창동 703-9","37.64519882","127.0329819","2018-10-27","15","","LCD"
"1263",1742,"북한산 코오롱 하늘채","도봉구","도봉구 쌍문동 416-13","37.64889145","127.0230179","2018-12-14","10","","LCD"
"1264",1743,"창동19단지아파트 관리사무소앞","도봉구","서울시 도봉구 창4동33번지","37.65039062","127.0521927","2020-03-17","","10 ","QR"
"1265",1744,"KT방학지사 앞","도봉구","도봉구 방학동 726-92","37.66527176","127.0431442","2020-03-21","","15 ","QR"
"1266",1746," 다이소방학점 앞","도봉구"," 도봉구 방학동 726-65","37.66623306","127.0433197","2020-03-21","","10 ","QR"
"1267",1748," 피자헛 앞(도봉병원 옆)","도봉구"," 도봉구 방학동 726-17","37.66898346","127.0437622","2020-03-21","","7 ","QR"
"1268",1749," ESA아파트 상가 앞","도봉구"," 도봉구 방학동 726-73","37.66627121","127.04599","2020-03-21","","10 ","QR"
"1269",1750," 창포원 남쪽 입구","도봉구"," 도봉구 도봉동 22-25","37.68826675","127.0488968","2020-03-23","","12 ","QR"
"1270",1751," 창원초등학교 교차로","도봉구"," 도봉구 창동 315","37.6521225","127.0417023","2020-03-23","","15 ","QR"
"1271",1752," 창동 주공 4단지 입구 옆","도봉구"," 도봉구 창동 34","37.64548111","127.0485764","2020-03-17","","10 ","QR"
"1272",1754," 창동시장입구 사거리","도봉구"," 도봉구 쌍문동 83-7","37.64689636","127.033432","2020-03-17","","10 ","QR"
"1273",1756,"서울북부광역등기국","도봉구","서울시 도봉구 노해로 325","37.6514473","127.0447083","2020-03-17","","10 ","QR"
"1274",1757,"솔밭공원역 1번출구 앞","도봉구","삼양로590","37.65568542","127.013382","2020-03-25","","10 ","QR"
"1275",1758,"북서울교회 버스정류소 앞","도봉구","삼양로606","37.65727997","127.0137558","2020-03-25","","10 ","QR"
"1276",1759,"서울북부지방법원 앞","도봉구","마들로749","37.67721939","127.0486374","2020-03-18","","10 ","QR"
"1277",1761,"방학중학교 앞","도봉구","시루봉로188","37.66562271","127.0310898","2020-03-21","","10 ","QR"
"1278",1762,"북한산 한신휴플러스APT앞","도봉구","도봉로136가길73","37.65533829","127.0424194","2020-03-18","","30 ","QR"
"1279",1765,"쌍문역 1번 출구(양산부인과 빌딩)","도봉구","도봉로496","37.64966965","127.035614","2020-03-18","","10 ","QR"
"1280",1767,"태양중앙교회 앞","도봉구","방학로172","37.66250992","127.0332794","2020-03-21","","10 ","QR"
"1281",1768,"신동아타워 버스정류소","도봉구","방학로210","37.66205215","127.0287552","2020-03-21","","8 ","QR"
"1282",1770,"도봉한신아파트 주변","도봉구","도봉구 도봉동 646-1","37.68523407","127.0498581","2020-07-30","","15 ","QR"
"1283",1771,"성원APT버스정류소","도봉구","시루봉로6길86","37.65796661","127.0300903","2020-03-18","","15 ","QR"
"1284",1772,"시립도봉노인복지관 버스정류소","도봉구","해등로190","37.65805054","127.035759","2020-03-23","","10 ","QR"
"1285",1774,"반석교회(쌍문동)","도봉구","노해로239","37.65134811","127.034729","2020-03-17","","8 ","QR"
"1286",1775,"신원리베르텔 앞","도봉구","노해로341(연안식당 창동점 앞)","37.65128708","127.0455475","2020-03-17","","15 ","QR"
"1287",1804,"독산역 2번출구 자전거주차장","금천구","서울특별시 금천구 벚꽃로 115","37.46652985","126.8887177","2017-05-08","10","","LCD"
"1288",1805,"서울디지털운동장 앞","금천구","서울특별시 금천구 가산디지털2로 151","37.48228836","126.8777695","2017-05-08","10","","LCD"
"1289",1806,"에이스하이엔드타워9차 앞","금천구","서울특별시 금천구 가산디지털1로 233","37.48621368","126.8786392","2017-05-08","10","","LCD"
"1290",1808,"에이스하이엔드타워8차 앞","금천구","서울특별시 금천구 가산디지털1로 84","37.47320938","126.8849411","2017-05-08","20","","LCD"
"1291",1809,"LG전자 별관동(호서대 벤처타워 맞은편)","금천구","서울특별시 금천구 가산디지털1로 63","37.47077942","126.8851547","2017-05-08","10","","LCD"
"1292",1812,"갑을그레이트밸리 앞","금천구","서울특별시 금천구 디지털로9길 32","37.47903061","126.8872986","2017-05-08","10","","LCD"
"1293",1814,"두산위브아파트 옆 상가건물 앞","금천구","서울특별시 금천구 가산로 99","37.47422028","126.8941269","2017-05-08","8","","LCD"
"1294",1816,"금천폭포공원 앞","금천구","서울특별시 금천구 시흥대로38길 61","37.44686127","126.9038315","2017-05-08","20","","LCD"
"1295",1819,"금천구청 앞 자전거거치대","금천구","서울특별시 금천구 시흥대로73길 70","37.45647812","126.8959274","2017-05-10","10","","LCD"
"1296",1820,"신한은행 시흥대로금융센터지점","금천구","서울특별시 금천구 시흥대로 446","37.4433403","126.9033585","2017-05-08","10","","LCD"
"1297",1821,"홈플러스 시흥점 맞은편 다비치안경 앞","금천구","서울특별시 금천구 시흥대로 198","37.45145798","126.9021149","2017-05-08","10","","LCD"
"1298",1822,"서울 시흥동우체국 앞","금천구","서울특별시 금천구 시흥대로 217","37.45299149","126.9009094","2017-05-08","10","","LCD"
"1299",1823,"상신정비공업 앞","금천구","서울특별시 금천구 시흥대로 287","37.4589119","126.8985901","2017-05-08","20","","LCD"
"1300",1824,"독산근린공원 입구","금천구","서울특별시 금천구 독산동 ","37.46455002","126.883728","2017-05-08","15","","LCD"
"1301",1825,"한신아파트 앞 육교 아래","금천구","서울특별시 금천구 금하로1길 70","37.45470047","126.8910523","2020-10-28","","10","QR"
"1302",1826,"한신코아 앞","금천구","서울특별시 금천구 한내로 62","37.45684052","126.8883438","2017-05-08","20","","LCD"
"1303",1827,"독산보도육교 앞 자전거 보관소","금천구","서울특별시 금천구 서부샛길 70","37.45672607","126.8930664","2017-05-11","20","","LCD"
"1304",1828,"한양수자인아파트 앞","금천구","서울특별시 금천구 시흥대로150길 6","37.47531891","126.8988876","2017-05-08","10","","LCD"
"1305",1829,"홈플러스 금천점 앞","금천구","서울특별시 금천구 시흥대로 391","37.4691391","126.8972015","2017-05-08","10","","LCD"
"1306",1830,"빅마켓 금천점 앞","금천구","서울특별시 금천구 두산로 71","37.4702301","126.8950729","2017-05-08","15","","LCD"
"1307",1831,"메이퀸웨딩컨벤션 앞","금천구","서울특별시 금천구 시흥대로 435","37.47249985","126.8979569","2017-05-08","10","","LCD"
"1308",1833,"독산역 1번출구 앞 자전거보관소","금천구","서울특별시 금천구 벚꽃로 115","37.46654129","126.8902817","2017-05-08","10","","LCD"
"1309",1834,"월드메르디앙 벤처센터 2차","금천구","서울특별시 금천구 가산디지털2로 123","37.47908401","126.8790436","2017-05-08","15","","LCD"
"1310",1835,"STX V타워","금천구","서울특별시 금천구 가산디지털1로 128","37.47706985","126.8844299","2017-05-08","10","","LCD"
"1311",1836,"금천구립 독산도서관","금천구","서울특별시 금천구 독산로54길 114","37.46740341","126.9081421","2017-05-11","7","","LCD"
"1312",1839,"수출의 다리 아래","금천구","서울특별시 가산동 60-35","37.47705841","126.8851852","2017-11-01","20","","LCD"
"1313",1840,"솔브레인이엔지 뒤편","금천구","서울특별시 가산동 219-18","37.47555161","126.8884583","2017-11-01","20","","LCD"
"1314",1841,"가산동 주민센터","금천구","서울특별시 가산동 144-3","37.4769516","126.8918686","2017-11-01","10","","LCD"
"1315",1842,"한울중학교","금천구","서울특별시 시흥동 1000-3","37.46257401","126.9068604","2017-11-01","15","","LCD"
"1316",1843,"독산고등학교","금천구","서울특별시 독산동 906-42","37.47709656","126.9111328","2017-11-01","10","","LCD"
"1317",1845,"롯데캐슬골드파크1차 서문","금천구","서울특별시 금천구 벚꽃로40 ","37.460289","126.892189","2017-11-01","15","","LCD"
"1318",1846,"롯데캐슬골드파크1차 동문","금천구","서울특별시 금천구 독산동 441-19 ","37.46017075","126.8960419","2017-11-01","15","","LCD"
"1319",1847,"독산주공 14단지 버스정류소","금천구","서울특별시 금천구 안양천로","37.46103287","126.8871002","2017-11-01","10","","LCD"
"1320",1848,"벽산 디지털밸리 5차","금천구","서울특별시 금천구 가산동 60-73 ","37.4762764","126.8853912","2017-11-01","10","","LCD"
"1321",1849,"대륭포스트타워5차","금천구","서울특별시 금천구 디지털로9길 68","37.48135376","126.88694","2017-11-28","10","","LCD"
"1322",1850,"코오롱테크노밸리","금천구","서울특별시 금천구 디지털로9길 56","37.48015976","126.8863678","2017-11-28","10","","LCD"
"1323",1851,"가산디지털단지 7번출구","금천구","서울특별시 금천구 벚꽃로 309","37.48123169","126.881485","2018-02-26","10","","LCD"
"1324",1852,"혜명양로원 담장 옆","금천구","금하로29길36(시흥동)","37.45177078","126.9133987","2018-10-15","10","","LCD"
"1325",1853,"서울디자인직업전문학교 앞","금천구","금천구 가산로70(가산동)","37.47248077","126.8958664","2018-10-15","10","","LCD"
"1326",1854,"가산아네스트 오피스텔 앞","금천구","금천구 남부순환로1314(가산동)","37.47817993","126.8974075","2018-10-01","10","","LCD"
"1327",1855,"성지아파트 옆 도로변","금천구","금천구 시흥대로51길55","37.45132065","126.8976212","2018-10-01","10","","LCD"
"1328",1856,"모두의학교","금천구","금천구 남부순환로 128길 42","37.47840881","126.9073715","2018-09-13","10","","LCD"
"1329",1857,"주공14단지","금천구","금천구 한내로 69-54","37.46055984","126.8870926","2020-09-24","","15","QR"
"1330",1858,"석수역1번출구 앞 (SK주유소)","금천구","금천구 시흥동 1001-34","37.43727112","126.9026871","2018-10-15","10","","LCD"
"1331",1859,"대륭테크노타운 18차","금천구","금천구 가산동 668","37.4679985","126.8868408","2019-03-12","20","","LCD"
"1332",1861,"IBK기업은행 석수역 지점 앞","금천구","시흥대로46 IBK기업은행 석수역 지점","37.4369812","126.9032974","2020-02-24","","10 ","QR"
"1333",1862,"스타즈호텔독산 빌딩 앞","금천구","시흥대로 315","37.46134567","126.897583","2020-02-24","","30 ","QR"
"1334",1863,"위너스 스포츠클럽 골프연습장옆","금천구","시흥대로 302 옆","37.46053696","126.8986054","2020-02-24","","14 ","QR"
"1335",1864,"산호시티빌 옆","금천구","시흥대로 251 옆","37.45652008","126.8995514","2020-02-26","","15 ","QR"
"1336",1865,"금천구청앞(M빌딩)","금천구","시흥대로67 옆","37.45633316","126.8964539","2020-02-24","","10 ","QR"
"1337",1866,"서울안천초등학교 옆","금천구","한내로 69-16","37.45777893","126.8894272","2020-02-26","","20 ","QR"
"1338",1867,"대륭포스트타워6차 앞","금천구","벚꽃로 298","37.48088837","126.8838043","2020-02-26","","20 ","QR"
"1339",1868,"우리은행 시흥남자동화점 앞","금천구","시흥대로155","37.44785309","126.9028854","2020-02-24","","15 ","QR"
"1340",1869,"롯데캐슬골드파크3차 301동 앞","금천구","시흥대로291, 롯데캐슬3차 301동 앞","37.45901871","126.8967133","2020-02-26","","15 ","QR"
"1341",1870,"독산3동주민센터 앞","금천구","독산로 317","37.47507095","126.9033585","2020-02-26","","8 ","QR"
"1342",1901,"신도림동주민센터 앞","구로구","서울특별시 구로구 신도림로 40","37.50733185","126.8797302","2017-05-11","10","","LCD"
"1343",1904,"도림천역 1번 출구 앞","구로구","서울특별시 구로구 경인로67길 160","37.51424026","126.8828735","2017-05-11","10","","LCD"
"1344",1906,"신도림역 1번 출구 앞","구로구","서울특별시 구로구 경인로 688","37.50971985","126.8900986","2017-05-11","20","","LCD"
"1345",1907,"구일우성(아) 육교 밑","구로구","서울특별시 구로구 구일로2길 59","37.48963165","126.8762589","2017-05-11","12","","LCD"
"1346",1908,"해원리바파크 육교 밑","구로구","서울특별시 구로구 구일로 110","37.49528503","126.8721619","2017-05-11","10","","LCD"
"1347",1910,"낙원교회 맞은편","구로구","서울특별시 구로구 구로동로42길 43","37.49750519","126.8843765","2017-05-11","5","","LCD"
"1348",1911,"구로디지털단지역 앞","구로구","서울특별시 구로구 시흥대로 577-2","37.48493958","126.9013214","2017-05-11","10","","LCD"
"1349",1912,"한신휴아파트 앞","구로구","서울특별시 구로구 디지털로31길 120","37.48880005","126.8906632","2017-05-11","10","","LCD"
"1350",1913,"구로리공원","구로구","서울특별시 구로구 구로중앙로 13","37.49103165","126.8921509","2017-05-11","10","","LCD"
"1351",1914,"대림역4번출구","구로구","서울특별시 구로구 도림천로 351","37.49440384","126.8944473","2017-06-27","10","","LCD"
"1352",1916,"구로중학교앞","구로구","서울특별시 구로구 구로중앙로 48","37.49414062","126.8899841","2017-05-11","10","","LCD"
"1353",1920,"서울미래초등학교 사거리","구로구","서울특별시 구로구 새말로 73","37.50437927","126.888298","2017-05-11","10","","LCD"
"1354",1924,"삼부르네상스파크빌","구로구","서울특별시 구로구 남부순환로 1299","37.47874069","126.8950958","2017-05-11","10","","LCD"
"1355",1925,"동양미래대학교 정문 옆","구로구","서울특별시 구로구 경인로 445","37.49988937","126.8676987","2017-06-27","20","","LCD"
"1356",1928,"고척스카이돔구장 광장","구로구","서울특별시 구로구 경인로 430","37.49946976","126.8684006","2017-05-11","10","","LCD"
"1357",1929,"고척근린공원 고척도서관 앞","구로구","서울특별시 구로구 고척로45길 31","37.50513458","126.8527603","2017-05-11","10","","LCD"
"1358",1930,"개봉지구대 개봉치안센터","구로구","서울특별시 구로구 경인로 293","37.49768448","126.8537293","2017-05-11","7","","LCD"
"1359",1931,"개봉역(북측광장)","구로구","서울특별시 구로구 경인로40길 47","37.49499512","126.8582535","2017-06-27","10","","LCD"
"1360",1933,"개봉푸르지오아파트 상가","구로구","서울특별시 구로구 남부순환로 775","37.50170517","126.8472824","2017-05-11","10","","LCD"
"1361",1936,"개봉역 1번 출구 자전거보관서쪽","구로구","서울특별시 구로구 경인로40길 47","37.49428177","126.8592148","2017-06-22","10","","LCD"
"1362",1937,"한진아파트 입구","구로구","서울특별시 구로구 개봉로3길 87","37.4860611","126.8520126","2017-05-11","15","","LCD"
"1363",1941,"오류동역 2번출구","구로구","서울특별시 구로구 서해안로 2340-10","37.49367142","126.8437042","2017-06-22","10","","LCD"
"1364",1943,"온수역 북측","구로구","서울특별시 구로구 경인로3길 지하 64","37.49279022","126.8245239","2017-06-22","10","","LCD"
"1365",1946,"구로역 광장","구로구","서울특별시 구로구 구로중앙로 174","37.50311661","126.8803864","2017-06-22","10","","LCD"
"1366",1951,"천왕이펜하우스 4단지 상가 앞","구로구","서울특별시 구로구 천왕로 9","37.48028946","126.8395004","2017-06-22","20","","LCD"
"1367",1952,"천왕연지타운2단지 앞","구로구","서울특별시 구로구 오리로 1102-10","37.48210526","126.845726","2017-06-22","15","","LCD"
"1368",1953,"천왕역 4번출구 뒤","구로구","서울특별시 구로구 오리로 지하 1154","37.48638535","126.8392105","2017-06-22","20","","LCD"
"1369",1955,"디지털입구 교차로","구로구","서울특별시 구로구 시흥대로 551","37.48288345","126.9010391","2017-07-27","10","","LCD"
"1370",1956,"도야미리숯불갈비 앞","구로구","서울특별시 구로구 신도림로 67","37.51000977","126.8820496","2017-11-13","10","","LCD"
"1371",1957,"구일고등학교 정문","구로구","서울특별시 구로구 구일로 90-51","37.49340057","126.8743286","2017-11-13","15","","LCD"
"1372",1958,"강서수도사업소민원센터","구로구","서울특별시 구로구 가마산로 272","37.49578094","126.8901215","2017-11-13","10","","LCD"
"1373",1959,"구로구의회 앞","구로구","서울특별시 구로구 가마산로25길 9-24","37.49645615","126.8895874","2017-11-13","10","","LCD"
"1374",1960,"화광신문사 앞","구로구","서울특별시 구로구 공원로 68","37.50284958","126.8894806","2017-11-13","10","","LCD"
"1375",1961,"신도림테크노근린공원","구로구","서울특별시 구로구 새말로 121-15","37.50819397","126.891304","2017-11-13","15","","LCD"
"1376",1962,"가리봉동주민센터","구로구","서울특별시 구로구 디지털로26길 5","37.48160172","126.8927994","2017-11-13","15","","LCD"
"1377",1964,"원메디타운 앞","구로구","서울특별시 구로구 경인로 403","37.49789047","126.864502","2017-11-13","10","","LCD"
"1378",1965,"삼환로즈빌아파트 105동 옆","구로구","서울특별시 구로구 경인로 343","37.49723053","126.8591919","2017-11-13","15","","LCD"
"1379",1966,"한마을아파트 정문상가","구로구","서울특별시 구로구 경인로 382","37.49649811","126.8630981","2017-11-13","10","","LCD"
"1380",1967,"참새공원(백곡경노당)","구로구","서울특별시 구로구 고척로21길 85","37.5051384","126.8443375","2017-11-13","10","","LCD"
"1381",1968,"동인오피스텔 건너편 소공원","구로구","서울특별시 구로구 고척로22길 64","37.49848175","126.8475037","2017-11-13","12","","LCD"
"1382",1969,"궁동생태공원","구로구","서울특별시 구로구 오리로 1352","37.50190353","126.8289642","2017-11-13","10","","LCD"
"1383",1971,"오정초교 앞 보도육교","구로구","서울특별시 구로구 경인로2길 10","37.49072266","126.8263931","2017-11-13","10","","LCD"
"1384",1973,"오리로와 서해안도로 교차로 앞","구로구","서울특별시 구로구 오리로 1181","37.48859787","126.8364945","2017-11-13","10","","LCD"
"1385",1974,"신도림2차e편한세상아파트 203동 앞","구로구","서울특별시 구로구 신도림로 16","37.50518036","126.8825378","2017-11-13","10","","LCD"
"1386",1975,"대림역 1번 출입구 밑","구로구","서울특별시 구로구 도림천로 351","37.49256516","126.8947525","2017-11-13","10","","LCD"
"1387",1976,"남구로역 5번 출입구 앞","구로구","서울특별시 구로구 도림로 지하 7","37.48567963","126.8867035","2017-11-13","10","","LCD"
"1388",1977,"천왕역 1번 출입구 앞","구로구","서울특별시 구로구 오리로 지하 1154","37.48620987","126.8388214","2017-11-13","15","","LCD"
"1389",1979,"구로1동우체국 앞","구로구","서울특별시 구로구 구일로 64","37.4920311","126.8737717","2017-11-13","10","","LCD"
"1390",1981,"천왕이펜하우스5단지 앞","구로구","서울특별시 구로구 천왕로 10","37.47943115","126.8426971","2017-11-13","10","","LCD"
"1391",1983,"구로동롯데아파트","구로구","서울특별시 구로구 새말로 31","37.50254822","126.8838806","2017-11-28","10","","LCD"
"1392",1984,"구로구청","구로구","서울특별시 구로구 가마산로 245","37.49526596","126.8884735","2017-11-28","10","","LCD"
"1393",1985,"구로도서관","구로구","서울특별시 구로구 공원로 15","37.49851608","126.8919907","2017-11-28","20","","LCD"
"1394",1986,"태평양물산빌딩","구로구","구로구 구로동 197-21","37.48485947","126.8951874","2018-09-28","15","","LCD"
"1395",1987,"개봉아이파크아파트 앞","구로구","구로구 개봉동 489-1","37.49034119","126.8609314","2018-10-15","15","","LCD"
"1396",1988,"고척LIGA아파트 앞","구로구","구로구 고척동 185-10","37.50605011","126.8607864","2018-09-19","20","","LCD"
"1397",1991,"오류동역 맞은편","구로구"," 구로구 오류동 6-2","37.49676132","126.8449631","2018-09-19","10","","LCD"
"1398",1992,"구로구배드민턴실내체육관 앞","구로구","구로구 오류동 326-1","37.4917984","126.8324204","2018-11-30","19","","LCD"
"1399",1993,"금강수목원아파트 앞","구로구","구로구 오류동 255-5","37.48937988","126.834198","2018-09-19","10","","LCD"
"1400",1994,"삼성전자 물류센터 앞","구로구","서울시 구로구 구일로126","37.49699783","126.8717804","2018-09-19","10","","LCD"
"1401",1996,"구일역 1번 출입구 앞","구로구","구로구 구로동 642-77","37.49539948","126.8710098","2018-10-31","20","","LCD"
"1402",1998,"고척교 교차로","구로구","구로구 구로동 621-12","37.49856949","126.871521","2018-11-26","8","","LCD"
"1403",1999,"수궁동 성당 주변","구로구","구로구 궁동 252-17","37.49525833","126.830658","2019-03-12","15","","LCD"
"1404",2000,"신도림4차 e편한세상 아파트 1109동 앞","구로구","구로구 신도림동 312-16","37.5123291","126.8868332","2019-03-12","15","","LCD"
"1405",2002,"노들역 1번출구","동작구","서울특별시 동작구 노량진로 지하 238","37.51284409","126.9524689","2017-05-12","18","","LCD"
"1406",2003,"사육신공원앞","동작구","서울특별시 동작구 노량진로 191","37.51335907","126.9480591","2017-06-22","10","","LCD"
"1407",2007,"유한양행앞","동작구","서울특별시 동작구 노량진로 74","37.51293945","126.9342423","2017-05-12","20","","LCD"
"1408",2008,"노량진근린공원 대방공원","동작구","서울특별시 동작구 여의대방로44길 20","37.5093689","126.9280701","2017-05-12","10","","LCD"
"1409",2009,"보라매역 8번출구","동작구","서울특별시 동작구 상도로 지하 2","37.50007629","126.9210815","2017-05-26","10","","LCD"
"1410",2012,"녹십초요양병원앞","동작구","서울특별시 동작구 시흥대로 634","37.48836136","126.9062271","2017-05-26","10","","LCD"
"1411",2013,"장승배기역 5번출구","동작구","서울특별시 동작구 상도로 지하 188","37.50585175","126.9393616","2017-05-12","30","","LCD"
"1412",2015,"신대방삼거리역 6번출구쪽","동작구","서울특별시 동작구 상도로 지하 76","37.49985504","126.9295654","2017-05-26","10","","LCD"
"1413",2016,"신대방삼거리역 3번출구쪽","동작구","서울특별시 동작구 상도로 지하 76","37.49964523","126.9270935","2017-05-12","10","","LCD"
"1414",2020,"장승배기역2번출구뒷편쪽","동작구","서울특별시 동작구 상도로 지하 188","37.50449753","126.9389877","2017-05-12","10","","LCD"
"1415",2024,"상도역 1번출구","동작구","서울특별시 동작구 상도로 지하 272","37.50217819","126.948204","2017-05-12","10","","LCD"
"1416",2025,"흑석역 1번출구","동작구","서울특별시 동작구 현충로 지하 90","37.50938034","126.9636154","2017-05-12","15","","LCD"
"1417",2026,"흑석역 4번출구","동작구","서울특별시 동작구 현충로 지하 90","37.50858688","126.9634934","2017-07-05","10","","LCD"
"1418",2027,"중앙대학교 정문","동작구","서울특별시 동작구 흑석로 47","37.50704193","126.9591522","2017-05-12","15","","LCD"
"1419",2032,"이수역 11번출구쪽","동작구","서울특별시 동작구 사당로 지하 310","37.48550797","126.9816208","2017-06-27","10","","LCD"
"1420",2033,"사당동 아르테스 웨딩앞","동작구","서울특별시 동작구 동작대로 지하 3","37.48149109","126.9815826","2017-05-26","10","","LCD"
"1421",2034,"사당역 7번출구쪽","동작구","서울특별시 동작구 동작대로 지하 3","37.47689056","126.9805756","2017-06-27","20","","LCD"
"1422",2036,"정금마을 마을버스정류장","동작구","서울특별시 서초구 동작대로 198","37.4947052","126.9823914","2017-05-12","20","","LCD"
"1423",2037,"동작역 5번출구 동작주차공원","동작구","서울특별시 동작구 현충로 지하 220","37.50318909","126.97715","2017-05-12","20","","LCD"
"1424",2038,"동작역 7번출구","동작구","서울특별시 동작구 현충로 지하 220","37.50318146","126.9760895","2017-05-12","10","","LCD"
"1425",2040,"비계 버스정류소","동작구","서울특별시 동작구 현충로 151","37.5063591","126.9690781","2017-05-12","10","","LCD"
"1426",2041,"사당중학교 버스정류소","동작구","서울특별시 동작구 사당로 169","37.48683548","126.9680481","2017-05-26","10","","LCD"
"1427",2048,"삼일초등학교 인근","동작구","서울특별시 동작구 사당로23나길 27","37.48907852","126.9735642","2017-05-26","10","","LCD"
"1428",2050,"노량진역 5번출구","동작구","서울특별시 동작구 노량진로 지하 130","37.51324844","126.9399719","2017-05-12","10","","LCD"
"1429",2054,"삼익아파트","동작구","서울특별시 동작구 만양로 84","37.51054764","126.9448471","2017-05-12","10","","LCD"
"1430",2056,"동작구민 체육센터","동작구","서울특별시 동작구 여의대방로16길 53","37.49449921","126.9165268","2017-05-26","10","","LCD"
"1431",2057,"상도 아이파크 아파트","동작구","서울특별시 동작구 장승배기로 26","37.5008812","126.9417496","2017-05-12","10","","LCD"
"1432",2058,"노량진동 맥도널드앞","동작구","서울특별시 동작구 노량진동 113-7 ","37.5135231","126.9435272","2017-11-01","10","","LCD"
"1433",2059,"보라매공원 정문","동작구","서울특별시 동작구 신대방동 395 ","37.49707794","126.9177933","2017-11-01","10","","LCD"
"1434",2060,"남성역3번출구 뒤","동작구","서울특별시 동작구 사당동 1131 ","37.48463058","126.97155","2017-11-01","10","","LCD"
"1435",2061,"한강 현대아파트 건너편","동작구","동작구 흑석동 27-83 ","37.50592804","126.9692307","2018-07-04","10","","LCD"
"1436",2062,"사당새마을금고","동작구","서울특별시 사당동 211-2 ","37.48665237","126.9678421","2017-11-01","10","","LCD"
"1437",2063,"대방역 4번출구","동작구","서울특별시 영등포구 여의대방로 300","37.51290131","126.9266129","2017-12-22","15","","LCD"
"1438",2064,"흑석한강푸르지오 106동앞","동작구","서울특별시 동작구 흑석한강로 27","37.50535583","126.9661789","2017-12-22","10","","LCD"
"1439",2065,"서울시여성가족재단","동작구","서울특별시 동작구 여의대방로54길 18","37.51198959","126.9270859","2017-12-22","15","","LCD"
"1440",2066,"양문교회 앞","동작구","동작구 신대방동 607-8","37.48939896","126.9071121","2018-10-02","10","","LCD"
"1441",2067,"LG전자 베스트? 대리점 앞","동작구","고덕동 230","37.49766922","126.9198685","2018-10-11","10","","LCD"
"1442",2068,"총신대 앞(육교)","동작구","동작구  사당동 1112","37.48815918","126.9664764","2018-10-11","12","","LCD"
"1443",2069,"숭실대 입구역3번 출구 앞","동작구","동작구  상도동 514","37.4966011","126.953682","2018-10-30","7","","LCD"
"1444",2070,"노량진역 2번 출구 앞","동작구","동작구  노량진동 67-3","37.51391983","126.9430695","2018-10-12","12","","LCD"
"1445",2071,"대림아파트 후문 상가 옆","동작구","동작구 사당로23길 137","37.48886871","126.9719086","2019-03-26","10","","LCD"
"1446",2076,"노들나루공원 입구","동작구"," 동작구 본동 258-49","37.51357651","126.9555512","2020-04-24","","18","QR"
"1447",2077,"노들역 3번출구","동작구"," 동작구 노량진로 250-1","37.51193619","126.9541626","2020-04-23","","10","QR"
"1448",2078,"흑석 아크로리버하임(103동)","동작구"," 동작구 흑석동 143-57","37.51083755","126.9616318","2020-04-22","","20","QR"
"1449",2079,"중앙대학교 정문","동작구"," 동작구 흑석동 221-1","37.50667191","126.9577789","2020-04-22","","25","QR"
"1450",2080,"빕스 대방점 앞","동작구"," 동작구 대방동 341-15","37.51213455","126.9254379","2020-04-23","","15","QR"
"1451",2081,"대방1차 e편한세상 앞","동작구"," 동작구 대방동 338-6","37.51306152","126.929512","2020-04-23","","15","QR"
"1452",2082,"7호선 이수역7번출구","동작구"," 동작구 동작대로 89","37.4846077","126.9817963","2020-04-26","","10","QR"
"1453",2083,"흑석롯데캐슬에듀포레(107동)","동작구"," 동작구 흑석동 86-212","37.50470352","126.9607315","2020-04-22","","15","QR"
"1454",2084,"e편한세상 상도노빌리티 앞","동작구"," 동작구 상도동 26-77","37.50456238","126.946785","2020-04-24","","25","QR"
"1455",2085,"강남중학교 앞","동작구"," 동작구 대방동 466-45","37.50274277","126.9215775","2020-04-23","","20","QR"
"1456",2086,"삼일수영장 앞","동작구"," 동작구 사당로27길 103","37.48712158","126.9743576","2020-04-26","","22","QR"
"1457",2088,"상도중앙하이츠빌 입구","동작구"," 동작구 상도동 159-186","37.50024796","126.9497299","2020-04-24","","10","QR"
"1458",2089,"사당역10번출구(금강빌딩)","동작구"," 동작구 동작대로 29","37.4791069","126.9815064","2020-04-26","","10","QR"
"1459",2090,"기아자동차 사당점 앞","동작구"," 동작구 사당로 272","37.48377991","126.9779205","2020-04-26","","15","QR"
"1460",2091,"이수역9번출구(맥도날드)","동작구"," 동작구 사당동 147-141","37.48470306","126.9805908","2020-04-26","","15","QR"
"1461",2092,"흑석한강푸르지오(110동)","동작구"," 동작구 흑석동 336-7","37.50311279","126.9647141","2020-04-24","","15","QR"
"1462",2093,"상도SH빌아파트 입구","동작구"," 동작구 상도로53길 70","37.50321198","126.9545975","2020-05-12","","12","QR"
"1463",2094,"숭실대학교(중문) ","동작구"," 동작구 상도동 512-10","37.49550629","126.9563751","2020-04-24","","30","QR"
"1464",2095,"경문고등학교 앞","동작구"," 동작구 동작동 산1-13","37.49150085","126.9824066","2020-04-24","","10","QR"
"1465",2096,"서울특별시 동작관악교육지원청","동작구","동작구 상도2동175-1","37.50253296","126.9406433","2020-04-30","","13","QR"
"1466",2102,"봉림교 교통섬","관악구","서울특별시 관악구 관천로 52","37.48423004","126.9263916","2017-05-12","20","","LCD"
"1467",2103,"신림동 우방아파트","관악구","서울특별시 관악구 관천로27길 2","37.4891777","126.9192734","2017-05-12","10","","LCD"
"1468",2104,"사당역 5번출구","관악구","서울특별시 동작구 남부순환로 지하 2089","37.47608948","126.9813309","2017-05-26","13","","LCD"
"1469",2105,"미성동 신림체육센터","관악구","서울특별시 관악구 난곡로 295","37.48025131","126.9146042","2017-05-12","12","","LCD"
"1470",2106,"난곡 새마을금고","관악구","서울특별시 관악구 난곡로 210","37.47372818","126.9184036","2017-05-12","12","","LCD"
"1471",2107,"도림천 신화교","관악구","서울특별시 관악구 신림로 40","37.4754715","126.9364548","2017-05-26","25","","LCD"
"1472",2108,"은천치안센터","관악구","서울특별시 관악구 봉천로 375","37.48334122","126.9431992","2017-05-26","20","","LCD"
"1473",2109,"은천로입구 가로공원","관악구","서울특별시 양천구 가로공원로 지하 133","37.48622513","126.9358292","2017-06-22","15","","LCD"
"1474",2110,"조원동 미성아파트","관악구","서울특별시 관악구 시흥대로 560","37.48319244","126.9020309","2017-08-21","9","","LCD"
"1475",2111,"서울대입구역 1번출구","관악구","서울특별시 관악구 남부순환로 1830","37.48086929","126.9533157","2017-08-24","10","","LCD"
"1476",2112,"서울대입구역 마에스트로","관악구","서울특별시 관악구 남부순환로 지하 1822","37.4813385","126.9506455","2017-05-26","15","","LCD"
"1477",2113,"관악동작견인차량보관소","관악구","서울특별시 관악구 신사로 7","37.4846611","126.9039002","2017-07-11","10","","LCD"
"1478",2115,"관악농협농산물백화점","관악구","서울특별시 관악구 남부순환로 1369","37.47991562","126.9028397","2017-06-22","15","","LCD"
"1479",2116,"에이스에이존빌딩","관악구","서울특별시 관악구 남부순환로 지하 1822","37.48170471","126.9508286","2017-05-26","9","","LCD"
"1480",2119,"중앙동 동진빌딩","관악구","서울특별시 관악구 관악로 217","37.48425674","126.9546967","2017-06-22","10","","LCD"
"1481",2122,"낙성대로 입구","관악구","서울특별시 관악구 남부순환로 1889","37.47805786","126.960495","2017-05-26","20","","LCD"
"1482",2127,"보성운수차고지 맞은편","관악구","서울특별시 관악구 난곡로 99","37.46488571","126.9194794","2017-05-12","10","","LCD"
"1483",2128,"관악구청교차로","관악구","서울특별시 관악구 관악로 153","37.47916412","126.9525833","2017-05-26","12","","LCD"
"1484",2129,"낙성대 과학전시관","관악구","서울특별시 관악구 낙성대로 101","37.46905518","126.9581451","2017-05-26","10","","LCD"
"1485",2130,"영어마을 관악캠프","관악구","서울특별시 관악구 낙성대로 70","37.47198868","126.9584274","2017-05-26","15","","LCD"
"1486",2135,"신림역 5번출구","관악구","서울특별시 관악구 남부순환로 지하 1614","37.48440933","126.9289093","2017-05-12","9","","LCD"
"1487",2136,"신림역 8번출구","관악구","서울특별시 관악구 신림로 340","37.48450851","126.930069","2017-09-01","8","","LCD"
"1488",2137,"KT&G 관악지점","관악구","서울특별시 관악구 남부순환로 1675","37.48490143","126.9365311","2017-05-26","10","","LCD"
"1489",2139,"서울신성초등학교","관악구","서울특별시 관악구 신림로 114","37.4711647","126.9370194","2017-08-21","10","","LCD"
"1490",2140,"신림1교 교차로","관악구","서울특별시 관악구 신림로 270","37.47842789","126.9318619","2020-10-29","","12","QR"
"1491",2141,"미림여고입구 교차로","관악구","서울특별시 관악구 신림로 137","37.47229385","126.9334106","2017-06-22","12","","LCD"
"1492",2143,"서울산업정보학교","관악구","서울특별시 관악구 신림로 67","37.4706955","126.9421997","2017-06-22","10","","LCD"
"1493",2144,"난우길입구","관악구","서울특별시 관악구 문성로 115","37.47777557","126.9167557","2017-05-12","15","","LCD"
"1494",2145,"은천초등학교 육교","관악구","서울특별시 관악구 은천로 69","37.48635864","126.9429245","2017-05-26","12","","LCD"
"1495",2148,"낙성대역 3번출구 뒤","관악구","서울특별시 관악구 남부순환로 지하 1928","37.47702789","126.9633942","2017-06-22","10","","LCD"
"1496",2156,"농협 관악문성지점","관악구","서울특별시 금천구 남부순환로 1428","37.48072052","126.9093247","2017-08-21","12","","LCD"
"1497",2159,"인헌초교","관악구","서울특별시 관악구 봉천동 244-1 ","37.47509003","126.9592285","2017-11-01","10","","LCD"
"1498",2164,"관악우체국","관악구","서울특별시 관악구 남부순환로 1641","37.48476791","126.9328766","2017-11-28","8","","LCD"
"1499",2165,"JK장평타워","관악구","서울특별시 관악구 남부순환로 1943","37.47648239","126.9653626","2017-11-28","10","","LCD"
"1500",2167,"낙성대역 1번출구","관악구","서울특별시 관악구 남부순환로 1944","37.47629547","126.9649582","2017-11-28","12","","LCD"
"1501",2169,"봉천역 2번출구","관악구","서울특별시 관악구 남부순환로 1728","37.48218918","126.942131","2017-11-28","7","","LCD"
"1502",2170,"조원동서울본병원","관악구","서울특별시 관악구 남부순환로 1451","37.48152924","126.9120331","2017-11-28","10","","LCD"
"1503",2171,"서울대입구역 5번출구","관악구","서울특별시 관악구 남부순환로 1817","37.48154831","126.9520035","2017-11-28","17","","LCD"
"1504",2172,"나들목공원","관악구","서울특별시 관악구 신림로 41","37.46940613","126.9445114","2017-11-28","20","","LCD"
"1505",2173,"당곡사거리","관악구","서울특별시 관악구 보라매로 3","37.48974991","126.9274674","2017-11-28","10","","LCD"
"1506",2174,"삼성디지털프라자관악점","관악구","서울특별시 관악구 신림로 386","37.48856354","126.9284821","2017-11-28","10","","LCD"
"1507",2175,"신림동걷고싶은문화의거리입구","관악구","서울특별시 관악구 신림로 369","37.48730087","126.9287033","2017-11-28","10","","LCD"
"1508",2176,"보라매공원 보도육교","관악구","서울특별시 관악구 신사로 132","37.48899078","126.9163818","2017-12-22","15","","LCD"
"1509",2177,"신대방역 2번 출구","관악구","신림동 신대방역 2번출구","37.48712921","126.9130173","2018-09-12","19","","LCD"
"1510",2178,"서울대학교 정문","관악구","신림동 56-1","37.46681976","126.9488068","2018-10-11","15","","LCD"
"1511",2179,"양녕로 입구","관악구","남부순환로 1761","37.48218918","126.9461594","2018-11-02","7","","LCD"
"1512",2183,"동방1교","관악구","신림로 144","37.47182846","126.9339218","2018-12-14","20","","LCD"
"1513",2184,"구암초등학교 버스정류장","관악구","관악구 봉천동 490-9","37.48949051","126.9459229","2018-11-22","10","","LCD"
"1514",2185,"대학동 고시촌","관악구","서울특별시 관악구 신림로 97 밀라트","37.47046661","126.938652","2019-09-26","10","","LCD"
"1515",2186,"우리은행 낙성대역지점","관악구","남부순환로 1889","37.4788208","126.95961","2020-04-29","","15","QR"
"1516",2187,"현대시장사거리(신한은행)","관악구","은천로 110","37.4867363","126.9475174","2020-04-27","","15","QR"
"1517",2189,"삼성서비스센터(관악점) ","관악구","남부순환로 1719","37.48275375","126.9414063","2020-04-29","","15","QR"
"1518",2190,"도원맨션","관악구","남부순환로 1699","37.48368835","126.9391556","2020-04-30","","12","QR"
"1519",2191,"대학동주민센터 ","관악구","신림로 115","37.47068787","126.9364853","2020-04-28","","10","QR"
"1520",2195,"은천교회","관악구","남부순환로 1654","37.48464584","126.9345093","2020-04-27","","15","QR"
"1521",2196,"삼화페인트 봉천점","관악구","남부순환로 1700","37.4833107","126.9390259","2020-04-28","","10","QR"
"1522",2198,"사랑의병원","관악구","남부순환로 1868","37.47946548","126.9569321","2020-04-30","","10","QR"
"1523",2199,"신봉천주유소","관악구","남부순환로 1884","37.47877121","126.9586945","2020-04-30","","8","QR"
"1524",2201,"본마을 정류소 앞","서초구","서울특별시 서초구 본마을2길 2","37.4532814","127.0514832","2017-06-01","20","","LCD"
"1525",2202,"청계산입구역 1번출구","서초구","서울특별시 서초구 청계산로 지하 179","37.44893646","127.0543747","2017-06-01","20","","LCD"
"1526",2203,"청계산입구역 2번출구","서초구","서울특별시 서초구 청계산로 지하 179","37.44765854","127.0550156","2017-06-27","20","","LCD"
"1527",2205,"내곡3단지 어린이공원 앞","서초구","서울특별시 서초구 청계산로9길 76","37.45375061","127.0593796","2017-06-01","15","","LCD"
"1528",2206,"언남초등학교 앞","서초구","서울특별시 서초구 헌릉로8길 42","37.45435715","127.0621033","2017-06-01","20","","LCD"
"1529",2207,"내곡파출소 뒤 정자","서초구","서울특별시 서초구 헌릉로 226","37.45440674","127.0649262","2017-06-27","9","","LCD"
"1530",2210,"반포1동 주민센터 앞","서초구","서울특별시 서초구 사평대로 지하 285","37.50509644","127.0131073","2017-06-01","15","","LCD"
"1531",2211,"서초구립반포도서관 앞","서초구","서울특별시 서초구 고무래로 34","37.50263596","127.0123138","2017-06-27","10","","LCD"
"1532",2212,"서초현대4차아파트 201동 맞은편","서초구","서울특별시 서초구 고무래로 94","37.50065231","127.0186157","2017-06-01","20","","LCD"
"1533",2213,"고속터미널역 5번출구 앞","서초구","서울특별시 서초구 신반포로 지하 188","37.5022316","127.0022583","2017-06-01","20","","LCD"
"1534",2214,"신반포역 2번출구 앞","서초구","서울특별시 서초구 신반포로 지하 105","37.50411606","126.9974899","2017-06-01","15","","LCD"
"1535",2215,"반포종합운동장 입구","서초구","서울특별시 서초구 신반포로16길 30","37.5017128","126.9954758","2017-06-27","10","","LCD"
"1536",2217,"아크로리버뷰 부지 앞","서초구","서초구 잠원동 78","37.51304626","127.0059586","2017-06-01","20","","LCD"
"1537",2219,"고속터미널역 8-1번, 8-2번 출구 사이","서초구","서울특별시 서초구 신반포로 지하 188","37.50619888","127.0039444","2017-06-01","20","","LCD"
"1538",2220,"반포본동 주민센터 앞","서초구","서울특별시 서초구 신반포로 10","37.50061417","126.9861603","2017-06-01","10","","LCD"
"1539",2221,"하나은행 방배동지점 앞","서초구","서울특별시 서초구 방배로 110","37.48561096","126.9946823","2017-06-01","15","","LCD"
"1540",2222,"사당역 12번출구 뒤","서초구","서울특별시 동작구 동작대로 지하 3","37.47806931","126.9820328","2017-06-01","10","","LCD"
"1541",2223,"방배래미안 정문 앞","서초구","서울특별시 서초구 남부순환로 2183","37.47261047","126.9830093","2017-06-01","20","","LCD"
"1542",2225,"백석예술대학교 제3캠퍼스 앞","서초구","서울특별시 서초구 방배로9길 23","37.4737587","126.9952469","2017-06-01","15","","LCD"
"1543",2226,"신동아럭스빌아파트 앞","서초구","서울특별시 서초구 방배로1길 9","37.47518158","127.0013886","2017-06-01","15","","LCD"
"1544",2227,"방배열린문화센터 앞","서초구","서울특별시 서초구 서초대로 지하 103","37.48905182","126.9925232","2017-06-01","15","","LCD"
"1545",2228,"뒷벌공원 옆","서초구","서울특별시 서초구 방배중앙로 131","37.48958588","126.9867249","2017-06-01","20","","LCD"
"1546",2229,"로고스교회 맞은 편","서초구","서울특별시 서초구 방배천로 126","37.48701096","126.9849625","2017-06-01","10","","LCD"
"1547",2230,"이수역 4번 출구","서초구","서울특별시 동작구 사당로 지하 310","37.4858284","126.9826279","2017-06-01","20","","LCD"
"1548",2231,"삼성타운(삼성생명) A동 맞은편","서초구","서울특별시 서초구 서초대로 405","37.49691391","127.0249634","2017-06-01","15","","LCD"
"1549",2233,"서초신동아1차아파트 옆","서초구","서울특별시 서초구 효령로36길 22","37.49111176","127.0229569","2017-06-01","20","","LCD"
"1550",2235,"KT 서초지사 앞","서초구","서울특별시 서초구 사평대로 73","37.48215866","127.0027008","2017-06-01","15","","LCD"
"1551",2237,"서울남부터미널 대합실 입구","서초구","서울특별시 서초구 서초중앙로 지하 31","37.48455811","127.0148697","2017-06-01","20","","LCD"
"1552",2239,"교대역 6번출구","서초구","서울특별시 서초구 서초대로 지하 294","37.49421692","127.0137863","2017-06-01","10","","LCD"
"1553",2241,"양재전화국 사거리","서초구","서울특별시 강남구 논현로 201","37.48537827","127.0417023","2017-06-01","11","","LCD"
"1554",2242,"양재역 11번 출구 앞","서초구","서울특별시 서초구 남부순환로 지하 2585","37.48398972","127.0341797","2017-06-01","20","","LCD"
"1555",2243,"서울가정법원","서초구","서울특별시 서초구 강남대로 193","37.48149109","127.0367279","2017-06-01","15","","LCD"
"1556",2244,"교육개발원입구 교차로","서초구","서울특별시 서초구 바우뫼로1길 35","37.47785187","127.0389099","2020-09-24","","20","QR"
"1557",2245,"양재초등학교 맞은편","서초구","서울특별시 서초구 바우뫼로18길 14","37.47361374","127.03051","2017-06-01","20","","LCD"
"1558",2246,"서울시 품질시험소 앞","서초구","서울특별시 서초구 태봉로 131","37.46920013","127.029007","2017-06-24","15","","LCD"
"1559",2247,"섬들근린공원","서초구","서울특별시 서초구 태봉로2길 24","37.46263885","127.026619","2017-06-01","25","","LCD"
"1560",2248,"서초리슈빌S 글로벌 앞","서초구","서울특별시 서초구 양재대로2길 8","37.45995331","127.0247421","2017-06-27","10","","LCD"
"1561",2249,"우솔초등학교 맞은편","서초구","서울특별시 서초구 양재대로2길 74","37.45623398","127.0193481","2017-06-22","10","","LCD"
"1562",2250,"서초유치원 맞은편","서초구","서울특별시 서초구 양재대로2길 74","37.4557991","127.0162888","2017-06-22","10","","LCD"
"1563",2251,"더케이호텔 입구(양재2)","서초구","서울특별시 서초구 바우뫼로12길 70","37.46750641","127.0344772","2017-06-13","10","","LCD"
"1564",2252,"하이브랜드 앞","서초구","서울특별시 서초구 매헌로 16","37.46332169","127.0360413","2017-06-24","25","","LCD"
"1565",2255,"시민의숲역 1번출구 옆","서초구","서울특별시 서초구 매헌로 지하 116","37.47043991","127.0388565","2017-06-01","25","","LCD"
"1566",2256,"양재동 꽃시장 입구","서초구","서울특별시 서초구 강남대로 27","37.46768951","127.0403595","2017-06-01","10","","LCD"
"1567",2257,"하나로클럽 양재점 맞은편","서초구","서울특별시 서초구 청계산로 10","37.46268845","127.0461121","2017-06-01","10","","LCD"
"1568",2258,"구룡사 삼거리","서초구","서울특별시 강남구 논현로2길 22","37.47153854","127.0505905","2017-06-01","20","","LCD"
"1569",2259,"잠원역 3번-4번 출구사이","서초구","서울특별시 서초구 잠원로4길 지하 46","37.51298904","127.0111771","2017-06-13","15","","LCD"
"1570",2262,"한신16차아파트 119동 앞","서초구","서울특별시 서초구 나루터로4길 60","37.5161972","127.0092087","2017-06-01","20","","LCD"
"1571",2263,"바우뫼문화복지회관","서초구","서울특별시 서초구 바우뫼로 43","37.47192764","127.0268402","2017-06-22","20","","LCD"
"1572",2264,"이수역 1번출구","서초구","서울특별시 서초구 동작대로 134","37.48855591","126.9825745","2017-06-22","9","","LCD"
"1573",2265,"이수고가차도 남단","서초구","서울특별시 서초구 동작대로 204 청남빌딩","37.49474335","126.9830627","2017-08-09","10","","LCD"
"1574",2266,"서초역 3번출구","서초구","서울특별시 서초동 1748-14","37.49053955","127.0081635","2017-11-01","15","","LCD"
"1575",2268,"서초4동주민센터","서초구","서울특별시 서초동 1389","37.50231934","127.0222702","2017-11-01","10","","LCD"
"1576",2269,"주홍교 하부","서초구","서울특별시 잠원동 91-29","37.51034927","127.0160523","2017-11-01","10","","LCD"
"1577",2270,"서초포레스타 7단지","서초구","서울특별시 신원동 266","37.44896698","127.0577393","2017-11-01","10","","LCD"
"1578",2271,"내방역 8번출구 앞","서초구","서울특별시 서초구 방배로 162","37.48802185","126.9941177","2017-11-01","8","","LCD"
"1579",2272,"교대입구 교차로","서초구","서울특별시 서초동 1748-33","37.4873085","127.010582","2017-11-01","10","","LCD"
"1580",2273,"일동제약 사거리","서초구","서울특별시 양재동 67-12","37.47782898","127.038269","2017-11-01","10","","LCD"
"1581",2274,"양재시민의숲역 3번출구","서초구","서울특별시 양재동 316-11","37.46965027","127.0396118","2017-11-01","10","","LCD"
"1582",2275,"염곡치안센터 건너편","서초구","서울특별시 염곡동 260-1","37.46157837","127.0487976","2017-11-01","10","","LCD"
"1583",2276,"영동1교 (양재천근린공원)","서초구","서울특별시 양재동 261-23","37.47438812","127.0389023","2017-11-01","15","","LCD"
"1584",2277,"길마중4교 하부","서초구","서울특별시 잠원동 84-3","37.51486969","127.0152817","2017-11-01","10","","LCD"
"1585",2279,"교대역 5번출구뒤","서초구","서울특별시 서초구 서초중앙로 130","37.49361801","127.014183","2017-11-28","10","","LCD"
"1586",2280,"서울서초고용센터앞","서초구","서울특별시 서초구 반포대로 43","37.48416138","127.0109711","2018-09-20","10","","LCD"
"1587",2281,"연세사랑병원신관앞","서초구","서울특별시 서초구 효령로 10","37.47597885","126.9862824","2017-11-28","7","","LCD"
"1588",2282,"방배래미안아트힐 101동앞","서초구","서울특별시 서초구 남부순환로 2311-12","37.47720337","127.0058365","2017-11-28","15","","LCD"
"1589",2283,"그룹한빌딩옆","서초구","서울특별시 서초구 서초대로 62","37.48652649","126.9891663","2017-11-28","10","","LCD"
"1590",2284,"CJ오쇼핑앞","서초구","서울특별시 서초구 과천대로 870-13","37.4681015","126.9868012","2017-11-28","10","","LCD"
"1591",2285,"LH서초3단지 301동 맞은편","서초구","서울특별시 서초구 양재대로2길 33","37.45742416","127.0226517","2017-11-28","15","","LCD"
"1592",2286,"탑성마을입구","서초구","서울특별시 서초구 탑성말길 2","37.4585495","127.0558853","2017-11-28","10","","LCD"
"1593",2287,"능안마을입구","서초구","서울특별시 서초구 능안말길 1-2","37.45561981","127.0671005","2017-11-28","10","","LCD"
"1594",2288,"안골마을입구","서초구","서울특별시 서초구 안골2길 3","37.45560837","127.0644531","2017-11-28","10","","LCD"
"1595",2289,"남태령역 2번출구","서초구","서울특별시 서초구 과천대로 810","37.46429825","126.9885254","2017-11-28","10","","LCD"
"1596",2293,"SPC 앞","서초구","서울특별시 서초구 남부순환로 2620","37.48479843","127.0369949","2017-12-22","10","","LCD"
"1597",2294,"두상빌딩 앞","서초구","서울특별시 서초구 언남길 87","37.47590637","127.0462418","2017-12-22","15","","LCD"
"1598",2297,"남부터미널역 1번출구","서초구","서울특별시 서초구 서초중앙로 38","37.485672","127.0159226","2018-02-26","10","","LCD"
"1599",2298,"래미안서초스위트앞","서초구","서울특별시 서초구 서운로 221","37.50241089","127.0216065","2018-02-26","12","","LCD"
"1600",2299,"한전아트센터 앞","서초구","서울특별시 서초구 효령로72길 60","37.48646927","127.0280609","2018-10-17","12","","LCD"
"1601",2301,"현대고등학교 건너편","강남구","서울특별시 강남구 압구정로 134","37.52407074","127.0217896","2017-06-13","10","","LCD"
"1602",2302,"교보타워 버스정류장(신논현역 3번출구 후면)","강남구","서울특별시 강남구 봉은사로 지하 102","37.5055809","127.0242767","2017-06-13","10","","LCD"
"1603",2303,"논현역 7번출구","강남구","서울특별시 강남구 학동로 지하 102","37.51151657","127.0214768","2017-06-13","15","","LCD"
"1604",2304,"신영 ROYAL PALACE 앞","강남구","서울특별시 강남구 언주로 626","37.51252747","127.0358353","2017-06-13","10","","LCD"
"1605",2305,"MCM 본사 직영점 앞","강남구","서울특별시 강남구 언주로 734","37.52064133","127.0345078","2017-06-13","10","","LCD"
"1606",2306,"압구정역 2번 출구 옆","강남구","서울특별시 강남구 압구정로 지하 172","37.5271225","127.028717","2017-06-13","30","","LCD"
"1607",2307,"압구정 한양 3차 아파트","강남구","서울특별시 강남구 압구정로 321","37.52838135","127.0390167","2017-06-13","10","","LCD"
"1608",2308,"압구정파출소 앞","강남구","서울특별시 강남구 압구정로 311","37.52930069","127.0355988","2017-06-13","14","","LCD"
"1609",2309,"청담역(우리들병원 앞)","강남구","서울특별시 강남구 학동로 443","37.51890182","127.0493851","2017-06-13","10","","LCD"
"1610",2310,"청담동 맥도날드 옆(위치)","강남구","서울특별시 강남구 학동로 지하 508","37.52361298","127.0401764","2017-06-13","10","","LCD"
"1611",2311,"학동로 래미안 아파트 앞","강남구","서울특별시 강남구 학동로 지하 508","37.51777267","127.0430222","2017-06-13","10","","LCD"
"1612",2312,"청담역 13번 출구 앞","강남구","서울특별시 강남구 영동대로 703","37.52058029","127.0563278","2017-06-13","10","","LCD"
"1613",2313,"금원빌딩 앞","강남구","서울특별시 강남구 도산대로 539","37.52511597","127.0524674","2017-06-13","10","","LCD"
"1614",2314,"청담나들목입구","강남구","서울특별시 강남구 영동대로128길 59","37.52127457","127.0610352","2017-06-13","10","","LCD"
"1615",2315,"봉은사역 5번출구 옆","강남구","서울특별시 강남구 봉은사로 지하 601","37.51424789","127.0611191","2017-06-13","10","","LCD"
"1616",2316,"삼성역 8번출구","강남구","서울특별시 강남구 영동대로 502","37.50957489","127.0634079","2017-06-13","20","","LCD"
"1617",2317,"삼성도로공원","강남구","서울특별시 강남구 영동대로112길 66","37.51588821","127.0662003","2017-06-13","10","","LCD"
"1618",2318,"삼성중앙역4번출구(문화센터더 리빌)","강남구","서울특별시 강남구 봉은사로 531","37.51357651","127.0550308","2017-06-13","15","","LCD"
"1619",2319,"포스코사거리 서측(수협 삼성동 지점)","강남구","서울특별시 강남구 테헤란로 435","37.50660706","127.0546799","2017-06-13","10","","LCD"
"1620",2320,"도곡역 대치지구대 방향","강남구","서울특별시 강남구 남부순환로 지하 2814","37.4919281","127.0569687","2017-06-13","10","","LCD"
"1621",2321,"학여울역 사거리","강남구","서울특별시 강남구 남부순환로 지하 3104","37.49611664","127.0694428","2017-06-13","10","","LCD"
"1622",2322,"삼성역 3번 출구","강남구","서울특별시 강남구 테헤란로 534","37.50809097","127.0631027","2017-06-13","15","","LCD"
"1623",2323,"주식회사 오뚜기 정문 앞","강남구","서울특별시 강남구 영동대로 308","37.50221252","127.0672073","2017-06-13","10","","LCD"
"1624",2324,"천주교 대치 2동 교회 옆","강남구","서울특별시 강남구 도곡로 540","37.50043869","127.0662231","2017-06-13","10","","LCD"
"1625",2325,"대치동 버거킹대치점","강남구","서울특별시 강남구 도곡로 447","37.4986496","127.0593185","2017-06-13","10","","LCD"
"1626",2326,"대치동 삼성로","강남구","서울특별시 강남구 삼성로 350","37.50239563","127.0587997","2017-06-13","10","","LCD"
"1627",2327,"뱅뱅사거리 랜드마크타워 앞","강남구","서울특별시 강남구 강남대로 308","37.49055099","127.0314636","2017-06-13","15","","LCD"
"1628",2328,"르네상스 호텔 사거리 역삼지하보도 7번출구 앞","강남구","서울특별시 강남구 언주로 506","37.50321198","127.0427322","2017-06-13","10","","LCD"
"1629",2329,"르네상스호텔사거리 역삼지하보도 2번출구","강남구","서울특별시 강남구 테헤란로 지하 156","37.50235748","127.04319","2017-06-13","10","","LCD"
"1630",2330,"스타벅스 앞","강남구","서울특별시 강남구 도곡로 183","37.49219894","127.0394592","2017-06-13","10","","LCD"
"1631",2331,"동영문화센터앞","강남구","서울특별시 강남구 언주로 337","37.49805069","127.0446014","2017-06-13","20","","LCD"
"1632",2332,"선릉역3번출구","강남구","서울특별시 강남구 선릉로 435","37.50420761","127.0489655","2017-06-13","15","","LCD"
"1633",2333,"양재역 3번출구 주변","강남구","서울특별시 강남구 강남대로 240","37.48515701","127.0340729","2017-06-13","15","","LCD"
"1634",2334,"삼호아파트 2동 ( 간선도로)","강남구","서울특별시 강남구 선릉로 지하 228","37.49375916","127.0458984","2017-06-13","15","","LCD"
"1635",2335,"3호선 매봉역 3번출구앞","강남구","서울특별시 강남구 남부순환로 2748","37.48676682","127.0467606","2017-06-13","10","","LCD"
"1636",2336,"강남세브란스교차로 래미안그레이튼 104동 앞","강남구","서울특별시 강남구 선릉로 지하 228","37.49423599","127.0474625","2017-06-13","10","","LCD"
"1637",2337,"대모산입구역 2번출구 앞","강남구","서울특별시 강남구 영동대로 101","37.49207687","127.0719757","2017-06-13","15","","LCD"
"1638",2339,"현대아파트 정문 앞","강남구","서울특별시 강남구 언주로 107","37.48326111","127.0522995","2017-06-13","10","","LCD"
"1639",2340,"삼호물산버스정류장(23370) 옆","강남구","서울특별시 강남구 논현로 82","37.47750854","127.0451737","2017-06-13","15","","LCD"
"1640",2341,"일원역 4~5번 출구 사이","강남구","서울특별시 강남구 일원로 127","37.4833107","127.0849381","2017-06-13","10","","LCD"
"1641",2342,"대청역 1번출구 뒤","강남구","서울특별시 강남구 개포로 623","37.49400711","127.0795136","2017-06-13","10","","LCD"
"1642",2343,"세곡사거리 대왕파출소 앞","강남구","서울특별시 강남구 헌릉로 623","37.46531677","127.1077271","2017-06-13","10","","LCD"
"1643",2344,"리엔파크 2단지 앞","강남구","서울특별시 강남구 헌릉로590길 10","37.46506119","127.1011963","2017-06-13","10","","LCD"
"1644",2347,"두산건설 본사","강남구","서울특별시 강남구 언주로 726","37.51863861","127.0354004","2017-08-22","15","","LCD"
"1645",2348,"포스코사거리(기업은행)","강남구","서울특별시 강남구 테헤란로 501","37.50723267","127.0568543","2020-11-24","","20","QR"
"1646",2349,"역삼빌딩 앞(하나은행 옆)","강남구","서울특별시 강남구 테헤란로 지하 156","37.50154495","127.0385666","2017-08-21","10","","LCD"
"1647",2350,"래미안그레이튼102동앞","강남구","서울특별시 강남구 선릉로69길 19","37.49482346","127.047905","2017-08-21","10","","LCD"
"1648",2351,"청소년수련관(수영장)앞","강남구","서울특별시 강남구 광평로 144","37.48387909","127.0890274","2017-08-01","15","","LCD"
"1649",2352,"서울본부세관(건설회관 앞)","강남구","서울특별시 강남구 언주로 721","37.51758957","127.0350266","2017-08-22","10","","LCD"
"1650",2353,"강남구청역 2번출구 뒤","강남구","서울특별시 강남구 학동로 342","37.51681137","127.0404739","2017-08-22","10","","LCD"
"1651",2354,"청담역 2번출구","강남구","서울특별시 강남구 영동대로 647","37.51978683","127.0567627","2017-08-21","5","","LCD"
"1652",2355,"삼성역 5~6번 출구 사이","강남구","서울특별시 강남구 봉은사로 524","37.50912094","127.0623093","2017-08-21","25","","LCD"
"1653",2356,"강남구청","강남구","서울특별시 강남구 학동로 지하 346","37.51807022","127.0471191","2017-08-21","10","","LCD"
"1654",2357,"르네상스호텔사거리 역삼지하보도 3번출구 앞 (더 오번","강남구","서울특별시 강남구 언주로89길 7","37.50194931","127.0427704","2017-08-25","15","","LCD"
"1655",2358,"구룡초사거리 (현대아파트10동 앞 )","강남구","서울특별시 강남구 개포로 303","37.48138428","127.0539169","2017-08-21","10","","LCD"
"1656",2359,"국립국악중,고교 정문 맞은편","강남구","서울특별시 강남구 논현로10길 29","37.47560501","127.0503769","2017-08-21","10","","LCD"
"1657",2360,"도곡1동 주민센터 교차로","강남구","서울특별시 강남구 도곡로 205","37.4928093","127.0413895","2017-08-21","15","","LCD"
"1658",2361,"압구정역 교차로","강남구","서울특별시 강남구 신사동 580-7","37.52684402","127.0282593","2017-11-01","10","","LCD"
"1659",2362,"신사동 가로수길 입구","강남구","서울특별시 강남구 신사동 501-5","37.51763535","127.0224533","2017-11-01","10","","LCD"
"1660",2363,"강남 을지병원 교차로","강남구","서울특별시 강남구 도산대로 172 ","37.51913834","127.0275192","2017-11-01","15","","LCD"
"1661",2364,"도산대로 렉서스 앞","강남구","서울특별시 강남구 도산대로 229 ","37.52124023","127.0318985","2017-11-01","10","","LCD"
"1662",2365,"K+ 타워 앞","강남구","서울특별시 강남구 도산대로 333 ","37.52330017","127.038475","2017-11-01","15","","LCD"
"1663",2368,"도곡동 경남아파트 건너편","강남구","서울특별시 강남구 도곡동 874-1","37.48934174","127.0412979","2017-11-01","10","","LCD"
"1664",2369,"KT선릉타워","강남구","서울특별시 강남구 대치동 1011","37.50542831","127.0528717","2017-11-01","20","","LCD"
"1665",2370,"한티역 3번출구","강남구","서울특별시 강남구 대치동 1026","37.49655151","127.0542984","2017-11-01","20","","LCD"
"1666",2371,"한국우편사업진흥원","강남구","서울특별시 강남구 언주로 651","37.51474762","127.0351334","2017-11-01","10","","LCD"
"1667",2372,"대치역 사거리","강남구","서울특별시 강남구 삼성로 156 ","37.49449921","127.063797","2017-11-01","10","","LCD"
"1668",2373,"개포동역 사거리","강남구","서울특별시 강남구 개포동 181-3","37.48927689","127.0655747","2017-11-01","20","","LCD"
"1669",2375,"수서역 1번출구 앞","강남구","서울특별시 강남구 수서동 728","37.48735046","127.1009979","2017-11-01","10","","LCD"
"1670",2376,"수서역 6번출구 앞","강남구","서울특별시 강남구 수서동 740","37.48677826","127.1005173","2017-11-01","20","","LCD"
"1671",2377,"수서역 5번출구 뒤","강남구","서울특별시 강남구 수서동 724-4","37.48683548","127.1027527","2017-11-01","10","","LCD"
"1672",2380,"삼성동베이직하우스앞","강남구","서울특별시 강남구 봉은사로 456","37.51169586","127.0493469","2017-11-28","15","","LCD"
"1673",2381,"언주역 6번출구앞","강남구","서울특별시 강남구 논현로 566","37.50636673","127.034523","2017-11-28","8","","LCD"
"1674",2382,"역삼동 sk뷰 501동앞","강남구","서울특별시 강남구 역삼로 315-1","37.50134277","127.0504684","2017-11-28","11","","LCD"
"1675",2383,"보금자리정원","강남구","서울특별시 강남구 헌릉로569길 39-6","37.46632767","127.0948868","2017-11-28","10","","LCD"
"1676",2384,"자곡사거리","강남구","서울특별시 강남구 밤고개로 206","37.47602844","127.1059418","2017-12-22","10","","LCD"
"1677",2385,"학동역","강남구","서울특별시 강남구 학동로 지하 180","37.51395035","127.0301514","2017-12-22","10","","LCD"
"1678",2386,"크린랩 본사","강남구","논현동 279-166","37.50958633","127.0409088","2020-08-10","","10","QR"
"1679",2387,"래미안강남힐즈 사거리","강남구","서울특별시 강남구 자곡로 101","37.47245407","127.096077","2018-02-26","10","","LCD"
"1680",2388,"강남구 도시관리공단","강남구","강남구 삼성동 111-61","37.51678467","127.0516129","2018-07-04","10","","LCD"
"1681",2389,"경기여자고등학교 후문 (삼성로3길 입구)","강남구","강남구 개포동 198","37.48616028","127.0672379","2018-11-04","15","","LCD"
"1682",2390,"구룡마을 입구 (래미안블레스티지 아파트)","강남구","강남구 개포동 146-1","37.48088074","127.0630417","2018-10-08","10","","LCD"
"1683",2391,"구룡터널 입구(개포1단지아파트)","강남구","강남구 개포동 146-1","37.47598648","127.0596237","2018-10-08","10","","LCD"
"1684",2392,"구룡산 입구 (구룡산 서울둘레길 입구)","강남구","강남구 개포동 1277","37.47447205","127.0554504","2018-10-08","15","","LCD"
"1685",2393,"구룡사 앞 교차로 (보도육교)","강남구","강남구 개포동 1277","37.47200012","127.0513382","2018-10-08","10","","LCD"
"1686",2394,"개포래미안포레스트아파트 107동 앞","강남구","강남구 개포로 264","37.48029709","127.0542603","2020-12-04","","10","QR"
"1687",2395,"개포1단지아파트 입구 (보도육교)","강남구","강남구 개포동 659","37.47929001","127.0557327","2018-10-08","10","","LCD"
"1688",2396,"영동3교 북단(우성캐릭터 앞 보도)","강남구","강남구 도곡동 466","37.48574066","127.0510483","2018-10-08","15","","LCD"
"1689",2398,"더라움","강남구","강남구 역삼동 801-7","37.50811005","127.0394516","2018-10-30","10","","LCD"
"1690",2401,"밀알학교 입구 (삼성서울병원 입구)","강남구","강남구 일원동 128-10","37.48656082","127.0826721","2018-09-14","15","","LCD"
"1691",2403,"공무원연금매점 교차로 (개포주공9단지 입구)","강남구","강남구 일원동 703-2","37.48871994","127.0745392","2018-10-08","15","","LCD"
"1692",2404,"대모산입구역 4번 출구 앞","강남구","강남구 일원동 700-1","37.49180984","127.0731583","2018-10-08","10","","LCD"
"1693",2405,"청담공원앞 교차로","강남구","강남구 삼성동 111-44","37.51871109","127.0508499","2018-10-08","20","","LCD"
"1694",2406,"논현동 광명빌딩 앞","강남구","강남구 논현동 279","37.5175705","127.0236435","2018-11-04","10","","LCD"
"1695",2407,"역삼.서초.삼성 세무서 앞 (역삼빌딩 앞)","강남구","강남구 역삼동 804","37.49847031","127.0301132","2018-09-18","10","","LCD"
"1696",2408,"강남한양수자인아파트","강남구","강남구 자곡로 260","37.4773407","127.1132736","2018-10-02","14","","LCD"
"1697",2409,"역삼동 디오슈페리움 (우성아파트 사거리)","강남구","강남구 역삼동 858(강남대로 342 앞 도로)","37.49206161","127.0307465","2018-11-14","20","","LCD"
"1698",2410,"포스코피앤에스타워 (역삼역 3번출구 부근)","강남구","강남구 역삼동 804(강남구 테헤란로 134 앞 보도)","37.49959946","127.0337524","2020-12-31","","10","QR"
"1699",2411,"세곡동 성당","강남구","강남구 율현동 165-2(강남구 밤고개로21길 50)","37.47296906","127.1122284","2019-02-25","15","","LCD"
"1700",2412,"일원1동 주민센터","강남구","강남구 일원동 712-5 ","37.49179077","127.0882111","2018-11-14","15","","LCD"
"1701",2413,"도곡역 1번 출구","강남구","남부순환로 2814","37.49095917","127.0549851","2020-02-18","","20","QR"
"1702",2414,"도곡역 아카데미스위트 앞","강남구","언주로30길 21","37.48897171","127.0518265","2020-02-18","","20","QR"
"1703",2415,"한티역 롯데백화점 앞","강남구","선릉로 228","37.49667358","127.0534287","2020-02-14","","15","QR"
"1704",2416,"한티역 6번 출구","강남구","선릉로 227","37.4958992","127.0521927","2020-02-14","","10","QR"
"1705",2417,"선정릉 디캠프(D.CAMP)앞","강남구","선릉로 551","37.50799942","127.0452499","2020-02-14","","10","QR"
"1706",2418,"봉은사역 7번 출구","강남구","봉은사로 601","37.51393509","127.0598221","2020-02-14","","10","QR"
"1707",2419,"봉은사역 1,2번 출구","강남구","봉은사로 601","37.51430893","127.0597","2020-02-14","","20","QR"
"1708",2420,"학여울역 사거리(LG베스트샵 앞)","강남구","영동대로 202","37.49689484","127.070137","2020-02-18","","20","QR"
"1709",2421,"신논현역 4번출구","강남구","봉은사로 110","37.504673","127.025795","2020-02-14","","15","QR"
"1710",2422,"수서동 성당 맞은편","강남구","광평로34길 202","37.48416901","127.0948486","2020-02-18","","10","QR"
"1711",2423,"영희초교 사거리(래미안개포루체하임)","강남구","개포로110길 50","37.4908371","127.0806503","2020-02-18","","10","QR"
"1712",2425,"세곡동 사거리(대왕초등학교 정류장)","강남구","헌릉로618길 8","37.46461868","127.1068497","2020-02-18","","20","QR"
"1713",2426,"강남한신휴플러스 6단지","강남구","강남구 율현동 333-1","37.46829605","127.1046982","2020-02-18","","10","QR"
"1714",2427,"개포고등학교 정문앞","강남구","강남구 개포로402","37.48485184","127.0583725","2020-02-18","","10","QR"
"1715",2428,"롯데리아 개포점앞","강남구","강남구 선릉로26","37.48236847","127.0611877","2020-02-18","","10","QR"
"1716",2429,"압구정로데오역 6번출구","강남구","선릉로845","37.52745438","127.0404282","2020-02-14","","10","QR"
"1717",2430,"강남파이낸스센터앞(역삼역2번출구)","강남구","테헤란로152","37.50024414","127.0360565","2020-02-14","","10","QR"
"1718",2431,"대치역 7번출구","강남구","남부순환로155","37.49411774","127.0629044","2020-02-18","","10","QR"
"1719",2501,"서초 포레스타5단지","서초구","신원동 347-6","37.45066071","127.0570602","2018-09-03","10","","LCD"
"1720",2502,"서초역1번출구 앞","서초구","서초동 1553-21","37.49195099","127.0085526","2018-10-02","9","","LCD"
"1721",2503,"반포1동 서초빌딩 앞","서초구","반포동 749-35","37.50381088","127.0213623","2018-10-02","10","","LCD"
"1722",2504,"신사역 4번출구 뒤","서초구","잠원동 88","37.51588058","127.0193024","2018-10-30","10","","LCD"
"1723",2505,"우성아파트사거리 (기업은행앞)","서초구","서초동 1374","37.49325943","127.0295334","2018-09-18","12","","LCD"
"1724",2506,"LG유플러스 (방배사옥)","서초구","방배동 980-53","37.47909164","126.9906769","2018-09-18","10","","LCD"
"1725",2508,"양재이스타빌 앞","서초구","양재동 4(양재동 3-14 앞)","37.48297882","127.0422592","2018-09-18","10","","LCD"
"1726",2509,"KT반포지사","서초구","서초구 반포동 128-13","37.49845505","126.9933395","2018-09-18","16","","LCD"
"1727",2510,"JW타워","서초구","서초구 서초동 1748-45","37.48303986","127.0214615","2019-03-26","8","","LCD"
"1728",2511,"이수역 6번출구 앞","서초구","서초구 방배동 438-35","37.48366165","126.9823227","2019-03-14","10","","LCD"
"1729",2514,"사평역 2번출구","서초구","서울시 서초구 반포동 30-5 ","37.50364304","127.0160217","2020-02-20","","10 ","QR"
"1730",2515,"서초초등학교 후문","서초구","서울시 서초구 서운로 178","37.49892807","127.0247269","2020-02-20","","15 ","QR"
"1731",2516,"본마을 노인복지센터 앞","서초구","서울특별시 서초구 본마을2길 2","37.45441818","127.052742","2020-02-19","","10 ","QR"
"1732",2517,"서초3교(효령로69길 방면)","서초구","서울특별시 서초구 효령로69길","37.48768234","127.0247879","2020-02-19","","20 ","QR"
"1733",2518,"서초3교(효령로70길 방면)","서초구","서울특별시 서초구 효령로70길","37.48731613","127.0248947","2020-02-19","","20 ","QR"
"1734",2519,"서초2교(사임당로 방면)","서초구","서울특별시 서초구 사임당로137","37.49100876","127.0235214","2020-02-20","","15 ","QR"
"1735",2520,"서초1교 (진흥아파트 방면)","서초구","서초구 서초대로65길","37.49619293","127.0210114","2020-02-20","","20 ","QR"
"1736",2521,"서초 크로바타워 앞","서초구","서초구 서초대로 347","37.49556351","127.0191803","2020-02-20","","13 ","QR"
"1737",2523,"뉴코아 킴스클럽 앞","서초구","서초구 잠원로 51","37.51019287","127.0072556","2020-02-21","","10 ","QR"
"1738",2524,"반포쇼핑타운 8동 앞","서초구","서초구 신반포로 219 반포쇼핑타운","37.50735092","127.0080185","2020-02-21","","10 ","QR"
"1739",2525,"반포쇼핑타운 2동 앞","서초구","서초구 신반포로 165 ","37.5056076","127.0021591","2020-02-21","","15 ","QR"
"1740",2526,"반포경남쇼핑 앞","서초구","서초구 신반포로 143 ","37.50478745","126.9999237","2020-02-21","","10 ","QR"
"1741",2527,"반포중학교 앞(세화여고 맞은편)","서초구","서초구 신반포로67","37.50296021","126.9935989","2020-02-21","","10 ","QR"
"1742",2528,"함지박 사거리","서초구","서초구 방배로 230-1 ","37.4937706","126.9900665","2020-02-23","","10 ","QR"
"1743",2529,"우리은행 방배동지점 앞","서초구","서초구 방배로 183","37.48991776","126.9920807","2020-02-23","","12 ","QR"
"1744",2530,"삼호3차아파트 앞","서초구","서초구 방배동 757-3","37.4977951","126.9870682","2020-02-23","","15 ","QR"
"1745",2531,"멤피스아파트 앞","서초구","서초구 방배로 245","37.49420547","126.989357","2020-02-23","","10 ","QR"
"1746",2532,"국립국악원 앞","서초구","서초구 남부순환로 2364","37.47820282","127.0087814","2020-02-19","","10 ","QR"
"1747",2533,"한가람미술관 앞","서초구","서초구 남부순환로 2406","37.48087692","127.0145264","2020-02-19","","10 ","QR"
"1748",2534,"신흥교(애견훈련소)","서초구","서초구 내곡동 1-3031 ","37.45563126","127.0809784","2020-02-19","","10 ","QR"
"1749",2535,"신반포역 3번출구 뒤","서초구","서초구 신반포로 ","37.50362396","126.9973221","2020-02-21","","15 ","QR"
"1750",2536,"서초종합체육관 입구","서초구","서초구 원지동 28","37.45924759","127.0416336","2020-02-19","","20 ","QR"
"1751",2537,"양재역 8번출구 앞","서초구","서초구 양재동","37.48257065","127.036438","2020-02-20","","10 ","QR"
"1752",2538,"사평리 공원","서초구","서초구 잠원동 51","37.52026749","127.0152512","2020-02-20","","10 ","QR"
"1753",2539,"대한무역투자진흥공사 KOTRA 앞","서초구","서초구 헌릉로 13","37.46540833","127.0437775","2020-02-19","","10 ","QR"
"1754",2540,"반포천 앞","서초구","서초구 사평대로 108 ","37.49905014","126.996254","2020-02-21","","10 ","QR"
"1755",2541,"옛골 입구","서초구","청계산로 434","37.43097687","127.0703354","2020-02-19","","15 ","QR"
"1756",2542,"신논현역2번출구(신논현타워 앞)","서초구","서초구 강남대로 479","37.50508881","127.0239105","2020-02-14","","10 ","QR"
"1757",2545,"국립중앙도서관(국제회의장옆)","서초구","반포동 산60-1","37.49721146","127.0042725","2020-02-21","","18 ","QR"
"1758",2547,"포드서초서비스센터앞","서초구","잠원동 55-1","37.51904678","127.0122833","2020-05-28","","10 ","QR"
"1759",2548,"반포1동 자율방범초소 옆","서초구","반포동 28-4","37.50847626","127.0167618","2020-06-15","","10 ","QR"
"1760",2549,"LH 서초 4단지 403동","서초구","우면동 788","37.45924759","127.0239029","2020-06-15","","10 ","QR"
"1761",2550,"양재동 꽃시장 건너편","서초구","양재동 351","37.46738434","127.0414581","2020-06-15","","10 ","QR"
"1762",2601,"석촌호수 서호사거리","송파구","송파구 삼학사로 136","37.5067482","127.0988312","2018-09-12","10","","LCD"
"1763",2603,"송파 글마루 도서관","송파구","송파구 충민로 1206","37.48080063","127.1303406","2018-09-14","10","","LCD"
"1764",2604,"삼표레미콘 앞","송파구","송파구 풍납동 307-4","37.53131104","127.1112824","2018-09-14","10","","LCD"
"1765",2605,"복정역 1번 출구 앞","송파구","송파구 장지동 602-18","37.47129822","127.1270905","2018-09-14","15","","LCD"
"1766",2606,"위례동주민센터 맞은편 근린공원","송파구","송파구 거여동 497","37.48173904","127.1432266","2018-09-14","10","","LCD"
"1767",2607,"복정역 2번출구 후문 (장지치안센터)","송파구","송파구 장지동 600-31","37.47064972","127.1271133","2018-11-05","15","","LCD"
"1768",2608,"송파구청","송파구","송파구 올림픽로 326","37.51435852","127.1061935","2018-11-12","15","","LCD"
"1769",2609,"보성중고등학교 후문 앞","송파구","송파구 양재대로 1278","37.52048874","127.1352005","2018-11-14","10","","LCD"
"1770",2610,"여흥레이크빌 앞 (석촌호수 까페거리)","송파구","송파구 석촌호수로 278","37.51045227","127.1064072","2018-11-14","10","","LCD"
"1771",2611,"송파지역자활센터 뒤","송파구","송파구 풍성로 5길 16","37.53633118","127.1161804","2018-11-14","7","","LCD"
"1772",2612,"문정·가락 대여소 앞","송파구","송파구 중대로 2길 6","37.48871994","127.1098251","2018-11-14","10","","LCD"
"1773",2613,"잠실나들목","송파구","서울 송파구 잠실동 1","37.51678085","127.0904923","2018-11-14","18","","LCD"
"1774",2614,"가락고등학교 앞","송파구","서울 송파구 송이로 42","37.50186157","127.1172333","2018-11-14","15","","LCD"
"1775",2615,"테라타워2","송파구","송파대로 201","37.48834991","127.1207809","2018-11-14","15","","LCD"
"1776",2616,"거여동 사거리","송파구","송파구 문정로 196","37.49704742","127.1403503","2018-11-27","10","","LCD"
"1777",2617,"가락삼환아파트 앞","송파구","송파구 가락동 165-2","37.49618149","127.138031","2018-11-27","15","","LCD"
"1778",2618,"삼전역 1번출구","송파구","송파구 잠실동 289","37.50471115","127.0875626","2018-12-03","14","","LCD"
"1779",2619,"석촌고분역 5번출구","송파구","송파구 삼전동 90","37.50233841","127.0964432","2018-11-15","","9","QR"
"1780",2620,"송파나루역 4번 출구옆","송파구","송파구 송파동 3-15","37.50997925","127.1123123","2018-11-14","15","","LCD"
"1781",2621,"한성백제역 2번 출구","송파구","송파구 방이동 11","37.51665878","127.1162567","2018-11-14","15","","LCD"
"1782",2622,"올림픽공원역 3번출구","송파구","송파구 방이동 89-28","37.51625824","127.1305924","2018-11-14","20","","LCD"
"1783",2623,"석촌동 주민센터","송파구","송파구 석촌동 312","37.50362396","127.1035538","2020-01-17","","15 ","QR"
"1784",2625,"가락1동 주민센터","송파구","양재대로 925","37.4955368","127.1072006","2020-01-20","","15 ","QR"
"1785",2626,"경찰병원","송파구","가락동 59","37.49569321","127.1238556","2020-01-20","","15 ","QR"
"1786",2627,"문정시영아파트 5동 앞 공원","송파구","송이로 31길 56","37.4911232","127.135109","2020-01-20","","15 ","QR"
"1787",2628,"문정역 1번출구","송파구","문정동 55-13","37.48669815","127.1224442","2020-01-20","","15 ","QR"
"1788",2629,"문정동 힐스데이트 에코 송파","송파구","정의로 7길 13","37.48521805","127.1154022","2020-01-20","","15 ","QR"
"1789",2630,"서울방이동 고분군","송파구","방이동 17","37.50786591","127.1169891","2020-01-21","","12 ","QR"
"1790",2631,"배명고등학교","송파구","삼학사 11","37.49741364","127.0963059","2020-01-17","","15 ","QR"
"1791",2632,"석촌고분역 2번 출구","송파구","백제고분로 275","37.50264359","127.0973969","2020-01-17","","9 ","QR"
"1792",2633,"송파학사 옆","송파구","위례순환로 364","37.47813034","127.1472168","2020-01-21","","20 ","QR"
"1793",2634,"위례포레샤인아파트 2318동","송파구","장지동 390-4","37.477211","127.1371765","2020-01-21","","15 ","QR"
"1794",2635,"잠실새내역 1번출구","송파구","올림픽로 지하 140","37.51129532","127.0867386","2020-01-16","","15 ","QR"
"1795",2637,"잠실월드 메르디앙","송파구","올림픽로 74","37.51146317","127.0788117","2020-01-16","","15 ","QR"
"1796",2638,"쌍용아파트","송파구","풍납동 457","37.52681351","127.1181488","2020-05-13","","8 ","QR"
"1797",2639,"석촌역 8번출구","송파구","송파구 석촌동 209","37.50550461","127.106575","2020-01-17","","18 ","QR"
"1798",2641,"송파역 4번출구","송파구","송파대로 345","37.50004959","127.1115112","2020-01-20","","10 ","QR"
"1799",2642,"마천동 성내천 쉼터","송파구","성내천로 179","37.50149536","127.1477814","2020-01-15","","12 ","QR"
"1800",2643,"풍납중학교 측면","송파구","풍납동460","37.52516937","127.117157","2020-01-21","","10 ","QR"
"1801",2644,"성내5교 (GS주유소)","송파구","동남로298","37.50166702","127.1377411","2020-01-15","","10 ","QR"
"1802",2645,"잠실나들목2(엘스아파트136동)","송파구","송파구 잠실동 18-1","37.51621246","127.084343","2020-01-16","","10 ","QR"
"1803",2646,"레이클펠리스101동앞","송파구","잠실로88","37.50775909","127.0912933","2020-01-16","","15 ","QR"
"1804",2647,"잠실 자전거 수리센터 앞","송파구","송파구 잠실동 41","37.51156998","127.1010742","2020-01-16","","15 ","QR"
"1805",2648,"헬리오시티 112동 앞","송파구","송파구 가락동 509-11","37.49469757","127.1046448","2020-01-17","","30 ","QR"
"1806",2649,"오금공원사거리2","송파구","마천로103","37.50544357","127.1323319","2020-01-15","","10 ","QR"
"1807",2650,"위례22단지 2208동 다리앞","송파구","위례광장로163","37.47854996","127.1381378","2020-01-21","","11 ","QR"
"1808",2651,"경찰병원역 3번출구 앞","송파구","송파구 가락동 123","37.49577332","127.1245804","2020-01-20","","20 ","QR"
"1809",2652,"송파 레미니스1단지 102동 앞","송파구","오금동 96","37.50883102","127.1342621","2020-01-15","","20 ","QR"
"1810",2653,"올림픽공원사거리(선수촌아파트)","송파구","양재대로 1218","37.51202011","127.1286469","2020-01-15","","20 ","QR"
"1811",2654,"올림픽선수촌아파트 136동 앞","송파구","양재대로 1218","37.50997543","127.1336975","2020-01-16","","10 ","QR"
"1812",2655,"송이공원","송파구","송파동 169","37.50057983","127.1188431","2020-01-17","","20 ","QR"
"1813",2656,"풍납동 아이파크 107동 앞","송파구","올림픽로43길 34","37.52480316","127.1146393","2020-06-08","","10","QR"
"1814",2657,"송파 파인타운 11단지","송파구","장지동 854-3","37.47916031","127.1321945","2020-06-04","","10","QR"
"1815",2658,"가락몰 업무동","송파구","가락동 600","37.49535751","127.1156921","2020-06-04","","10","QR"
"1816",2659,"서울친환경유통센터","송파구","가락동 600","37.49416733","127.1045303","2020-06-04","","10","QR"
"1817",2701,"마곡나루역 5번출구 뒤편","강서구","강서구 마곡동 761-5","37.56520081","126.8273163","2018-11-14","15","","LCD"
"1818",2702,"마곡 엠밸리2단지","강서구","강서구 마곡동 735-1","37.56917953","126.8194428","2018-11-14","20","","LCD"
"1819",2703,"서울도시가스 앞 ","강서구","강서구 공항대로 607 ","37.54748535","126.8720245","2020-03-16","","20 ","QR"
"1820",2704,"홈플러스(강서점)","강서구","강서구 화곡로 398 ","37.55852127","126.8540115","2020-03-16","","10 ","QR"
"1821",2706,"강서공업고등학교 앞","강서구","강서구 방화대로47가길 22, 411동 앞","37.57631683","126.8164978","2020-03-20","","13 ","QR"
"1822",2707,"한강아파트","강서구","강서구 허준로 23","37.57036972","126.8444138","2020-03-20","","13 ","QR"
"1823",2708,"강서한강자이타워 앞","강서구","강서구 양천로 401 ","37.56468201","126.8489075","2020-03-20","","15 ","QR"
"1824",2709,"강변아파트 310동 앞","강서구","강서구 가양동 1459-8 ","37.56458664","126.8569183","2020-03-16","","20 ","QR"
"1825",2710,"라이품 공영주차장 앞","강서구","강서구 강서로 515","37.57131958","126.8416672","2020-03-20","","30 ","QR"
"1826",2711,"가로공원공영주차장 1번 출구","강서구","강서구 가로공원로 193","37.53736115","126.8374481","2020-03-18","","9 ","QR"
"1827",2712,"화곡터널입구교차로","강서구","강서구 가로공원로 238 ","37.53835678","126.8423615","2020-03-17","","10 ","QR"
"1828",2713,"우장초등학교 앞","강서구","강서구 화곡로 263","37.54853439","126.8466721","2020-03-17","","13 ","QR"
"1829",2715,"마곡나루역 2번 출구 ","강서구","강서구 마곡중앙5로 6 ","37.56692505","126.8274384","2020-05-27","","25 ","QR"
"1830",2716,"롯데 R&D 센터","강서구","강서구 마곡동 301-2 ","37.57094193","126.8283157","2020-03-13","","30 ","QR"
"1831",2717,"LG유플러스 마곡사옥","강서구","강서구 마곡중앙8로 71","37.56133652","126.8339005","2020-03-15","","30 ","QR"
"1832",2718,"마곡수명산파크1단지","강서구","강서구 마곡동 728-148 ","37.55524826","126.8322983","2020-03-17","","15 ","QR"
"1833",2719,"마곡문화공원","강서구","강서구 마곡중앙8로 20","37.56121445","126.8303146","2020-03-16","","20 ","QR"
"1834",2720,"힐스테이트에코","강서구","강서구 마곡동 727-1120","37.55965805","126.8296051","2020-03-16","","30 ","QR"
"1835",2721,"등촌1-10단지 교차로","강서구","강서구 강서로 419","37.56320572","126.8393631","2020-03-15","","12 ","QR"
"1836",2722,"마곡 문영비지웍스","강서구","강서구 강서로 391","37.56188202","126.8391571","2020-03-15","","20 ","QR"
"1837",2723,"마곡 필네이처","강서구","강서구 마곡동 727-1190","37.56089401","126.8366928","2020-03-16","","13 ","QR"
"1838",2724,"(재)FITI시험연구원","강서구","강서구 마곡동 727-211","37.5685463","126.838829","2020-03-20","","25 ","QR"
"1839",2725,"서울식물원 식물문화센터","강서구","강서구 마곡동 727-305","37.56929398","126.8361969","2020-03-12","","20 ","QR"
"1840",2727,"서울식물원 잔디마당 앞","강서구","강서구 마곡동 727-558","37.56408691","126.8308487","2020-03-15","","20 ","QR"
"1841",2728,"마곡나루역 3번 출구","강서구","강서구 마곡동 372-23","37.56580353","126.8280792","2020-03-12","","30 ","QR"
"1842",2729,"넥센 유니버시티 앞","강서구","강서구 마곡동 301-2","37.56948471","126.8280945","2020-03-13","","30 ","QR"
"1843",2730,"마곡메가박스 앞","강서구","강서구 마곡동 727-1179","37.55912781","126.8349533","2020-03-15","","30 ","QR"
"1844",2731,"명덕고교","강서구","강서구 마곡동 728-46","37.55524063","126.8347168","2020-03-16","","14 ","QR"
"1845",2732,"마곡수명산 1-2단지 ","강서구","강서구 마곡동 728-350","37.5553093","126.8298569","2020-03-17","","15 ","QR"
"1846",2733,"마곡13단지 정문 앞","강서구","강서구 마곡동 730-417 ","37.55854034","126.8201065","2020-03-20","","15 ","QR"
"1847",2735,"마곡 공공청사","강서구","강서구 마곡서로 101 ","37.56229401","126.8239517","2020-03-13","","30 ","QR"
"1848",2737,"까치산역 3번 출구","강서구","강서로 45","37.5316925","126.8465881","2020-03-21","","10 ","QR"
"1849",2739,"수명산파크1단지교차로","강서구","강서로47길 142","37.55363083","126.8286133","2020-03-17","","10 ","QR"
"1850",2740,"마곡레포츠센터","강서구","양천로 251","37.57297516","126.8324432","2020-03-20","","30 ","QR"
"1851",2741,"마곡수명산파크5-6단지","강서구","강서구 내발산동 751-1","37.55061722","126.8268814","2020-03-17","","8 ","QR"
"1852",2742,"강서구민올림픽체육센터","강서구","화곡로65길 62","37.55990601","126.8504257","2020-03-17","","10 ","QR"
"1853",2743,"동신아파트 104동 앞","강서구","강서로532","37.57204437","126.8440018","2020-06-01","","11 ","QR"
"1854",2744,"강서세무서앞","강서구","마곡서1로 60","37.56214905","126.8209992","2020-05-27","","20 ","QR"
"1855",2745,"수명초등학교","강서구","수명로1길 84","37.5525589","126.8231125","2020-05-28","","9 ","QR"
"1856",2746,"수명산파크4단지411동 앞","강서구","내발산동 751-6","37.55134964","126.8249359","2020-06-18","","10 ","QR"
"1857",2801,"대륭포스트타워1차","구로구","구로구 디지털로31길 33-1","37.48437119","126.8954239","2019-07-18","30","","LCD"
"1858",2804,"항동지구 6단지 602동 앞","구로구","구로구 항동 216-11 ","37.47737503","126.820015","2020-03-03","","20 ","QR"
"1859",2805,"구로자원순환센터 ","구로구","구로구 항동 216-11 ","37.48250961","126.8257599","2020-02-27","","20 ","QR"
"1860",2806,"항동지구 4단지 입구","구로구","구로구 항동 82-9","37.48259735","126.8264542","2020-02-27","","20 ","QR"
"1861",2807,"항동지구 1단지 105동 앞","구로구","구로구 항동 100-14","37.48062897","126.8218155","2020-02-28","","20 ","QR"
"1862",2808,"항동지구 2단지 202동 앞","구로구","구로구 항동 113-1","37.48080826","126.821907","2020-02-28","","20 ","QR"
"1863",2809,"항동지구 11단지 1103동 앞","구로구","구로구 항동 169-1","37.47790527","126.8231125","2020-03-02","","20 ","QR"
"1864",2810,"항동지구 3단지 311동 앞","구로구","구로구 항동 169-2","37.47793961","126.8232727","2020-03-02","","20 ","QR"
"1865",2812,"항동프라자","구로구","구로구 항동 120-5","37.4798317","126.8227539","2020-03-02","","18 ","QR"
"1866",2813,"항동지구 3단지 302동 앞","구로구","구로구 항동 135-26","37.47937012","126.82547","2020-03-03","","10 ","QR"
"1867",2814,"항동지구 10단지 1001동 앞","구로구","구로구 항동 135-11","37.47934341","126.8256378","2020-03-03","","10 ","QR"
"1868",2815,"항동지구 7단지 정문","구로구","구로구 항동 207-1","37.47601318","126.8164597","2020-03-02","","20 ","QR"
"1869",2816,"항동지구 8단지 803동옆(주차장입구)","구로구","구로구 항동 220","37.47473145","126.817009","2020-03-02","","20 ","QR"
"1870",2817,"천왕이펜하우5단지 앞","구로구","구로구 천왕동 277-4","37.47989655","126.8403702","2020-02-27","","15 ","QR"
"1871",2818,"천왕이펜하우스3단지 앞","구로구","구로구 천왕동 277-4","37.48223877","126.8385315","2020-02-27","","20 ","QR"
"1872",2819,"하늘숲초등학교 앞","구로구","구로구 천왕동 산13-1","37.48366547","126.8416138","2020-02-27","","15 ","QR"
"1873",2820,"신세기아파트 앞","구로구","구로구 개봉동 412-52","37.49396515","126.8530426","2020-03-03","","10 ","QR"
"1874",2821,"청구아파트 앞","구로구","구로구 고척동 50-65","37.50119019","126.863533","2020-03-09","","10 ","QR"
"1875",2822,"제니스스포츠 앞","구로구","구로구 고척동 60-42","37.50452042","126.8705521","2020-03-09","","20 ","QR"
"1876",2823,"중앙유통단지 앞","구로구","구로구 구로동 635-32","37.49981308","126.8743134","2020-03-09","","10 ","QR"
"1877",2824,"미래사랑어린이공원 앞","구로구","구로구 신도림동 314-2","37.51006317","126.8895645","2020-03-04","","10 ","QR"
"1878",2825,"초롱타운 앞","구로구","구로구 구로동 467-62","37.49545288","126.880394","2020-03-03","","10 ","QR"
"1879",2826,"가마산지하보도 옆","구로구","구로구 구로동 390-157","37.48864746","126.8804703","2020-03-03","","10 ","QR"
"1880",2901,"공릉동풍림아파트 101동","노원구","노원구 섬밭로 139","37.62981415","127.0665054","2020-03-24","","8 ","QR"
"1881",2902,"공릉풍림아파트 108동","노원구","노원구 섬밭로 139","37.62862015","127.0669098","2020-03-24","","12 ","QR"
"1882",2903,"월계초안아파트 1단지","노원구","노원구 덕릉로60길 185","37.63372803","127.0443649","2020-03-24","","10 ","QR"
"1883",2904,"중계3차청구아파트","노원구","노원구 중계로 225","37.65050507","127.0739822","2020-03-24","","8 ","QR"
"1884",2905,"중계주공6단지","노원구","노원구 한글비석로8길 41","37.64816284","127.0789871","2020-03-26","","10 ","QR"
"1885",2907," 월계중학교","노원구"," 서울특별시 노원구 월계로45가길 54","37.63074875","127.0531082","2020-03-24","","25 ","QR"
"1886",2908," 광운대학교 중앙도서관","노원구"," 서울 노원구 광운로 20","37.62000275","127.0585632","2020-03-24","","20 ","QR"
"1887",2909," 석계역 3번 출구","노원구"," 서울 노원구 월계동","37.61545944","127.0674515","2020-03-25","","10 ","QR"
"1888",2910,"도깨비시장","노원구"," 노원구 동일로 1028","37.6220932","127.0744247","2020-03-25","","10 ","QR"
"1889",2911,"상계역중앙시장","노원구"," 서울 노원구 상계로27길 20","37.65924454","127.0722046","2020-03-23","","7 ","QR"
"1890",2912,"대진고등학교","노원구"," 서울 노원구 공릉로62가길 47","37.63815689","127.0732651","2020-03-23","","20 ","QR"
"1891",2913,"상계8동 주민센터","노원구","서울시 노원구 동일로227길 85","37.666996","127.0515289","2020-03-23","","8 ","QR"
"1892",2914,"서울과학기술대학교(미래관)","노원구","노원구 공릉동 172 ","37.62950897","127.0810394","2020-06-10","","20 ","QR"
"1893",2915,"서울과학기술대학교(어학교육원)","노원구","노원구 공릉동 172 ","37.63489914","127.0776749","2020-03-24","","20 ","QR"
"1894",2917,"신창중학교 후문 맞은편 버스정류장","노원구","서울 노원구 월계로45길 92","37.62807083","127.0469208","2020-03-30","","10 ","QR"
"1895",2919,"등나무 근린공원(시립북서울미술관 앞) ","노원구","노원구 중계동 508","37.63999557","127.0665741","2020-03-23","","15 ","QR"
"1896",2920,"상계중학교(당현2교사거리)","노원구","노원구 노원로 398 ","37.65103531","127.0687103","2020-03-23","","15 ","QR"
"1897",2921,"중계역 2번출구","노원구","노원구 동일로 1308-1","37.64548874","127.0645828","2020-03-26","","10 ","QR"
"1898",3002,"벽산상암스마트큐브 ","마포구","마포구 성산동 593-1","37.5650444","126.9036026","2020-04-06","","10","QR"
"1899",3003,"래미안공덕3차아파트","마포구","마포구 공덕동 457","37.54554749","126.9567947","2020-04-02","","5","QR"
"1900",3005,"마포구청 청사내","마포구","마포구 월드컵로 212","37.56624603","126.9021835","2020-04-02","","20","QR"
"1901",3006," 상암월드컵파크5단지(상암중학교)","마포구","마포구 상암동 1727","37.57948685","126.8873901","2020-04-06","","15","QR"
"1902",3007,"MBC 앞","마포구","마포구 상암동 1704","37.58194733","126.8902969","2020-04-06","","10","QR"
"1903",3008,"DMC역7번출구","마포구","마포구 상암동 1133","37.57711411","126.8983612","2020-04-06","","10","QR"
"1904",3009,"서교동사거리","마포구","마포구 서교동 418","37.55583954","126.920433","2020-04-12","","10","QR"
"1905",3010,"홍대입구역 3번출구","마포구","마포구 동교동 155-27","37.5582962","126.9253845","2020-04-12","","15","QR"
"1906",3011,"경의선(노고산동)","마포구","마포구 노고산동 112-12","37.55342865","126.9337921","2020-04-08","","10","QR"
"1907",3013,"서울고용노동청본청","중구","장교동23-1","37.56761551","126.9872437","2020-10-29","","10","QR"
"1908",3100,"북성초교","서대문구","서울특별시 서대문구 신촌로 235-1","37.55739594","126.9521637","2017-11-01","8","","LCD"
"1909",3101,"서대문구청","서대문구","서울특별시 서대문구 연희로 242","37.57838058","126.9360962","2017-11-01","15","","LCD"
"1910",3102,"연희삼거리","서대문구","서울특별시 서대문구 연희로 113","37.56799698","126.9316559","2017-11-01","10","","LCD"
"1911",3103,"홍제삼거리 북측","서대문구","서대문구 홍제동 161-1","37.58670044","126.9467697","2018-10-12","8","","LCD"
"1912",3104,"e편한세상 신촌4단지 앞","서대문구","북아현동 251-71","37.55812836","126.9562073","2018-10-12","13","","LCD"
"1913",3105,"홍은센트레빌 아파트 앞","서대문구","서대문구 홍은동 164-44","37.5971489","126.93853","2018-10-18","12","","LCD"
"1914",3107,"연희초등학교 앞","서대문구","서대문구 연희동 87-27","37.56962967","126.9333115","2018-10-12","7","","LCD"
"1915",3109,"북한산더","","","","","","","",""
